<?xml version="1.0" encoding="UTF-8"?>
<gpx version="1.1" creator="pathbeaters26" xmlns="http://www.topografix.com/GPX/1/1" xmlns:xsi="http://www.w3.org/2001/XMLSchema-instance" xsi:schemaLocation="http://www.topografix.com/GPX/1/1 http://www.topografix.com/GPX/1/1/gpx.xsd">
  <metadata><name>Alice–Toxaway Loop (Tin Cup Hiker)</name><desc>Thu-Mon plan; one trkseg per day leg (Fri, Sat, Sun, Mon). Track routed with BRouter hiking-mountain over OSM trails; elevations from the BRouter SRTM profile.</desc></metadata>
  <wpt lat="43.984390" lon="-114.871890"><ele>2140.3</ele><name>Tin Cup TH · Pettit Lake</name></wpt>
  <wpt lat="43.939300" lon="-114.943980"><ele>2621.6</ele><name>Fri camp · Alice Lake</name></wpt>
  <wpt lat="43.939500" lon="-114.957570"><ele>2700.2</ele><name>Twin Lakes</name></wpt>
  <wpt lat="43.960720" lon="-114.969800"><ele>2539.6</ele><name>Sat camp · Toxaway Lake</name></wpt>
  <wpt lat="43.996380" lon="-114.953890"><ele>2572.6</ele><name>Imogene Lake</name></wpt>
  <wpt lat="43.976820" lon="-114.959390"><ele>2638.9</ele><name>Edith Lake</name></wpt>
  <wpt lat="43.979210" lon="-114.931530"><ele>2362.2</ele><name>Sun camp · Farley Lake</name></wpt>
  <wpt lat="43.940630" lon="-114.964022"><ele>2883.0</ele><name>Snowyside Pass</name></wpt>
  <trk><name>Alice–Toxaway Loop (Tin Cup Hiker)</name>
    <trkseg>
      <!-- Fri — up to Alice Lake -->
      <trkpt lat="43.984388" lon="-114.871890"><ele>2149.8</ele></trkpt>
      <trkpt lat="43.983879" lon="-114.872384"><ele>2148.0</ele></trkpt>
      <trkpt lat="43.983566" lon="-114.872798"><ele>2143.8</ele></trkpt>
      <trkpt lat="43.983553" lon="-114.873194"><ele>2141.0</ele></trkpt>
      <trkpt lat="43.983573" lon="-114.874281"><ele>2141.2</ele></trkpt>
      <trkpt lat="43.983599" lon="-114.874709"><ele>2142.0</ele></trkpt>
      <trkpt lat="43.983527" lon="-114.875151"><ele>2141.2</ele></trkpt>
      <trkpt lat="43.983395" lon="-114.875924"><ele>2145.5</ele></trkpt>
      <trkpt lat="43.983369" lon="-114.877456"><ele>2148.8</ele></trkpt>
      <trkpt lat="43.983336" lon="-114.878975"><ele>2155.5</ele></trkpt>
      <trkpt lat="43.983244" lon="-114.880217"><ele>2155.2</ele></trkpt>
      <trkpt lat="43.983135" lon="-114.881102"><ele>2154.0</ele></trkpt>
      <trkpt lat="43.983018" lon="-114.882294"><ele>2159.0</ele></trkpt>
      <trkpt lat="43.983023" lon="-114.883200"><ele>2161.5</ele></trkpt>
      <trkpt lat="43.982822" lon="-114.884383"><ele>2160.5</ele></trkpt>
      <trkpt lat="43.982727" lon="-114.884995"><ele>2159.5</ele></trkpt>
      <trkpt lat="43.982526" lon="-114.886212"><ele>2157.5</ele></trkpt>
      <trkpt lat="43.982379" lon="-114.887518"><ele>2157.8</ele></trkpt>
      <trkpt lat="43.982282" lon="-114.889585"><ele>2152.0</ele></trkpt>
      <trkpt lat="43.982093" lon="-114.891295"><ele>2154.8</ele></trkpt>
      <trkpt lat="43.981727" lon="-114.893379"><ele>2152.8</ele></trkpt>
      <trkpt lat="43.981513" lon="-114.894150"><ele>2154.5</ele></trkpt>
      <trkpt lat="43.980697" lon="-114.895215"><ele>2148.5</ele></trkpt>
      <trkpt lat="43.980433" lon="-114.896189"><ele>2152.5</ele></trkpt>
      <trkpt lat="43.980125" lon="-114.897029"><ele>2153.0</ele></trkpt>
      <trkpt lat="43.979996" lon="-114.897464"><ele>2150.8</ele></trkpt>
      <trkpt lat="43.979637" lon="-114.897979"><ele>2157.2</ele></trkpt>
      <trkpt lat="43.979380" lon="-114.898188"><ele>2157.2</ele></trkpt>
      <trkpt lat="43.978805" lon="-114.898863"><ele>2158.5</ele></trkpt>
      <trkpt lat="43.978183" lon="-114.899833"><ele>2161.0</ele></trkpt>
      <trkpt lat="43.977649" lon="-114.900871"><ele>2166.5</ele></trkpt>
      <trkpt lat="43.976059" lon="-114.903254"><ele>2182.2</ele></trkpt>
      <trkpt lat="43.975102" lon="-114.903506"><ele>2180.8</ele></trkpt>
      <trkpt lat="43.974697" lon="-114.903961"><ele>2190.5</ele></trkpt>
      <trkpt lat="43.975055" lon="-114.904600"><ele>2199.5</ele></trkpt>
      <trkpt lat="43.974778" lon="-114.905331"><ele>2209.2</ele></trkpt>
      <trkpt lat="43.973258" lon="-114.906555"><ele>2219.5</ele></trkpt>
      <trkpt lat="43.972635" lon="-114.907899"><ele>2231.8</ele></trkpt>
      <trkpt lat="43.971745" lon="-114.907709"><ele>2230.8</ele></trkpt>
      <trkpt lat="43.971320" lon="-114.907750"><ele>2235.5</ele></trkpt>
      <trkpt lat="43.970803" lon="-114.908073"><ele>2239.0</ele></trkpt>
      <trkpt lat="43.970158" lon="-114.908736"><ele>2243.8</ele></trkpt>
      <trkpt lat="43.969836" lon="-114.909066"><ele>2244.5</ele></trkpt>
      <trkpt lat="43.969088" lon="-114.909635"><ele>2245.2</ele></trkpt>
      <trkpt lat="43.968673" lon="-114.909872"><ele>2245.0</ele></trkpt>
      <trkpt lat="43.968243" lon="-114.910159"><ele>2245.5</ele></trkpt>
      <trkpt lat="43.968072" lon="-114.910283"><ele>2247.5</ele></trkpt>
      <trkpt lat="43.967466" lon="-114.910435"><ele>2253.8</ele></trkpt>
      <trkpt lat="43.967239" lon="-114.910683"><ele>2255.0</ele></trkpt>
      <trkpt lat="43.966700" lon="-114.910917"><ele>2258.2</ele></trkpt>
      <trkpt lat="43.965971" lon="-114.911583"><ele>2267.0</ele></trkpt>
      <trkpt lat="43.965170" lon="-114.912301"><ele>2271.8</ele></trkpt>
      <trkpt lat="43.964920" lon="-114.912825"><ele>2270.0</ele></trkpt>
      <trkpt lat="43.964941" lon="-114.913298"><ele>2268.2</ele></trkpt>
      <trkpt lat="43.965001" lon="-114.913548"><ele>2270.2</ele></trkpt>
      <trkpt lat="43.965012" lon="-114.914083"><ele>2276.2</ele></trkpt>
      <trkpt lat="43.964920" lon="-114.914472"><ele>2280.5</ele></trkpt>
      <trkpt lat="43.964703" lon="-114.914634"><ele>2279.8</ele></trkpt>
      <trkpt lat="43.964396" lon="-114.914825"><ele>2277.2</ele></trkpt>
      <trkpt lat="43.964182" lon="-114.915114"><ele>2277.8</ele></trkpt>
      <trkpt lat="43.964043" lon="-114.915248"><ele>2279.5</ele></trkpt>
      <trkpt lat="43.963579" lon="-114.915309"><ele>2278.5</ele></trkpt>
      <trkpt lat="43.963296" lon="-114.915518"><ele>2280.8</ele></trkpt>
      <trkpt lat="43.963058" lon="-114.915551"><ele>2282.2</ele></trkpt>
      <trkpt lat="43.962919" lon="-114.915610"><ele>2283.2</ele></trkpt>
      <trkpt lat="43.962846" lon="-114.915604"><ele>2283.5</ele></trkpt>
      <trkpt lat="43.963036" lon="-114.915766"><ele>2285.0</ele></trkpt>
      <trkpt lat="43.963262" lon="-114.916008"><ele>2291.2</ele></trkpt>
      <trkpt lat="43.963465" lon="-114.916126"><ele>2296.5</ele></trkpt>
      <trkpt lat="43.963584" lon="-114.916189"><ele>2299.8</ele></trkpt>
      <trkpt lat="43.963585" lon="-114.916244"><ele>2301.8</ele></trkpt>
      <trkpt lat="43.963357" lon="-114.916273"><ele>2300.0</ele></trkpt>
      <trkpt lat="43.963274" lon="-114.916299"><ele>2300.0</ele></trkpt>
      <trkpt lat="43.962878" lon="-114.916437"><ele>2300.8</ele></trkpt>
      <trkpt lat="43.962538" lon="-114.916844"><ele>2305.8</ele></trkpt>
      <trkpt lat="43.962470" lon="-114.916974"><ele>2307.0</ele></trkpt>
      <trkpt lat="43.962511" lon="-114.917014"><ele>2308.2</ele></trkpt>
      <trkpt lat="43.962694" lon="-114.916933"><ele>2310.0</ele></trkpt>
      <trkpt lat="43.962978" lon="-114.916960"><ele>2315.2</ele></trkpt>
      <trkpt lat="43.963069" lon="-114.917006"><ele>2318.2</ele></trkpt>
      <trkpt lat="43.963275" lon="-114.917084"><ele>2324.2</ele></trkpt>
      <trkpt lat="43.963421" lon="-114.917208"><ele>2331.5</ele></trkpt>
      <trkpt lat="43.963636" lon="-114.917130"><ele>2333.8</ele></trkpt>
      <trkpt lat="43.963641" lon="-114.917199"><ele>2336.5</ele></trkpt>
      <trkpt lat="43.963290" lon="-114.917470"><ele>2336.8</ele></trkpt>
      <trkpt lat="43.963034" lon="-114.917732"><ele>2337.5</ele></trkpt>
      <trkpt lat="43.962949" lon="-114.917919"><ele>2340.2</ele></trkpt>
      <trkpt lat="43.962814" lon="-114.918069"><ele>2339.8</ele></trkpt>
      <trkpt lat="43.962661" lon="-114.918486"><ele>2345.2</ele></trkpt>
      <trkpt lat="43.962432" lon="-114.919216"><ele>2359.0</ele></trkpt>
      <trkpt lat="43.962091" lon="-114.919336"><ele>2359.5</ele></trkpt>
      <trkpt lat="43.961630" lon="-114.919950"><ele>2381.2</ele></trkpt>
      <trkpt lat="43.961319" lon="-114.920149"><ele>2387.5</ele></trkpt>
      <trkpt lat="43.960992" lon="-114.920265"><ele>2385.2</ele></trkpt>
      <trkpt lat="43.960761" lon="-114.920425"><ele>2383.8</ele></trkpt>
      <trkpt lat="43.960559" lon="-114.920791"><ele>2388.5</ele></trkpt>
      <trkpt lat="43.960649" lon="-114.920765"><ele>2389.8</ele></trkpt>
      <trkpt lat="43.960968" lon="-114.920572"><ele>2394.0</ele></trkpt>
      <trkpt lat="43.961162" lon="-114.920553"><ele>2401.0</ele></trkpt>
      <trkpt lat="43.961256" lon="-114.920560"><ele>2405.2</ele></trkpt>
      <trkpt lat="43.961145" lon="-114.920635"><ele>2403.8</ele></trkpt>
      <trkpt lat="43.960962" lon="-114.920710"><ele>2398.0</ele></trkpt>
      <trkpt lat="43.960833" lon="-114.920820"><ele>2394.5</ele></trkpt>
      <trkpt lat="43.960744" lon="-114.921019"><ele>2406.8</ele></trkpt>
      <trkpt lat="43.960669" lon="-114.921177"><ele>2416.2</ele></trkpt>
      <trkpt lat="43.960438" lon="-114.921332"><ele>2419.0</ele></trkpt>
      <trkpt lat="43.960176" lon="-114.921600"><ele>2424.5</ele></trkpt>
      <trkpt lat="43.959872" lon="-114.921850"><ele>2429.5</ele></trkpt>
      <trkpt lat="43.959620" lon="-114.921940"><ele>2429.5</ele></trkpt>
      <trkpt lat="43.959556" lon="-114.921987"><ele>2430.2</ele></trkpt>
      <trkpt lat="43.959330" lon="-114.922102"><ele>2429.5</ele></trkpt>
      <trkpt lat="43.959117" lon="-114.922340"><ele>2432.5</ele></trkpt>
      <trkpt lat="43.959032" lon="-114.922346"><ele>2432.2</ele></trkpt>
      <trkpt lat="43.958770" lon="-114.922483"><ele>2434.5</ele></trkpt>
      <trkpt lat="43.958575" lon="-114.922686"><ele>2440.0</ele></trkpt>
      <trkpt lat="43.958394" lon="-114.922737"><ele>2438.5</ele></trkpt>
      <trkpt lat="43.958149" lon="-114.923025"><ele>2446.2</ele></trkpt>
      <trkpt lat="43.958104" lon="-114.923129"><ele>2448.8</ele></trkpt>
      <trkpt lat="43.958280" lon="-114.923153"><ele>2448.0</ele></trkpt>
      <trkpt lat="43.958297" lon="-114.923194"><ele>2448.8</ele></trkpt>
      <trkpt lat="43.957993" lon="-114.923456"><ele>2457.0</ele></trkpt>
      <trkpt lat="43.958110" lon="-114.923501"><ele>2458.8</ele></trkpt>
      <trkpt lat="43.958032" lon="-114.923529"><ele>2459.5</ele></trkpt>
      <trkpt lat="43.957898" lon="-114.923741"><ele>2464.0</ele></trkpt>
      <trkpt lat="43.957778" lon="-114.923743"><ele>2462.0</ele></trkpt>
      <trkpt lat="43.957567" lon="-114.923698"><ele>2458.0</ele></trkpt>
      <trkpt lat="43.957394" lon="-114.923758"><ele>2460.0</ele></trkpt>
      <trkpt lat="43.957153" lon="-114.923881"><ele>2465.5</ele></trkpt>
      <trkpt lat="43.957096" lon="-114.924056"><ele>2466.0</ele></trkpt>
      <trkpt lat="43.956996" lon="-114.924336"><ele>2467.5</ele></trkpt>
      <trkpt lat="43.957001" lon="-114.924729"><ele>2468.5</ele></trkpt>
      <trkpt lat="43.956894" lon="-114.924851"><ele>2468.2</ele></trkpt>
      <trkpt lat="43.956531" lon="-114.924995"><ele>2469.2</ele></trkpt>
      <trkpt lat="43.956304" lon="-114.925071"><ele>2474.0</ele></trkpt>
      <trkpt lat="43.956114" lon="-114.925546"><ele>2472.5</ele></trkpt>
      <trkpt lat="43.955954" lon="-114.925708"><ele>2472.0</ele></trkpt>
      <trkpt lat="43.955745" lon="-114.925934"><ele>2473.8</ele></trkpt>
      <trkpt lat="43.955523" lon="-114.926207"><ele>2478.8</ele></trkpt>
      <trkpt lat="43.955583" lon="-114.926491"><ele>2476.8</ele></trkpt>
      <trkpt lat="43.955598" lon="-114.926742"><ele>2476.8</ele></trkpt>
      <trkpt lat="43.955571" lon="-114.927111"><ele>2478.5</ele></trkpt>
      <trkpt lat="43.955561" lon="-114.927365"><ele>2479.8</ele></trkpt>
      <trkpt lat="43.955451" lon="-114.927617"><ele>2481.8</ele></trkpt>
      <trkpt lat="43.955366" lon="-114.927729"><ele>2483.0</ele></trkpt>
      <trkpt lat="43.955290" lon="-114.927796"><ele>2483.5</ele></trkpt>
      <trkpt lat="43.955157" lon="-114.927890"><ele>2483.2</ele></trkpt>
      <trkpt lat="43.955033" lon="-114.928040"><ele>2483.8</ele></trkpt>
      <trkpt lat="43.954851" lon="-114.928022"><ele>2484.2</ele></trkpt>
      <trkpt lat="43.954550" lon="-114.928339"><ele>2488.5</ele></trkpt>
      <trkpt lat="43.954415" lon="-114.929024"><ele>2491.2</ele></trkpt>
      <trkpt lat="43.954462" lon="-114.929012"><ele>2491.8</ele></trkpt>
      <trkpt lat="43.954532" lon="-114.929073"><ele>2492.8</ele></trkpt>
      <trkpt lat="43.954620" lon="-114.929441"><ele>2499.8</ele></trkpt>
      <trkpt lat="43.954627" lon="-114.929581"><ele>2502.8</ele></trkpt>
      <trkpt lat="43.954582" lon="-114.929597"><ele>2502.2</ele></trkpt>
      <trkpt lat="43.954406" lon="-114.929709"><ele>2501.5</ele></trkpt>
      <trkpt lat="43.954336" lon="-114.929837"><ele>2502.5</ele></trkpt>
      <trkpt lat="43.954280" lon="-114.930091"><ele>2505.5</ele></trkpt>
      <trkpt lat="43.954027" lon="-114.930305"><ele>2506.8</ele></trkpt>
      <trkpt lat="43.953906" lon="-114.930638"><ele>2512.0</ele></trkpt>
      <trkpt lat="43.953801" lon="-114.930769"><ele>2514.2</ele></trkpt>
      <trkpt lat="43.953952" lon="-114.930819"><ele>2514.5</ele></trkpt>
      <trkpt lat="43.953962" lon="-114.930883"><ele>2515.8</ele></trkpt>
      <trkpt lat="43.953849" lon="-114.931067"><ele>2520.2</ele></trkpt>
      <trkpt lat="43.953811" lon="-114.931238"><ele>2524.0</ele></trkpt>
      <trkpt lat="43.953927" lon="-114.931195"><ele>2523.2</ele></trkpt>
      <trkpt lat="43.954070" lon="-114.931173"><ele>2522.8</ele></trkpt>
      <trkpt lat="43.954082" lon="-114.931205"><ele>2523.5</ele></trkpt>
      <trkpt lat="43.953845" lon="-114.931523"><ele>2530.2</ele></trkpt>
      <trkpt lat="43.953725" lon="-114.931652"><ele>2532.5</ele></trkpt>
      <trkpt lat="43.953808" lon="-114.931697"><ele>2534.0</ele></trkpt>
      <trkpt lat="43.953900" lon="-114.931718"><ele>2535.0</ele></trkpt>
      <trkpt lat="43.954090" lon="-114.931609"><ele>2533.8</ele></trkpt>
      <trkpt lat="43.954310" lon="-114.931523"><ele>2535.5</ele></trkpt>
      <trkpt lat="43.954318" lon="-114.931570"><ele>2536.8</ele></trkpt>
      <trkpt lat="43.954274" lon="-114.931653"><ele>2538.0</ele></trkpt>
      <trkpt lat="43.954059" lon="-114.931845"><ele>2538.5</ele></trkpt>
      <trkpt lat="43.953955" lon="-114.932024"><ele>2541.5</ele></trkpt>
      <trkpt lat="43.953883" lon="-114.932270"><ele>2546.2</ele></trkpt>
      <trkpt lat="43.953774" lon="-114.932558"><ele>2552.2</ele></trkpt>
      <trkpt lat="43.953533" lon="-114.932714"><ele>2555.8</ele></trkpt>
      <trkpt lat="43.953178" lon="-114.932786"><ele>2557.5</ele></trkpt>
      <trkpt lat="43.952920" lon="-114.932910"><ele>2561.0</ele></trkpt>
      <trkpt lat="43.952917" lon="-114.932821"><ele>2559.5</ele></trkpt>
      <trkpt lat="43.952994" lon="-114.932721"><ele>2557.5</ele></trkpt>
      <trkpt lat="43.952991" lon="-114.932620"><ele>2555.5</ele></trkpt>
      <trkpt lat="43.952866" lon="-114.932577"><ele>2556.2</ele></trkpt>
      <trkpt lat="43.952791" lon="-114.932678"><ele>2558.2</ele></trkpt>
      <trkpt lat="43.952773" lon="-114.932854"><ele>2560.5</ele></trkpt>
      <trkpt lat="43.952631" lon="-114.932883"><ele>2561.2</ele></trkpt>
      <trkpt lat="43.952473" lon="-114.932798"><ele>2562.0</ele></trkpt>
      <trkpt lat="43.952292" lon="-114.932731"><ele>2565.8</ele></trkpt>
      <trkpt lat="43.952182" lon="-114.932840"><ele>2568.0</ele></trkpt>
      <trkpt lat="43.951961" lon="-114.933204"><ele>2569.5</ele></trkpt>
      <trkpt lat="43.951678" lon="-114.933409"><ele>2571.0</ele></trkpt>
      <trkpt lat="43.951513" lon="-114.933516"><ele>2574.0</ele></trkpt>
      <trkpt lat="43.951362" lon="-114.933675"><ele>2576.2</ele></trkpt>
      <trkpt lat="43.951263" lon="-114.933711"><ele>2577.8</ele></trkpt>
      <trkpt lat="43.951089" lon="-114.933950"><ele>2578.5</ele></trkpt>
      <trkpt lat="43.950972" lon="-114.934143"><ele>2578.0</ele></trkpt>
      <trkpt lat="43.950892" lon="-114.934346"><ele>2579.2</ele></trkpt>
      <trkpt lat="43.950850" lon="-114.934463"><ele>2580.0</ele></trkpt>
      <trkpt lat="43.950641" lon="-114.934372"><ele>2583.0</ele></trkpt>
      <trkpt lat="43.950584" lon="-114.934374"><ele>2584.0</ele></trkpt>
      <trkpt lat="43.950404" lon="-114.934435"><ele>2587.2</ele></trkpt>
      <trkpt lat="43.950296" lon="-114.934456"><ele>2588.8</ele></trkpt>
      <trkpt lat="43.950118" lon="-114.934549"><ele>2591.0</ele></trkpt>
      <trkpt lat="43.950073" lon="-114.934740"><ele>2589.8</ele></trkpt>
      <trkpt lat="43.949971" lon="-114.934806"><ele>2590.5</ele></trkpt>
      <trkpt lat="43.949706" lon="-114.934804"><ele>2596.0</ele></trkpt>
      <trkpt lat="43.949502" lon="-114.934919"><ele>2598.0</ele></trkpt>
      <trkpt lat="43.949400" lon="-114.935120"><ele>2597.5</ele></trkpt>
      <trkpt lat="43.949272" lon="-114.935222"><ele>2598.8</ele></trkpt>
      <trkpt lat="43.949047" lon="-114.935251"><ele>2602.8</ele></trkpt>
      <trkpt lat="43.948931" lon="-114.935403"><ele>2604.0</ele></trkpt>
      <trkpt lat="43.948691" lon="-114.935558"><ele>2607.2</ele></trkpt>
      <trkpt lat="43.948537" lon="-114.936052"><ele>2607.2</ele></trkpt>
      <trkpt lat="43.948565" lon="-114.936382"><ele>2606.8</ele></trkpt>
      <trkpt lat="43.948555" lon="-114.936708"><ele>2607.0</ele></trkpt>
      <trkpt lat="43.948418" lon="-114.936932"><ele>2609.8</ele></trkpt>
      <trkpt lat="43.948106" lon="-114.937145"><ele>2612.2</ele></trkpt>
      <trkpt lat="43.947955" lon="-114.937474"><ele>2613.0</ele></trkpt>
      <trkpt lat="43.947895" lon="-114.937790"><ele>2615.8</ele></trkpt>
      <trkpt lat="43.947601" lon="-114.937937"><ele>2617.2</ele></trkpt>
      <trkpt lat="43.947505" lon="-114.938082"><ele>2618.5</ele></trkpt>
      <trkpt lat="43.947281" lon="-114.938092"><ele>2618.5</ele></trkpt>
      <trkpt lat="43.946974" lon="-114.938408"><ele>2619.8</ele></trkpt>
      <trkpt lat="43.946868" lon="-114.938849"><ele>2622.5</ele></trkpt>
      <trkpt lat="43.946789" lon="-114.939106"><ele>2623.8</ele></trkpt>
      <trkpt lat="43.946591" lon="-114.939301"><ele>2624.0</ele></trkpt>
      <trkpt lat="43.946353" lon="-114.939392"><ele>2623.2</ele></trkpt>
      <trkpt lat="43.946208" lon="-114.939599"><ele>2623.2</ele></trkpt>
      <trkpt lat="43.945928" lon="-114.939831"><ele>2621.0</ele></trkpt>
      <trkpt lat="43.945750" lon="-114.940068"><ele>2619.5</ele></trkpt>
      <trkpt lat="43.945645" lon="-114.940443"><ele>2619.8</ele></trkpt>
      <trkpt lat="43.945532" lon="-114.940609"><ele>2619.8</ele></trkpt>
      <trkpt lat="43.945365" lon="-114.940885"><ele>2621.0</ele></trkpt>
      <trkpt lat="43.945356" lon="-114.941013"><ele>2622.8</ele></trkpt>
      <trkpt lat="43.945227" lon="-114.940936"><ele>2622.0</ele></trkpt>
      <trkpt lat="43.944856" lon="-114.941042"><ele>2624.2</ele></trkpt>
      <trkpt lat="43.944620" lon="-114.941306"><ele>2629.2</ele></trkpt>
      <trkpt lat="43.944481" lon="-114.941196"><ele>2628.2</ele></trkpt>
      <trkpt lat="43.944340" lon="-114.941124"><ele>2628.0</ele></trkpt>
      <trkpt lat="43.944217" lon="-114.941272"><ele>2631.0</ele></trkpt>
      <trkpt lat="43.944122" lon="-114.941332"><ele>2632.0</ele></trkpt>
      <trkpt lat="43.943922" lon="-114.941367"><ele>2631.8</ele></trkpt>
      <trkpt lat="43.943711" lon="-114.941568"><ele>2633.0</ele></trkpt>
      <trkpt lat="43.943509" lon="-114.941672"><ele>2632.5</ele></trkpt>
      <trkpt lat="43.943290" lon="-114.941831"><ele>2632.8</ele></trkpt>
      <trkpt lat="43.943013" lon="-114.941980"><ele>2631.0</ele></trkpt>
      <trkpt lat="43.942828" lon="-114.942099"><ele>2629.8</ele></trkpt>
      <trkpt lat="43.942606" lon="-114.942348"><ele>2629.0</ele></trkpt>
      <trkpt lat="43.942430" lon="-114.942532"><ele>2628.8</ele></trkpt>
      <trkpt lat="43.942174" lon="-114.942964"><ele>2632.0</ele></trkpt>
      <trkpt lat="43.942043" lon="-114.943251"><ele>2633.5</ele></trkpt>
      <trkpt lat="43.941959" lon="-114.943521"><ele>2634.8</ele></trkpt>
      <trkpt lat="43.941890" lon="-114.943672"><ele>2634.8</ele></trkpt>
      <trkpt lat="43.941482" lon="-114.943896"><ele>2629.8</ele></trkpt>
      <trkpt lat="43.941349" lon="-114.943943"><ele>2629.2</ele></trkpt>
      <trkpt lat="43.941244" lon="-114.944316"><ele>2631.5</ele></trkpt>
      <trkpt lat="43.941223" lon="-114.944630"><ele>2634.0</ele></trkpt>
      <trkpt lat="43.941029" lon="-114.944899"><ele>2633.8</ele></trkpt>
    </trkseg>
    <trkseg>
      <!-- Sat — Snowyside Pass to Toxaway Lake -->
      <trkpt lat="43.941029" lon="-114.944899"><ele>2633.8</ele></trkpt>
      <trkpt lat="43.941111" lon="-114.945323"><ele>2638.0</ele></trkpt>
      <trkpt lat="43.940981" lon="-114.945614"><ele>2638.0</ele></trkpt>
      <trkpt lat="43.940803" lon="-114.945893"><ele>2637.2</ele></trkpt>
      <trkpt lat="43.940579" lon="-114.946334"><ele>2638.8</ele></trkpt>
      <trkpt lat="43.940516" lon="-114.946461"><ele>2639.2</ele></trkpt>
      <trkpt lat="43.940385" lon="-114.946708"><ele>2640.0</ele></trkpt>
      <trkpt lat="43.940207" lon="-114.947014"><ele>2643.0</ele></trkpt>
      <trkpt lat="43.940031" lon="-114.947278"><ele>2645.5</ele></trkpt>
      <trkpt lat="43.939811" lon="-114.947493"><ele>2646.2</ele></trkpt>
      <trkpt lat="43.939521" lon="-114.947919"><ele>2652.0</ele></trkpt>
      <trkpt lat="43.939403" lon="-114.948084"><ele>2653.5</ele></trkpt>
      <trkpt lat="43.939352" lon="-114.948123"><ele>2653.2</ele></trkpt>
      <trkpt lat="43.939320" lon="-114.948486"><ele>2659.2</ele></trkpt>
      <trkpt lat="43.939208" lon="-114.948795"><ele>2661.8</ele></trkpt>
      <trkpt lat="43.939199" lon="-114.949111"><ele>2666.5</ele></trkpt>
      <trkpt lat="43.939401" lon="-114.949095"><ele>2669.8</ele></trkpt>
      <trkpt lat="43.939521" lon="-114.949312"><ele>2673.2</ele></trkpt>
      <trkpt lat="43.939488" lon="-114.949895"><ele>2675.0</ele></trkpt>
      <trkpt lat="43.939527" lon="-114.950428"><ele>2676.5</ele></trkpt>
      <trkpt lat="43.939646" lon="-114.950711"><ele>2679.2</ele></trkpt>
      <trkpt lat="43.939570" lon="-114.950968"><ele>2680.8</ele></trkpt>
      <trkpt lat="43.939896" lon="-114.950529"><ele>2682.5</ele></trkpt>
      <trkpt lat="43.940106" lon="-114.950243"><ele>2684.5</ele></trkpt>
      <trkpt lat="43.940385" lon="-114.949928"><ele>2688.0</ele></trkpt>
      <trkpt lat="43.940481" lon="-114.949733"><ele>2690.0</ele></trkpt>
      <trkpt lat="43.940794" lon="-114.949473"><ele>2697.0</ele></trkpt>
      <trkpt lat="43.940990" lon="-114.949642"><ele>2702.5</ele></trkpt>
      <trkpt lat="43.941100" lon="-114.950146"><ele>2707.5</ele></trkpt>
      <trkpt lat="43.941065" lon="-114.950526"><ele>2711.8</ele></trkpt>
      <trkpt lat="43.940870" lon="-114.950862"><ele>2711.8</ele></trkpt>
      <trkpt lat="43.940678" lon="-114.951148"><ele>2715.8</ele></trkpt>
      <trkpt lat="43.940520" lon="-114.951205"><ele>2712.5</ele></trkpt>
      <trkpt lat="43.940441" lon="-114.951376"><ele>2715.0</ele></trkpt>
      <trkpt lat="43.940337" lon="-114.951486"><ele>2714.5</ele></trkpt>
      <trkpt lat="43.940150" lon="-114.951666"><ele>2712.5</ele></trkpt>
      <trkpt lat="43.940055" lon="-114.951992"><ele>2714.8</ele></trkpt>
      <trkpt lat="43.939851" lon="-114.952434"><ele>2718.5</ele></trkpt>
      <trkpt lat="43.939968" lon="-114.952426"><ele>2720.8</ele></trkpt>
      <trkpt lat="43.940054" lon="-114.952438"><ele>2723.0</ele></trkpt>
      <trkpt lat="43.940073" lon="-114.952660"><ele>2724.8</ele></trkpt>
      <trkpt lat="43.939841" lon="-114.953374"><ele>2721.5</ele></trkpt>
      <trkpt lat="43.939652" lon="-114.953427"><ele>2718.8</ele></trkpt>
      <trkpt lat="43.939515" lon="-114.953623"><ele>2716.5</ele></trkpt>
      <trkpt lat="43.939399" lon="-114.954033"><ele>2714.2</ele></trkpt>
      <trkpt lat="43.939082" lon="-114.954135"><ele>2712.2</ele></trkpt>
      <trkpt lat="43.939084" lon="-114.954377"><ele>2709.0</ele></trkpt>
      <trkpt lat="43.938968" lon="-114.954597"><ele>2705.0</ele></trkpt>
      <trkpt lat="43.938677" lon="-114.955434"><ele>2699.0</ele></trkpt>
      <trkpt lat="43.938480" lon="-114.955825"><ele>2699.0</ele></trkpt>
      <trkpt lat="43.938480" lon="-114.955825"><ele>2699.0</ele></trkpt>
      <trkpt lat="43.938677" lon="-114.955434"><ele>2699.0</ele></trkpt>
      <trkpt lat="43.938968" lon="-114.954597"><ele>2705.0</ele></trkpt>
      <trkpt lat="43.939196" lon="-114.954500"><ele>2707.5</ele></trkpt>
      <trkpt lat="43.939499" lon="-114.954371"><ele>2711.2</ele></trkpt>
      <trkpt lat="43.939808" lon="-114.954406"><ele>2712.5</ele></trkpt>
      <trkpt lat="43.940226" lon="-114.954742"><ele>2711.8</ele></trkpt>
      <trkpt lat="43.940546" lon="-114.955302"><ele>2708.2</ele></trkpt>
      <trkpt lat="43.940842" lon="-114.955431"><ele>2710.0</ele></trkpt>
      <trkpt lat="43.941185" lon="-114.955742"><ele>2714.5</ele></trkpt>
      <trkpt lat="43.941419" lon="-114.956211"><ele>2716.8</ele></trkpt>
      <trkpt lat="43.941531" lon="-114.956737"><ele>2716.5</ele></trkpt>
      <trkpt lat="43.941236" lon="-114.957486"><ele>2710.0</ele></trkpt>
      <trkpt lat="43.941325" lon="-114.957831"><ele>2712.2</ele></trkpt>
      <trkpt lat="43.941487" lon="-114.958245"><ele>2716.2</ele></trkpt>
      <trkpt lat="43.941628" lon="-114.958507"><ele>2721.0</ele></trkpt>
      <trkpt lat="43.941583" lon="-114.958969"><ele>2722.8</ele></trkpt>
      <trkpt lat="43.941682" lon="-114.959309"><ele>2728.8</ele></trkpt>
      <trkpt lat="43.941877" lon="-114.959406"><ele>2739.2</ele></trkpt>
      <trkpt lat="43.942053" lon="-114.959677"><ele>2751.2</ele></trkpt>
      <trkpt lat="43.942091" lon="-114.960052"><ele>2758.8</ele></trkpt>
      <trkpt lat="43.941711" lon="-114.960747"><ele>2759.2</ele></trkpt>
      <trkpt lat="43.941261" lon="-114.961364"><ele>2770.0</ele></trkpt>
      <trkpt lat="43.940971" lon="-114.961702"><ele>2787.8</ele></trkpt>
      <trkpt lat="43.940996" lon="-114.961777"><ele>2792.2</ele></trkpt>
      <trkpt lat="43.941050" lon="-114.961882"><ele>2799.0</ele></trkpt>
      <trkpt lat="43.940670" lon="-114.962330"><ele>2817.2</ele></trkpt>
      <trkpt lat="43.940090" lon="-114.962941"><ele>2842.8</ele></trkpt>
      <trkpt lat="43.939712" lon="-114.962936"><ele>2840.0</ele></trkpt>
      <trkpt lat="43.939770" lon="-114.963097"><ele>2846.0</ele></trkpt>
      <trkpt lat="43.939735" lon="-114.963241"><ele>2850.8</ele></trkpt>
      <trkpt lat="43.939486" lon="-114.963217"><ele>2848.8</ele></trkpt>
      <trkpt lat="43.939268" lon="-114.963228"><ele>2848.2</ele></trkpt>
      <trkpt lat="43.939150" lon="-114.963338"><ele>2852.0</ele></trkpt>
      <trkpt lat="43.939271" lon="-114.963459"><ele>2858.5</ele></trkpt>
      <trkpt lat="43.939812" lon="-114.963789"><ele>2871.8</ele></trkpt>
      <trkpt lat="43.940239" lon="-114.963891"><ele>2876.2</ele></trkpt>
      <trkpt lat="43.940508" lon="-114.963968"><ele>2880.5</ele></trkpt>
      <trkpt lat="43.940712" lon="-114.963963"><ele>2882.0</ele></trkpt>
      <trkpt lat="43.941272" lon="-114.963453"><ele>2869.2</ele></trkpt>
      <trkpt lat="43.941831" lon="-114.962759"><ele>2854.2</ele></trkpt>
      <trkpt lat="43.942307" lon="-114.962369"><ele>2849.8</ele></trkpt>
      <trkpt lat="43.942688" lon="-114.961887"><ele>2848.0</ele></trkpt>
      <trkpt lat="43.943192" lon="-114.961407"><ele>2854.8</ele></trkpt>
      <trkpt lat="43.943605" lon="-114.961160"><ele>2853.8</ele></trkpt>
      <trkpt lat="43.943770" lon="-114.960881"><ele>2851.8</ele></trkpt>
      <trkpt lat="43.943913" lon="-114.960690"><ele>2852.0</ele></trkpt>
      <trkpt lat="43.943990" lon="-114.960830"><ele>2850.8</ele></trkpt>
      <trkpt lat="43.943928" lon="-114.961159"><ele>2849.2</ele></trkpt>
      <trkpt lat="43.943629" lon="-114.961549"><ele>2854.5</ele></trkpt>
      <trkpt lat="43.943490" lon="-114.961663"><ele>2858.5</ele></trkpt>
      <trkpt lat="43.943484" lon="-114.961742"><ele>2857.8</ele></trkpt>
      <trkpt lat="43.943519" lon="-114.961687"><ele>2857.5</ele></trkpt>
      <trkpt lat="43.943664" lon="-114.961659"><ele>2853.8</ele></trkpt>
      <trkpt lat="43.944179" lon="-114.961378"><ele>2843.0</ele></trkpt>
      <trkpt lat="43.944158" lon="-114.961503"><ele>2842.0</ele></trkpt>
      <trkpt lat="43.944040" lon="-114.961706"><ele>2843.2</ele></trkpt>
      <trkpt lat="43.943821" lon="-114.962012"><ele>2847.0</ele></trkpt>
      <trkpt lat="43.943759" lon="-114.962349"><ele>2846.0</ele></trkpt>
      <trkpt lat="43.943622" lon="-114.962536"><ele>2847.2</ele></trkpt>
      <trkpt lat="43.943614" lon="-114.962609"><ele>2848.0</ele></trkpt>
      <trkpt lat="43.943657" lon="-114.962606"><ele>2847.2</ele></trkpt>
      <trkpt lat="43.943796" lon="-114.962534"><ele>2844.2</ele></trkpt>
      <trkpt lat="43.944078" lon="-114.962417"><ele>2839.8</ele></trkpt>
      <trkpt lat="43.944355" lon="-114.962174"><ele>2832.8</ele></trkpt>
      <trkpt lat="43.944499" lon="-114.961935"><ele>2828.2</ele></trkpt>
      <trkpt lat="43.944708" lon="-114.961744"><ele>2821.0</ele></trkpt>
      <trkpt lat="43.944863" lon="-114.961474"><ele>2819.5</ele></trkpt>
      <trkpt lat="43.944824" lon="-114.961636"><ele>2817.5</ele></trkpt>
      <trkpt lat="43.944798" lon="-114.961749"><ele>2818.0</ele></trkpt>
      <trkpt lat="43.944839" lon="-114.961664"><ele>2816.5</ele></trkpt>
      <trkpt lat="43.945061" lon="-114.961407"><ele>2815.0</ele></trkpt>
      <trkpt lat="43.945099" lon="-114.961327"><ele>2816.2</ele></trkpt>
      <trkpt lat="43.945113" lon="-114.961371"><ele>2814.8</ele></trkpt>
      <trkpt lat="43.945057" lon="-114.961587"><ele>2811.0</ele></trkpt>
      <trkpt lat="43.945179" lon="-114.961454"><ele>2811.2</ele></trkpt>
      <trkpt lat="43.945423" lon="-114.961288"><ele>2810.5</ele></trkpt>
      <trkpt lat="43.945459" lon="-114.961210"><ele>2812.2</ele></trkpt>
      <trkpt lat="43.945504" lon="-114.961203"><ele>2811.8</ele></trkpt>
      <trkpt lat="43.945468" lon="-114.961379"><ele>2807.0</ele></trkpt>
      <trkpt lat="43.945409" lon="-114.961474"><ele>2805.2</ele></trkpt>
      <trkpt lat="43.945351" lon="-114.961532"><ele>2805.0</ele></trkpt>
      <trkpt lat="43.945357" lon="-114.961615"><ele>2802.5</ele></trkpt>
      <trkpt lat="43.945405" lon="-114.961553"><ele>2803.0</ele></trkpt>
      <trkpt lat="43.945506" lon="-114.961520"><ele>2801.5</ele></trkpt>
      <trkpt lat="43.945554" lon="-114.961501"><ele>2801.0</ele></trkpt>
      <trkpt lat="43.945507" lon="-114.961588"><ele>2799.5</ele></trkpt>
      <trkpt lat="43.945441" lon="-114.961831"><ele>2797.2</ele></trkpt>
      <trkpt lat="43.945562" lon="-114.961750"><ele>2794.5</ele></trkpt>
      <trkpt lat="43.945675" lon="-114.961690"><ele>2792.0</ele></trkpt>
      <trkpt lat="43.945839" lon="-114.961738"><ele>2786.5</ele></trkpt>
      <trkpt lat="43.945829" lon="-114.961775"><ele>2786.0</ele></trkpt>
      <trkpt lat="43.945763" lon="-114.961768"><ele>2788.2</ele></trkpt>
      <trkpt lat="43.945701" lon="-114.961871"><ele>2788.5</ele></trkpt>
      <trkpt lat="43.945697" lon="-114.961985"><ele>2787.0</ele></trkpt>
      <trkpt lat="43.945750" lon="-114.961960"><ele>2785.5</ele></trkpt>
      <trkpt lat="43.945909" lon="-114.961927"><ele>2783.5</ele></trkpt>
      <trkpt lat="43.946070" lon="-114.962020"><ele>2782.2</ele></trkpt>
      <trkpt lat="43.945915" lon="-114.962131"><ele>2779.5</ele></trkpt>
      <trkpt lat="43.945876" lon="-114.962194"><ele>2778.5</ele></trkpt>
      <trkpt lat="43.945939" lon="-114.962212"><ele>2778.0</ele></trkpt>
      <trkpt lat="43.946021" lon="-114.962288"><ele>2776.5</ele></trkpt>
      <trkpt lat="43.946151" lon="-114.962265"><ele>2777.0</ele></trkpt>
      <trkpt lat="43.946228" lon="-114.962358"><ele>2774.8</ele></trkpt>
      <trkpt lat="43.946320" lon="-114.962480"><ele>2771.5</ele></trkpt>
      <trkpt lat="43.946587" lon="-114.962669"><ele>2766.8</ele></trkpt>
      <trkpt lat="43.946786" lon="-114.962867"><ele>2763.2</ele></trkpt>
      <trkpt lat="43.946994" lon="-114.963032"><ele>2761.8</ele></trkpt>
      <trkpt lat="43.947311" lon="-114.963417"><ele>2755.5</ele></trkpt>
      <trkpt lat="43.947512" lon="-114.963714"><ele>2750.5</ele></trkpt>
      <trkpt lat="43.947790" lon="-114.964016"><ele>2747.5</ele></trkpt>
      <trkpt lat="43.948046" lon="-114.964210"><ele>2745.8</ele></trkpt>
      <trkpt lat="43.948256" lon="-114.964428"><ele>2741.2</ele></trkpt>
      <trkpt lat="43.948503" lon="-114.964683"><ele>2738.2</ele></trkpt>
      <trkpt lat="43.948712" lon="-114.964818"><ele>2739.5</ele></trkpt>
      <trkpt lat="43.948630" lon="-114.964837"><ele>2736.5</ele></trkpt>
      <trkpt lat="43.948222" lon="-114.964769"><ele>2729.8</ele></trkpt>
      <trkpt lat="43.947766" lon="-114.964680"><ele>2728.2</ele></trkpt>
      <trkpt lat="43.947603" lon="-114.964704"><ele>2726.0</ele></trkpt>
      <trkpt lat="43.947431" lon="-114.964809"><ele>2722.5</ele></trkpt>
      <trkpt lat="43.947436" lon="-114.964871"><ele>2720.8</ele></trkpt>
      <trkpt lat="43.947688" lon="-114.964986"><ele>2718.8</ele></trkpt>
      <trkpt lat="43.947991" lon="-114.965193"><ele>2716.0</ele></trkpt>
      <trkpt lat="43.948568" lon="-114.965416"><ele>2716.5</ele></trkpt>
      <trkpt lat="43.948826" lon="-114.965649"><ele>2714.5</ele></trkpt>
      <trkpt lat="43.949022" lon="-114.965863"><ele>2711.2</ele></trkpt>
      <trkpt lat="43.949117" lon="-114.966061"><ele>2708.0</ele></trkpt>
      <trkpt lat="43.949254" lon="-114.966348"><ele>2704.5</ele></trkpt>
      <trkpt lat="43.949527" lon="-114.966830"><ele>2704.0</ele></trkpt>
      <trkpt lat="43.949674" lon="-114.967371"><ele>2699.8</ele></trkpt>
      <trkpt lat="43.949720" lon="-114.967932"><ele>2691.5</ele></trkpt>
      <trkpt lat="43.949871" lon="-114.968508"><ele>2685.0</ele></trkpt>
      <trkpt lat="43.950144" lon="-114.968755"><ele>2686.2</ele></trkpt>
      <trkpt lat="43.950411" lon="-114.969271"><ele>2683.2</ele></trkpt>
      <trkpt lat="43.950335" lon="-114.969311"><ele>2681.5</ele></trkpt>
      <trkpt lat="43.950200" lon="-114.969287"><ele>2679.5</ele></trkpt>
      <trkpt lat="43.950163" lon="-114.969378"><ele>2678.2</ele></trkpt>
      <trkpt lat="43.950303" lon="-114.969442"><ele>2679.8</ele></trkpt>
      <trkpt lat="43.950741" lon="-114.969986"><ele>2677.5</ele></trkpt>
      <trkpt lat="43.951080" lon="-114.970066"><ele>2680.0</ele></trkpt>
      <trkpt lat="43.951212" lon="-114.970329"><ele>2677.5</ele></trkpt>
      <trkpt lat="43.951150" lon="-114.970417"><ele>2675.8</ele></trkpt>
      <trkpt lat="43.951146" lon="-114.970544"><ele>2674.0</ele></trkpt>
      <trkpt lat="43.951302" lon="-114.970720"><ele>2671.8</ele></trkpt>
      <trkpt lat="43.951471" lon="-114.970904"><ele>2668.5</ele></trkpt>
      <trkpt lat="43.951326" lon="-114.970919"><ele>2668.2</ele></trkpt>
      <trkpt lat="43.951409" lon="-114.970968"><ele>2667.2</ele></trkpt>
      <trkpt lat="43.951678" lon="-114.971146"><ele>2662.5</ele></trkpt>
      <trkpt lat="43.951829" lon="-114.971282"><ele>2661.2</ele></trkpt>
      <trkpt lat="43.951687" lon="-114.971324"><ele>2658.2</ele></trkpt>
      <trkpt lat="43.951602" lon="-114.971458"><ele>2655.5</ele></trkpt>
      <trkpt lat="43.951760" lon="-114.971690"><ele>2651.0</ele></trkpt>
      <trkpt lat="43.952037" lon="-114.971909"><ele>2652.0</ele></trkpt>
      <trkpt lat="43.952198" lon="-114.972299"><ele>2648.8</ele></trkpt>
      <trkpt lat="43.952261" lon="-114.972563"><ele>2646.0</ele></trkpt>
      <trkpt lat="43.952345" lon="-114.972815"><ele>2644.2</ele></trkpt>
      <trkpt lat="43.952476" lon="-114.973179"><ele>2640.0</ele></trkpt>
      <trkpt lat="43.952455" lon="-114.973398"><ele>2637.5</ele></trkpt>
      <trkpt lat="43.952596" lon="-114.973578"><ele>2634.0</ele></trkpt>
      <trkpt lat="43.952829" lon="-114.973680"><ele>2631.0</ele></trkpt>
      <trkpt lat="43.952765" lon="-114.973776"><ele>2629.8</ele></trkpt>
      <trkpt lat="43.952857" lon="-114.973915"><ele>2626.5</ele></trkpt>
      <trkpt lat="43.953247" lon="-114.973942"><ele>2622.2</ele></trkpt>
      <trkpt lat="43.953343" lon="-114.974093"><ele>2617.5</ele></trkpt>
      <trkpt lat="43.953460" lon="-114.973940"><ele>2619.8</ele></trkpt>
      <trkpt lat="43.953590" lon="-114.973814"><ele>2621.2</ele></trkpt>
      <trkpt lat="43.953873" lon="-114.973809"><ele>2617.5</ele></trkpt>
      <trkpt lat="43.954202" lon="-114.973894"><ele>2610.8</ele></trkpt>
      <trkpt lat="43.954345" lon="-114.974005"><ele>2606.2</ele></trkpt>
      <trkpt lat="43.954023" lon="-114.974137"><ele>2606.8</ele></trkpt>
      <trkpt lat="43.953995" lon="-114.974211"><ele>2605.5</ele></trkpt>
      <trkpt lat="43.954093" lon="-114.974321"><ele>2601.5</ele></trkpt>
      <trkpt lat="43.954243" lon="-114.974260"><ele>2600.8</ele></trkpt>
      <trkpt lat="43.954513" lon="-114.974260"><ele>2596.8</ele></trkpt>
      <trkpt lat="43.954418" lon="-114.974364"><ele>2595.5</ele></trkpt>
      <trkpt lat="43.954327" lon="-114.974428"><ele>2595.5</ele></trkpt>
      <trkpt lat="43.954502" lon="-114.974444"><ele>2592.2</ele></trkpt>
      <trkpt lat="43.954434" lon="-114.974527"><ele>2591.2</ele></trkpt>
      <trkpt lat="43.954299" lon="-114.974644"><ele>2590.5</ele></trkpt>
      <trkpt lat="43.954255" lon="-114.974743"><ele>2589.0</ele></trkpt>
      <trkpt lat="43.954295" lon="-114.974743"><ele>2588.2</ele></trkpt>
      <trkpt lat="43.954389" lon="-114.974639"><ele>2589.0</ele></trkpt>
      <trkpt lat="43.954456" lon="-114.974649"><ele>2587.8</ele></trkpt>
      <trkpt lat="43.954403" lon="-114.974727"><ele>2586.8</ele></trkpt>
      <trkpt lat="43.954470" lon="-114.974706"><ele>2586.0</ele></trkpt>
      <trkpt lat="43.954750" lon="-114.974704"><ele>2580.8</ele></trkpt>
      <trkpt lat="43.954903" lon="-114.974673"><ele>2578.8</ele></trkpt>
      <trkpt lat="43.955494" lon="-114.974837"><ele>2566.0</ele></trkpt>
      <trkpt lat="43.955320" lon="-114.974929"><ele>2565.5</ele></trkpt>
      <trkpt lat="43.954966" lon="-114.975061"><ele>2567.0</ele></trkpt>
      <trkpt lat="43.954883" lon="-114.975148"><ele>2568.0</ele></trkpt>
      <trkpt lat="43.954873" lon="-114.975209"><ele>2567.5</ele></trkpt>
      <trkpt lat="43.954952" lon="-114.975167"><ele>2566.2</ele></trkpt>
      <trkpt lat="43.955061" lon="-114.975169"><ele>2564.2</ele></trkpt>
      <trkpt lat="43.955030" lon="-114.975240"><ele>2564.0</ele></trkpt>
      <trkpt lat="43.954879" lon="-114.975509"><ele>2564.2</ele></trkpt>
      <trkpt lat="43.954979" lon="-114.975697"><ele>2560.0</ele></trkpt>
      <trkpt lat="43.955043" lon="-114.976001"><ele>2556.8</ele></trkpt>
      <trkpt lat="43.955145" lon="-114.976520"><ele>2554.2</ele></trkpt>
      <trkpt lat="43.955234" lon="-114.976823"><ele>2551.5</ele></trkpt>
      <trkpt lat="43.955262" lon="-114.977201"><ele>2548.8</ele></trkpt>
      <trkpt lat="43.955277" lon="-114.977417"><ele>2547.2</ele></trkpt>
      <trkpt lat="43.955218" lon="-114.977642"><ele>2547.8</ele></trkpt>
      <trkpt lat="43.955288" lon="-114.977866"><ele>2549.0</ele></trkpt>
      <trkpt lat="43.955251" lon="-114.978177"><ele>2550.8</ele></trkpt>
      <trkpt lat="43.955270" lon="-114.978463"><ele>2554.0</ele></trkpt>
      <trkpt lat="43.955532" lon="-114.978656"><ele>2556.2</ele></trkpt>
      <trkpt lat="43.956050" lon="-114.978675"><ele>2555.2</ele></trkpt>
      <trkpt lat="43.956282" lon="-114.978693"><ele>2555.8</ele></trkpt>
      <trkpt lat="43.956564" lon="-114.978537"><ele>2554.8</ele></trkpt>
      <trkpt lat="43.956768" lon="-114.978518"><ele>2555.0</ele></trkpt>
      <trkpt lat="43.957020" lon="-114.978427"><ele>2554.8</ele></trkpt>
      <trkpt lat="43.957168" lon="-114.978260"><ele>2553.0</ele></trkpt>
      <trkpt lat="43.957284" lon="-114.978066"><ele>2550.5</ele></trkpt>
      <trkpt lat="43.957486" lon="-114.977851"><ele>2547.2</ele></trkpt>
      <trkpt lat="43.957617" lon="-114.977679"><ele>2544.2</ele></trkpt>
      <trkpt lat="43.957854" lon="-114.977962"><ele>2548.5</ele></trkpt>
      <trkpt lat="43.958163" lon="-114.977862"><ele>2546.0</ele></trkpt>
      <trkpt lat="43.958634" lon="-114.978179"><ele>2552.2</ele></trkpt>
      <trkpt lat="43.959130" lon="-114.977846"><ele>2547.2</ele></trkpt>
      <trkpt lat="43.959486" lon="-114.977642"><ele>2549.5</ele></trkpt>
      <trkpt lat="43.959922" lon="-114.977063"><ele>2549.2</ele></trkpt>
      <trkpt lat="43.960254" lon="-114.976988"><ele>2552.0</ele></trkpt>
      <trkpt lat="43.960382" lon="-114.976749"><ele>2550.2</ele></trkpt>
      <trkpt lat="43.960494" lon="-114.976623"><ele>2549.8</ele></trkpt>
      <trkpt lat="43.960810" lon="-114.976663"><ele>2552.8</ele></trkpt>
      <trkpt lat="43.961216" lon="-114.976025"><ele>2551.2</ele></trkpt>
      <trkpt lat="43.961556" lon="-114.975636"><ele>2549.2</ele></trkpt>
      <trkpt lat="43.961849" lon="-114.975293"><ele>2551.0</ele></trkpt>
      <trkpt lat="43.962129" lon="-114.974802"><ele>2551.8</ele></trkpt>
      <trkpt lat="43.962316" lon="-114.974306"><ele>2547.5</ele></trkpt>
      <trkpt lat="43.962751" lon="-114.973619"><ele>2547.8</ele></trkpt>
      <trkpt lat="43.962805" lon="-114.973128"><ele>2546.5</ele></trkpt>
      <trkpt lat="43.962606" lon="-114.972675"><ele>2543.2</ele></trkpt>
      <trkpt lat="43.962538" lon="-114.972364"><ele>2541.5</ele></trkpt>
      <trkpt lat="43.962276" lon="-114.972291"><ele>2540.0</ele></trkpt>
    </trkseg>
    <trkseg>
      <!-- Sun — Imogene Lake side trip, camp Farley -->
      <trkpt lat="43.962276" lon="-114.972291"><ele>2540.0</ele></trkpt>
      <trkpt lat="43.962538" lon="-114.972364"><ele>2541.5</ele></trkpt>
      <trkpt lat="43.962735" lon="-114.972536"><ele>2544.5</ele></trkpt>
      <trkpt lat="43.962884" lon="-114.972200"><ele>2544.5</ele></trkpt>
      <trkpt lat="43.963187" lon="-114.971884"><ele>2546.2</ele></trkpt>
      <trkpt lat="43.963590" lon="-114.971479"><ele>2549.5</ele></trkpt>
      <trkpt lat="43.963944" lon="-114.970872"><ele>2551.0</ele></trkpt>
      <trkpt lat="43.964231" lon="-114.970105"><ele>2552.2</ele></trkpt>
      <trkpt lat="43.964293" lon="-114.969381"><ele>2552.0</ele></trkpt>
      <trkpt lat="43.964477" lon="-114.969214"><ele>2558.0</ele></trkpt>
      <trkpt lat="43.964814" lon="-114.968720"><ele>2571.8</ele></trkpt>
      <trkpt lat="43.964586" lon="-114.968042"><ele>2565.5</ele></trkpt>
      <trkpt lat="43.964591" lon="-114.967569"><ele>2566.5</ele></trkpt>
      <trkpt lat="43.964630" lon="-114.966843"><ele>2565.8</ele></trkpt>
      <trkpt lat="43.964785" lon="-114.966218"><ele>2565.2</ele></trkpt>
      <trkpt lat="43.965174" lon="-114.965382"><ele>2567.0</ele></trkpt>
      <trkpt lat="43.965448" lon="-114.964552"><ele>2567.2</ele></trkpt>
      <trkpt lat="43.965486" lon="-114.963646"><ele>2558.2</ele></trkpt>
      <trkpt lat="43.965443" lon="-114.962856"><ele>2550.2</ele></trkpt>
      <trkpt lat="43.965823" lon="-114.962549"><ele>2550.5</ele></trkpt>
      <trkpt lat="43.966403" lon="-114.962546"><ele>2546.8</ele></trkpt>
      <trkpt lat="43.966824" lon="-114.962092"><ele>2540.5</ele></trkpt>
      <trkpt lat="43.967129" lon="-114.961767"><ele>2538.2</ele></trkpt>
      <trkpt lat="43.967389" lon="-114.961038"><ele>2533.8</ele></trkpt>
      <trkpt lat="43.967789" lon="-114.960114"><ele>2530.0</ele></trkpt>
      <trkpt lat="43.967965" lon="-114.958698"><ele>2527.0</ele></trkpt>
      <trkpt lat="43.968136" lon="-114.958153"><ele>2525.2</ele></trkpt>
      <trkpt lat="43.968668" lon="-114.957902"><ele>2524.5</ele></trkpt>
      <trkpt lat="43.968879" lon="-114.957300"><ele>2518.2</ele></trkpt>
      <trkpt lat="43.969061" lon="-114.956638"><ele>2512.2</ele></trkpt>
      <trkpt lat="43.969544" lon="-114.955670"><ele>2512.5</ele></trkpt>
      <trkpt lat="43.969595" lon="-114.955139"><ele>2507.0</ele></trkpt>
      <trkpt lat="43.970018" lon="-114.954714"><ele>2505.5</ele></trkpt>
      <trkpt lat="43.970005" lon="-114.954576"><ele>2504.0</ele></trkpt>
      <trkpt lat="43.970163" lon="-114.954307"><ele>2503.5</ele></trkpt>
      <trkpt lat="43.970434" lon="-114.953906"><ele>2503.5</ele></trkpt>
      <trkpt lat="43.970616" lon="-114.953621"><ele>2504.0</ele></trkpt>
      <trkpt lat="43.970675" lon="-114.953295"><ele>2502.8</ele></trkpt>
      <trkpt lat="43.970797" lon="-114.953008"><ele>2502.5</ele></trkpt>
      <trkpt lat="43.970961" lon="-114.952246"><ele>2501.5</ele></trkpt>
      <trkpt lat="43.970936" lon="-114.952051"><ele>2501.0</ele></trkpt>
      <trkpt lat="43.971256" lon="-114.951878"><ele>2503.8</ele></trkpt>
      <trkpt lat="43.971593" lon="-114.951527"><ele>2504.0</ele></trkpt>
      <trkpt lat="43.971912" lon="-114.951304"><ele>2505.0</ele></trkpt>
      <trkpt lat="43.972178" lon="-114.950999"><ele>2504.5</ele></trkpt>
      <trkpt lat="43.972503" lon="-114.950925"><ele>2507.0</ele></trkpt>
      <trkpt lat="43.973001" lon="-114.950989"><ele>2517.5</ele></trkpt>
      <trkpt lat="43.973669" lon="-114.950488"><ele>2518.8</ele></trkpt>
      <trkpt lat="43.973592" lon="-114.950765"><ele>2523.2</ele></trkpt>
      <trkpt lat="43.973418" lon="-114.951049"><ele>2526.5</ele></trkpt>
      <trkpt lat="43.973352" lon="-114.951437"><ele>2533.5</ele></trkpt>
      <trkpt lat="43.973867" lon="-114.951345"><ele>2537.5</ele></trkpt>
      <trkpt lat="43.974171" lon="-114.951680"><ele>2546.0</ele></trkpt>
      <trkpt lat="43.974430" lon="-114.952195"><ele>2546.2</ele></trkpt>
      <trkpt lat="43.974360" lon="-114.952536"><ele>2550.8</ele></trkpt>
      <trkpt lat="43.974047" lon="-114.952827"><ele>2558.2</ele></trkpt>
      <trkpt lat="43.974044" lon="-114.953246"><ele>2563.0</ele></trkpt>
      <trkpt lat="43.974123" lon="-114.953866"><ele>2576.8</ele></trkpt>
      <trkpt lat="43.974390" lon="-114.953961"><ele>2574.8</ele></trkpt>
      <trkpt lat="43.974627" lon="-114.953879"><ele>2569.0</ele></trkpt>
      <trkpt lat="43.975180" lon="-114.953911"><ele>2564.5</ele></trkpt>
      <trkpt lat="43.975307" lon="-114.953967"><ele>2566.0</ele></trkpt>
      <trkpt lat="43.975653" lon="-114.954007"><ele>2568.2</ele></trkpt>
      <trkpt lat="43.976045" lon="-114.954351"><ele>2578.0</ele></trkpt>
      <trkpt lat="43.976319" lon="-114.954406"><ele>2582.5</ele></trkpt>
      <trkpt lat="43.976492" lon="-114.954447"><ele>2585.2</ele></trkpt>
      <trkpt lat="43.976617" lon="-114.954532"><ele>2587.8</ele></trkpt>
      <trkpt lat="43.976805" lon="-114.954542"><ele>2593.5</ele></trkpt>
      <trkpt lat="43.976846" lon="-114.954917"><ele>2598.2</ele></trkpt>
      <trkpt lat="43.976543" lon="-114.955413"><ele>2604.2</ele></trkpt>
      <trkpt lat="43.976259" lon="-114.955826"><ele>2611.8</ele></trkpt>
      <trkpt lat="43.975948" lon="-114.956062"><ele>2614.0</ele></trkpt>
      <trkpt lat="43.975691" lon="-114.956042"><ele>2610.5</ele></trkpt>
      <trkpt lat="43.975393" lon="-114.956217"><ele>2615.2</ele></trkpt>
      <trkpt lat="43.975137" lon="-114.956411"><ele>2621.2</ele></trkpt>
      <trkpt lat="43.975165" lon="-114.956468"><ele>2623.5</ele></trkpt>
      <trkpt lat="43.975456" lon="-114.956523"><ele>2626.0</ele></trkpt>
      <trkpt lat="43.975247" lon="-114.956705"><ele>2632.0</ele></trkpt>
      <trkpt lat="43.975336" lon="-114.956738"><ele>2633.0</ele></trkpt>
      <trkpt lat="43.975687" lon="-114.956774"><ele>2633.5</ele></trkpt>
      <trkpt lat="43.975799" lon="-114.956876"><ele>2635.5</ele></trkpt>
      <trkpt lat="43.975654" lon="-114.956913"><ele>2636.8</ele></trkpt>
      <trkpt lat="43.975710" lon="-114.957080"><ele>2640.5</ele></trkpt>
      <trkpt lat="43.976115" lon="-114.957821"><ele>2654.2</ele></trkpt>
      <trkpt lat="43.976272" lon="-114.957963"><ele>2654.5</ele></trkpt>
      <trkpt lat="43.976605" lon="-114.957809"><ele>2652.5</ele></trkpt>
      <trkpt lat="43.976959" lon="-114.957871"><ele>2655.2</ele></trkpt>
      <trkpt lat="43.977300" lon="-114.957970"><ele>2657.8</ele></trkpt>
      <trkpt lat="43.977586" lon="-114.957889"><ele>2662.8</ele></trkpt>
      <trkpt lat="43.977843" lon="-114.957800"><ele>2670.0</ele></trkpt>
      <trkpt lat="43.977963" lon="-114.957743"><ele>2673.5</ele></trkpt>
      <trkpt lat="43.978017" lon="-114.957871"><ele>2674.0</ele></trkpt>
      <trkpt lat="43.978140" lon="-114.958082"><ele>2676.2</ele></trkpt>
      <trkpt lat="43.978032" lon="-114.958429"><ele>2671.8</ele></trkpt>
      <trkpt lat="43.977987" lon="-114.958718"><ele>2670.0</ele></trkpt>
      <trkpt lat="43.977939" lon="-114.958878"><ele>2668.5</ele></trkpt>
      <trkpt lat="43.978103" lon="-114.959106"><ele>2673.0</ele></trkpt>
      <trkpt lat="43.978179" lon="-114.959296"><ele>2675.5</ele></trkpt>
      <trkpt lat="43.978389" lon="-114.959407"><ele>2682.0</ele></trkpt>
      <trkpt lat="43.978505" lon="-114.959661"><ele>2685.8</ele></trkpt>
      <trkpt lat="43.978672" lon="-114.960227"><ele>2690.8</ele></trkpt>
      <trkpt lat="43.979066" lon="-114.960472"><ele>2698.2</ele></trkpt>
      <trkpt lat="43.979292" lon="-114.960771"><ele>2703.5</ele></trkpt>
      <trkpt lat="43.979431" lon="-114.961192"><ele>2710.5</ele></trkpt>
      <trkpt lat="43.979479" lon="-114.961309"><ele>2712.8</ele></trkpt>
      <trkpt lat="43.979597" lon="-114.961714"><ele>2718.2</ele></trkpt>
      <trkpt lat="43.979730" lon="-114.962194"><ele>2725.0</ele></trkpt>
      <trkpt lat="43.979773" lon="-114.962495"><ele>2727.8</ele></trkpt>
      <trkpt lat="43.979745" lon="-114.962849"><ele>2729.2</ele></trkpt>
      <trkpt lat="43.979762" lon="-114.963064"><ele>2730.0</ele></trkpt>
      <trkpt lat="43.979886" lon="-114.963064"><ele>2729.5</ele></trkpt>
      <trkpt lat="43.980095" lon="-114.963080"><ele>2731.5</ele></trkpt>
      <trkpt lat="43.980212" lon="-114.963007"><ele>2734.5</ele></trkpt>
      <trkpt lat="43.980353" lon="-114.962986"><ele>2738.2</ele></trkpt>
      <trkpt lat="43.980552" lon="-114.962855"><ele>2743.2</ele></trkpt>
      <trkpt lat="43.980773" lon="-114.962940"><ele>2749.2</ele></trkpt>
      <trkpt lat="43.980713" lon="-114.962777"><ele>2747.5</ele></trkpt>
      <trkpt lat="43.980618" lon="-114.962575"><ele>2744.5</ele></trkpt>
      <trkpt lat="43.980543" lon="-114.961906"><ele>2747.2</ele></trkpt>
      <trkpt lat="43.980535" lon="-114.961415"><ele>2751.2</ele></trkpt>
      <trkpt lat="43.980539" lon="-114.961296"><ele>2752.5</ele></trkpt>
      <trkpt lat="43.980766" lon="-114.961843"><ele>2756.0</ele></trkpt>
      <trkpt lat="43.980985" lon="-114.962167"><ele>2761.2</ele></trkpt>
      <trkpt lat="43.981122" lon="-114.962260"><ele>2766.5</ele></trkpt>
      <trkpt lat="43.981023" lon="-114.962048"><ele>2764.8</ele></trkpt>
      <trkpt lat="43.980926" lon="-114.961751"><ele>2764.2</ele></trkpt>
      <trkpt lat="43.980924" lon="-114.961622"><ele>2766.0</ele></trkpt>
      <trkpt lat="43.981266" lon="-114.962060"><ele>2776.0</ele></trkpt>
      <trkpt lat="43.981307" lon="-114.962049"><ele>2778.0</ele></trkpt>
      <trkpt lat="43.981094" lon="-114.961320"><ele>2779.8</ele></trkpt>
      <trkpt lat="43.981037" lon="-114.961014"><ele>2782.2</ele></trkpt>
      <trkpt lat="43.981262" lon="-114.961515"><ele>2784.8</ele></trkpt>
      <trkpt lat="43.981430" lon="-114.961653"><ele>2789.8</ele></trkpt>
      <trkpt lat="43.981492" lon="-114.961670"><ele>2792.5</ele></trkpt>
      <trkpt lat="43.981322" lon="-114.961274"><ele>2793.0</ele></trkpt>
      <trkpt lat="43.981294" lon="-114.960968"><ele>2798.2</ele></trkpt>
      <trkpt lat="43.981453" lon="-114.961307"><ele>2799.2</ele></trkpt>
      <trkpt lat="43.981647" lon="-114.961510"><ele>2804.2</ele></trkpt>
      <trkpt lat="43.981698" lon="-114.961650"><ele>2801.5</ele></trkpt>
      <trkpt lat="43.981734" lon="-114.961709"><ele>2800.5</ele></trkpt>
      <trkpt lat="43.981707" lon="-114.961430"><ele>2807.5</ele></trkpt>
      <trkpt lat="43.981572" lon="-114.961183"><ele>2809.0</ele></trkpt>
      <trkpt lat="43.981696" lon="-114.961327"><ele>2810.2</ele></trkpt>
      <trkpt lat="43.981859" lon="-114.961501"><ele>2805.8</ele></trkpt>
      <trkpt lat="43.981902" lon="-114.961550"><ele>2804.5</ele></trkpt>
      <trkpt lat="43.981856" lon="-114.961391"><ele>2808.5</ele></trkpt>
      <trkpt lat="43.981773" lon="-114.961262"><ele>2811.8</ele></trkpt>
      <trkpt lat="43.981824" lon="-114.961288"><ele>2811.0</ele></trkpt>
      <trkpt lat="43.982053" lon="-114.961535"><ele>2805.2</ele></trkpt>
      <trkpt lat="43.982128" lon="-114.961799"><ele>2802.0</ele></trkpt>
      <trkpt lat="43.982166" lon="-114.961729"><ele>2802.5</ele></trkpt>
      <trkpt lat="43.982162" lon="-114.961466"><ele>2807.0</ele></trkpt>
      <trkpt lat="43.982245" lon="-114.961246"><ele>2811.5</ele></trkpt>
      <trkpt lat="43.982257" lon="-114.961328"><ele>2809.8</ele></trkpt>
      <trkpt lat="43.982263" lon="-114.961499"><ele>2806.2</ele></trkpt>
      <trkpt lat="43.982363" lon="-114.961796"><ele>2803.5</ele></trkpt>
      <trkpt lat="43.982389" lon="-114.961738"><ele>2803.5</ele></trkpt>
      <trkpt lat="43.982373" lon="-114.961480"><ele>2806.8</ele></trkpt>
      <trkpt lat="43.982491" lon="-114.961177"><ele>2812.0</ele></trkpt>
      <trkpt lat="43.982646" lon="-114.960961"><ele>2805.5</ele></trkpt>
      <trkpt lat="43.982786" lon="-114.960653"><ele>2803.8</ele></trkpt>
      <trkpt lat="43.982766" lon="-114.960802"><ele>2800.5</ele></trkpt>
      <trkpt lat="43.982701" lon="-114.961220"><ele>2797.5</ele></trkpt>
      <trkpt lat="43.982719" lon="-114.961466"><ele>2792.2</ele></trkpt>
      <trkpt lat="43.982816" lon="-114.961181"><ele>2790.2</ele></trkpt>
      <trkpt lat="43.983115" lon="-114.960781"><ele>2776.8</ele></trkpt>
      <trkpt lat="43.983122" lon="-114.960846"><ele>2774.5</ele></trkpt>
      <trkpt lat="43.983044" lon="-114.961106"><ele>2775.8</ele></trkpt>
      <trkpt lat="43.983046" lon="-114.961385"><ele>2771.0</ele></trkpt>
      <trkpt lat="43.983192" lon="-114.961160"><ele>2764.5</ele></trkpt>
      <trkpt lat="43.983275" lon="-114.961000"><ele>2761.2</ele></trkpt>
      <trkpt lat="43.983274" lon="-114.961104"><ele>2759.8</ele></trkpt>
      <trkpt lat="43.983205" lon="-114.961419"><ele>2759.5</ele></trkpt>
      <trkpt lat="43.983230" lon="-114.961451"><ele>2757.2</ele></trkpt>
      <trkpt lat="43.983333" lon="-114.961271"><ele>2753.0</ele></trkpt>
      <trkpt lat="43.983418" lon="-114.961188"><ele>2750.2</ele></trkpt>
      <trkpt lat="43.983393" lon="-114.961306"><ele>2749.8</ele></trkpt>
      <trkpt lat="43.983360" lon="-114.961531"><ele>2747.8</ele></trkpt>
      <trkpt lat="43.983451" lon="-114.961443"><ele>2745.2</ele></trkpt>
      <trkpt lat="43.983581" lon="-114.961314"><ele>2741.0</ele></trkpt>
      <trkpt lat="43.983565" lon="-114.961420"><ele>2740.5</ele></trkpt>
      <trkpt lat="43.983521" lon="-114.961650"><ele>2739.5</ele></trkpt>
      <trkpt lat="43.983692" lon="-114.961516"><ele>2733.8</ele></trkpt>
      <trkpt lat="43.983829" lon="-114.961325"><ele>2729.5</ele></trkpt>
      <trkpt lat="43.984017" lon="-114.960893"><ele>2723.5</ele></trkpt>
      <trkpt lat="43.984081" lon="-114.960823"><ele>2720.5</ele></trkpt>
      <trkpt lat="43.984051" lon="-114.961240"><ele>2719.8</ele></trkpt>
      <trkpt lat="43.984105" lon="-114.961237"><ele>2717.2</ele></trkpt>
      <trkpt lat="43.984209" lon="-114.961078"><ele>2714.2</ele></trkpt>
      <trkpt lat="43.984216" lon="-114.961258"><ele>2713.5</ele></trkpt>
      <trkpt lat="43.984315" lon="-114.961027"><ele>2712.0</ele></trkpt>
      <trkpt lat="43.984347" lon="-114.961146"><ele>2711.2</ele></trkpt>
      <trkpt lat="43.984338" lon="-114.961354"><ele>2711.5</ele></trkpt>
      <trkpt lat="43.984360" lon="-114.961434"><ele>2711.2</ele></trkpt>
      <trkpt lat="43.984633" lon="-114.961038"><ele>2705.2</ele></trkpt>
      <trkpt lat="43.984648" lon="-114.960812"><ele>2704.0</ele></trkpt>
      <trkpt lat="43.984727" lon="-114.960864"><ele>2702.0</ele></trkpt>
      <trkpt lat="43.984746" lon="-114.961020"><ele>2702.8</ele></trkpt>
      <trkpt lat="43.984671" lon="-114.961198"><ele>2705.5</ele></trkpt>
      <trkpt lat="43.984648" lon="-114.961258"><ele>2706.2</ele></trkpt>
      <trkpt lat="43.984795" lon="-114.961111"><ele>2702.5</ele></trkpt>
      <trkpt lat="43.984915" lon="-114.960892"><ele>2697.8</ele></trkpt>
      <trkpt lat="43.984942" lon="-114.960747"><ele>2697.0</ele></trkpt>
      <trkpt lat="43.984956" lon="-114.961109"><ele>2699.5</ele></trkpt>
      <trkpt lat="43.985065" lon="-114.961012"><ele>2697.0</ele></trkpt>
      <trkpt lat="43.985340" lon="-114.960706"><ele>2692.0</ele></trkpt>
      <trkpt lat="43.985628" lon="-114.960621"><ele>2688.8</ele></trkpt>
      <trkpt lat="43.985824" lon="-114.960327"><ele>2685.2</ele></trkpt>
      <trkpt lat="43.986169" lon="-114.960164"><ele>2681.0</ele></trkpt>
      <trkpt lat="43.986551" lon="-114.959950"><ele>2673.0</ele></trkpt>
      <trkpt lat="43.986966" lon="-114.959805"><ele>2666.8</ele></trkpt>
      <trkpt lat="43.987097" lon="-114.959592"><ele>2665.0</ele></trkpt>
      <trkpt lat="43.987204" lon="-114.959406"><ele>2663.5</ele></trkpt>
      <trkpt lat="43.987456" lon="-114.959175"><ele>2658.8</ele></trkpt>
      <trkpt lat="43.987631" lon="-114.959058"><ele>2656.8</ele></trkpt>
      <trkpt lat="43.987849" lon="-114.959032"><ele>2652.2</ele></trkpt>
      <trkpt lat="43.988047" lon="-114.958799"><ele>2654.0</ele></trkpt>
      <trkpt lat="43.988134" lon="-114.958591"><ele>2658.5</ele></trkpt>
      <trkpt lat="43.988255" lon="-114.958569"><ele>2657.2</ele></trkpt>
      <trkpt lat="43.988198" lon="-114.958669"><ele>2655.2</ele></trkpt>
      <trkpt lat="43.988246" lon="-114.959105"><ele>2641.0</ele></trkpt>
      <trkpt lat="43.988357" lon="-114.959047"><ele>2640.2</ele></trkpt>
      <trkpt lat="43.988465" lon="-114.958736"><ele>2647.5</ele></trkpt>
      <trkpt lat="43.988634" lon="-114.958704"><ele>2644.2</ele></trkpt>
      <trkpt lat="43.988571" lon="-114.958772"><ele>2643.8</ele></trkpt>
      <trkpt lat="43.988558" lon="-114.958964"><ele>2637.8</ele></trkpt>
      <trkpt lat="43.988528" lon="-114.959414"><ele>2630.0</ele></trkpt>
      <trkpt lat="43.988436" lon="-114.959483"><ele>2631.5</ele></trkpt>
      <trkpt lat="43.988496" lon="-114.959558"><ele>2629.5</ele></trkpt>
      <trkpt lat="43.988773" lon="-114.959444"><ele>2623.8</ele></trkpt>
      <trkpt lat="43.989182" lon="-114.959064"><ele>2619.0</ele></trkpt>
      <trkpt lat="43.989480" lon="-114.958886"><ele>2619.2</ele></trkpt>
      <trkpt lat="43.990468" lon="-114.958514"><ele>2610.0</ele></trkpt>
      <trkpt lat="43.990624" lon="-114.958415"><ele>2608.5</ele></trkpt>
      <trkpt lat="43.990520" lon="-114.958854"><ele>2600.8</ele></trkpt>
      <trkpt lat="43.990080" lon="-114.959342"><ele>2598.2</ele></trkpt>
      <trkpt lat="43.990018" lon="-114.959572"><ele>2596.8</ele></trkpt>
      <trkpt lat="43.990110" lon="-114.959678"><ele>2594.8</ele></trkpt>
      <trkpt lat="43.990320" lon="-114.959541"><ele>2593.8</ele></trkpt>
      <trkpt lat="43.990688" lon="-114.959396"><ele>2590.2</ele></trkpt>
      <trkpt lat="43.991014" lon="-114.959174"><ele>2586.8</ele></trkpt>
      <trkpt lat="43.991133" lon="-114.959541"><ele>2585.5</ele></trkpt>
      <trkpt lat="43.991250" lon="-114.959526"><ele>2584.5</ele></trkpt>
      <trkpt lat="43.991567" lon="-114.959570"><ele>2582.0</ele></trkpt>
      <trkpt lat="43.992004" lon="-114.959679"><ele>2582.5</ele></trkpt>
      <trkpt lat="43.992445" lon="-114.959714"><ele>2583.5</ele></trkpt>
      <trkpt lat="43.993184" lon="-114.958997"><ele>2581.5</ele></trkpt>
      <trkpt lat="43.993489" lon="-114.958985"><ele>2584.5</ele></trkpt>
      <trkpt lat="43.993683" lon="-114.958710"><ele>2583.5</ele></trkpt>
      <trkpt lat="43.994537" lon="-114.958148"><ele>2587.8</ele></trkpt>
      <trkpt lat="43.994987" lon="-114.957953"><ele>2593.0</ele></trkpt>
      <trkpt lat="43.994991" lon="-114.957603"><ele>2589.8</ele></trkpt>
      <trkpt lat="43.994739" lon="-114.957288"><ele>2582.5</ele></trkpt>
      <trkpt lat="43.994797" lon="-114.956898"><ele>2581.5</ele></trkpt>
      <trkpt lat="43.994987" lon="-114.956284"><ele>2577.8</ele></trkpt>
      <trkpt lat="43.995243" lon="-114.956014"><ele>2581.2</ele></trkpt>
      <trkpt lat="43.995457" lon="-114.955550"><ele>2584.0</ele></trkpt>
      <trkpt lat="43.995523" lon="-114.954999"><ele>2582.5</ele></trkpt>
      <trkpt lat="43.995610" lon="-114.954667"><ele>2582.5</ele></trkpt>
      <trkpt lat="43.995989" lon="-114.954286"><ele>2585.5</ele></trkpt>
      <trkpt lat="43.996245" lon="-114.954128"><ele>2586.2</ele></trkpt>
      <trkpt lat="43.996407" lon="-114.954009"><ele>2584.5</ele></trkpt>
      <trkpt lat="43.996245" lon="-114.954128"><ele>2586.2</ele></trkpt>
      <trkpt lat="43.995989" lon="-114.954286"><ele>2585.5</ele></trkpt>
      <trkpt lat="43.995610" lon="-114.954667"><ele>2582.5</ele></trkpt>
      <trkpt lat="43.995523" lon="-114.954999"><ele>2582.5</ele></trkpt>
      <trkpt lat="43.995457" lon="-114.955550"><ele>2584.0</ele></trkpt>
      <trkpt lat="43.995243" lon="-114.956014"><ele>2581.2</ele></trkpt>
      <trkpt lat="43.994987" lon="-114.956284"><ele>2577.8</ele></trkpt>
      <trkpt lat="43.994797" lon="-114.956898"><ele>2581.5</ele></trkpt>
      <trkpt lat="43.994739" lon="-114.957288"><ele>2582.5</ele></trkpt>
      <trkpt lat="43.994991" lon="-114.957603"><ele>2589.8</ele></trkpt>
      <trkpt lat="43.994987" lon="-114.957953"><ele>2593.0</ele></trkpt>
      <trkpt lat="43.994537" lon="-114.958148"><ele>2587.8</ele></trkpt>
      <trkpt lat="43.993683" lon="-114.958710"><ele>2583.5</ele></trkpt>
      <trkpt lat="43.993489" lon="-114.958985"><ele>2584.5</ele></trkpt>
      <trkpt lat="43.993184" lon="-114.958997"><ele>2581.5</ele></trkpt>
      <trkpt lat="43.992445" lon="-114.959714"><ele>2583.5</ele></trkpt>
      <trkpt lat="43.992004" lon="-114.959679"><ele>2582.5</ele></trkpt>
      <trkpt lat="43.991567" lon="-114.959570"><ele>2582.0</ele></trkpt>
      <trkpt lat="43.991250" lon="-114.959526"><ele>2584.5</ele></trkpt>
      <trkpt lat="43.991133" lon="-114.959541"><ele>2585.5</ele></trkpt>
      <trkpt lat="43.991014" lon="-114.959174"><ele>2586.8</ele></trkpt>
      <trkpt lat="43.990688" lon="-114.959396"><ele>2590.2</ele></trkpt>
      <trkpt lat="43.990320" lon="-114.959541"><ele>2593.8</ele></trkpt>
      <trkpt lat="43.990110" lon="-114.959678"><ele>2594.8</ele></trkpt>
      <trkpt lat="43.990018" lon="-114.959572"><ele>2596.8</ele></trkpt>
      <trkpt lat="43.990080" lon="-114.959342"><ele>2598.2</ele></trkpt>
      <trkpt lat="43.990520" lon="-114.958854"><ele>2600.8</ele></trkpt>
      <trkpt lat="43.990624" lon="-114.958415"><ele>2608.5</ele></trkpt>
      <trkpt lat="43.990468" lon="-114.958514"><ele>2610.0</ele></trkpt>
      <trkpt lat="43.989480" lon="-114.958886"><ele>2619.2</ele></trkpt>
      <trkpt lat="43.989182" lon="-114.959064"><ele>2619.0</ele></trkpt>
      <trkpt lat="43.988773" lon="-114.959444"><ele>2623.8</ele></trkpt>
      <trkpt lat="43.988496" lon="-114.959558"><ele>2629.5</ele></trkpt>
      <trkpt lat="43.988436" lon="-114.959483"><ele>2631.5</ele></trkpt>
      <trkpt lat="43.988528" lon="-114.959414"><ele>2630.0</ele></trkpt>
      <trkpt lat="43.988558" lon="-114.958964"><ele>2637.8</ele></trkpt>
      <trkpt lat="43.988571" lon="-114.958772"><ele>2643.8</ele></trkpt>
      <trkpt lat="43.988634" lon="-114.958704"><ele>2644.2</ele></trkpt>
      <trkpt lat="43.988465" lon="-114.958736"><ele>2647.5</ele></trkpt>
      <trkpt lat="43.988357" lon="-114.959047"><ele>2640.2</ele></trkpt>
      <trkpt lat="43.988246" lon="-114.959105"><ele>2641.0</ele></trkpt>
      <trkpt lat="43.988198" lon="-114.958669"><ele>2655.2</ele></trkpt>
      <trkpt lat="43.988255" lon="-114.958569"><ele>2657.2</ele></trkpt>
      <trkpt lat="43.988134" lon="-114.958591"><ele>2658.5</ele></trkpt>
      <trkpt lat="43.988047" lon="-114.958799"><ele>2654.0</ele></trkpt>
      <trkpt lat="43.987849" lon="-114.959032"><ele>2652.2</ele></trkpt>
      <trkpt lat="43.987631" lon="-114.959058"><ele>2656.8</ele></trkpt>
      <trkpt lat="43.987456" lon="-114.959175"><ele>2658.8</ele></trkpt>
      <trkpt lat="43.987204" lon="-114.959406"><ele>2663.5</ele></trkpt>
      <trkpt lat="43.987097" lon="-114.959592"><ele>2665.0</ele></trkpt>
      <trkpt lat="43.986966" lon="-114.959805"><ele>2666.8</ele></trkpt>
      <trkpt lat="43.986551" lon="-114.959950"><ele>2673.0</ele></trkpt>
      <trkpt lat="43.986169" lon="-114.960164"><ele>2681.0</ele></trkpt>
      <trkpt lat="43.985824" lon="-114.960327"><ele>2685.2</ele></trkpt>
      <trkpt lat="43.985628" lon="-114.960621"><ele>2688.8</ele></trkpt>
      <trkpt lat="43.985340" lon="-114.960706"><ele>2692.0</ele></trkpt>
      <trkpt lat="43.985065" lon="-114.961012"><ele>2697.0</ele></trkpt>
      <trkpt lat="43.984956" lon="-114.961109"><ele>2699.5</ele></trkpt>
      <trkpt lat="43.984942" lon="-114.960747"><ele>2697.0</ele></trkpt>
      <trkpt lat="43.984915" lon="-114.960892"><ele>2697.8</ele></trkpt>
      <trkpt lat="43.984795" lon="-114.961111"><ele>2702.5</ele></trkpt>
      <trkpt lat="43.984648" lon="-114.961258"><ele>2706.2</ele></trkpt>
      <trkpt lat="43.984671" lon="-114.961198"><ele>2705.5</ele></trkpt>
      <trkpt lat="43.984746" lon="-114.961020"><ele>2702.8</ele></trkpt>
      <trkpt lat="43.984727" lon="-114.960864"><ele>2702.0</ele></trkpt>
      <trkpt lat="43.984648" lon="-114.960812"><ele>2704.0</ele></trkpt>
      <trkpt lat="43.984633" lon="-114.961038"><ele>2705.2</ele></trkpt>
      <trkpt lat="43.984360" lon="-114.961434"><ele>2711.2</ele></trkpt>
      <trkpt lat="43.984338" lon="-114.961354"><ele>2711.5</ele></trkpt>
      <trkpt lat="43.984347" lon="-114.961146"><ele>2711.2</ele></trkpt>
      <trkpt lat="43.984315" lon="-114.961027"><ele>2712.0</ele></trkpt>
      <trkpt lat="43.984216" lon="-114.961258"><ele>2713.5</ele></trkpt>
      <trkpt lat="43.984209" lon="-114.961078"><ele>2714.2</ele></trkpt>
      <trkpt lat="43.984105" lon="-114.961237"><ele>2717.2</ele></trkpt>
      <trkpt lat="43.984051" lon="-114.961240"><ele>2719.8</ele></trkpt>
      <trkpt lat="43.984081" lon="-114.960823"><ele>2720.5</ele></trkpt>
      <trkpt lat="43.984017" lon="-114.960893"><ele>2723.5</ele></trkpt>
      <trkpt lat="43.983829" lon="-114.961325"><ele>2729.5</ele></trkpt>
      <trkpt lat="43.983692" lon="-114.961516"><ele>2733.8</ele></trkpt>
      <trkpt lat="43.983521" lon="-114.961650"><ele>2739.5</ele></trkpt>
      <trkpt lat="43.983565" lon="-114.961420"><ele>2740.5</ele></trkpt>
      <trkpt lat="43.983581" lon="-114.961314"><ele>2741.0</ele></trkpt>
      <trkpt lat="43.983451" lon="-114.961443"><ele>2745.2</ele></trkpt>
      <trkpt lat="43.983360" lon="-114.961531"><ele>2747.8</ele></trkpt>
      <trkpt lat="43.983393" lon="-114.961306"><ele>2749.8</ele></trkpt>
      <trkpt lat="43.983418" lon="-114.961188"><ele>2750.2</ele></trkpt>
      <trkpt lat="43.983333" lon="-114.961271"><ele>2753.0</ele></trkpt>
      <trkpt lat="43.983230" lon="-114.961451"><ele>2757.2</ele></trkpt>
      <trkpt lat="43.983205" lon="-114.961419"><ele>2759.5</ele></trkpt>
      <trkpt lat="43.983274" lon="-114.961104"><ele>2759.8</ele></trkpt>
      <trkpt lat="43.983275" lon="-114.961000"><ele>2761.2</ele></trkpt>
      <trkpt lat="43.983192" lon="-114.961160"><ele>2764.5</ele></trkpt>
      <trkpt lat="43.983046" lon="-114.961385"><ele>2771.0</ele></trkpt>
      <trkpt lat="43.983044" lon="-114.961106"><ele>2775.8</ele></trkpt>
      <trkpt lat="43.983122" lon="-114.960846"><ele>2774.5</ele></trkpt>
      <trkpt lat="43.983115" lon="-114.960781"><ele>2776.8</ele></trkpt>
      <trkpt lat="43.982816" lon="-114.961181"><ele>2790.2</ele></trkpt>
      <trkpt lat="43.982719" lon="-114.961466"><ele>2792.2</ele></trkpt>
      <trkpt lat="43.982701" lon="-114.961220"><ele>2797.5</ele></trkpt>
      <trkpt lat="43.982766" lon="-114.960802"><ele>2800.5</ele></trkpt>
      <trkpt lat="43.982786" lon="-114.960653"><ele>2803.8</ele></trkpt>
      <trkpt lat="43.982646" lon="-114.960961"><ele>2805.5</ele></trkpt>
      <trkpt lat="43.982491" lon="-114.961177"><ele>2812.0</ele></trkpt>
      <trkpt lat="43.982373" lon="-114.961480"><ele>2806.8</ele></trkpt>
      <trkpt lat="43.982389" lon="-114.961738"><ele>2803.5</ele></trkpt>
      <trkpt lat="43.982363" lon="-114.961796"><ele>2803.5</ele></trkpt>
      <trkpt lat="43.982263" lon="-114.961499"><ele>2806.2</ele></trkpt>
      <trkpt lat="43.982257" lon="-114.961328"><ele>2809.8</ele></trkpt>
      <trkpt lat="43.982245" lon="-114.961246"><ele>2811.5</ele></trkpt>
      <trkpt lat="43.982162" lon="-114.961466"><ele>2807.0</ele></trkpt>
      <trkpt lat="43.982166" lon="-114.961729"><ele>2802.5</ele></trkpt>
      <trkpt lat="43.982128" lon="-114.961799"><ele>2802.0</ele></trkpt>
      <trkpt lat="43.982053" lon="-114.961535"><ele>2805.2</ele></trkpt>
      <trkpt lat="43.981824" lon="-114.961288"><ele>2811.0</ele></trkpt>
      <trkpt lat="43.981773" lon="-114.961262"><ele>2811.8</ele></trkpt>
      <trkpt lat="43.981856" lon="-114.961391"><ele>2808.5</ele></trkpt>
      <trkpt lat="43.981902" lon="-114.961550"><ele>2804.5</ele></trkpt>
      <trkpt lat="43.981859" lon="-114.961501"><ele>2805.8</ele></trkpt>
      <trkpt lat="43.981696" lon="-114.961327"><ele>2810.2</ele></trkpt>
      <trkpt lat="43.981572" lon="-114.961183"><ele>2809.0</ele></trkpt>
      <trkpt lat="43.981707" lon="-114.961430"><ele>2807.5</ele></trkpt>
      <trkpt lat="43.981734" lon="-114.961709"><ele>2800.5</ele></trkpt>
      <trkpt lat="43.981698" lon="-114.961650"><ele>2801.5</ele></trkpt>
      <trkpt lat="43.981647" lon="-114.961510"><ele>2804.2</ele></trkpt>
      <trkpt lat="43.981453" lon="-114.961307"><ele>2799.2</ele></trkpt>
      <trkpt lat="43.981294" lon="-114.960968"><ele>2798.2</ele></trkpt>
      <trkpt lat="43.981322" lon="-114.961274"><ele>2793.0</ele></trkpt>
      <trkpt lat="43.981492" lon="-114.961670"><ele>2792.5</ele></trkpt>
      <trkpt lat="43.981430" lon="-114.961653"><ele>2789.8</ele></trkpt>
      <trkpt lat="43.981262" lon="-114.961515"><ele>2784.8</ele></trkpt>
      <trkpt lat="43.981037" lon="-114.961014"><ele>2782.2</ele></trkpt>
      <trkpt lat="43.981094" lon="-114.961320"><ele>2779.8</ele></trkpt>
      <trkpt lat="43.981307" lon="-114.962049"><ele>2778.0</ele></trkpt>
      <trkpt lat="43.981266" lon="-114.962060"><ele>2776.0</ele></trkpt>
      <trkpt lat="43.980924" lon="-114.961622"><ele>2766.0</ele></trkpt>
      <trkpt lat="43.980926" lon="-114.961751"><ele>2764.2</ele></trkpt>
      <trkpt lat="43.981023" lon="-114.962048"><ele>2764.8</ele></trkpt>
      <trkpt lat="43.981122" lon="-114.962260"><ele>2766.5</ele></trkpt>
      <trkpt lat="43.980985" lon="-114.962167"><ele>2761.2</ele></trkpt>
      <trkpt lat="43.980766" lon="-114.961843"><ele>2756.0</ele></trkpt>
      <trkpt lat="43.980539" lon="-114.961296"><ele>2752.5</ele></trkpt>
      <trkpt lat="43.980535" lon="-114.961415"><ele>2751.2</ele></trkpt>
      <trkpt lat="43.980543" lon="-114.961906"><ele>2747.2</ele></trkpt>
      <trkpt lat="43.980618" lon="-114.962575"><ele>2744.5</ele></trkpt>
      <trkpt lat="43.980713" lon="-114.962777"><ele>2747.5</ele></trkpt>
      <trkpt lat="43.980773" lon="-114.962940"><ele>2749.2</ele></trkpt>
      <trkpt lat="43.980552" lon="-114.962855"><ele>2743.2</ele></trkpt>
      <trkpt lat="43.980353" lon="-114.962986"><ele>2738.2</ele></trkpt>
      <trkpt lat="43.980212" lon="-114.963007"><ele>2734.5</ele></trkpt>
      <trkpt lat="43.980095" lon="-114.963080"><ele>2731.5</ele></trkpt>
      <trkpt lat="43.979886" lon="-114.963064"><ele>2729.5</ele></trkpt>
      <trkpt lat="43.979762" lon="-114.963064"><ele>2730.0</ele></trkpt>
      <trkpt lat="43.979745" lon="-114.962849"><ele>2729.2</ele></trkpt>
      <trkpt lat="43.979773" lon="-114.962495"><ele>2727.8</ele></trkpt>
      <trkpt lat="43.979730" lon="-114.962194"><ele>2725.0</ele></trkpt>
      <trkpt lat="43.979597" lon="-114.961714"><ele>2718.2</ele></trkpt>
      <trkpt lat="43.979479" lon="-114.961309"><ele>2712.8</ele></trkpt>
      <trkpt lat="43.979431" lon="-114.961192"><ele>2710.5</ele></trkpt>
      <trkpt lat="43.979292" lon="-114.960771"><ele>2703.5</ele></trkpt>
      <trkpt lat="43.979066" lon="-114.960472"><ele>2698.2</ele></trkpt>
      <trkpt lat="43.978672" lon="-114.960227"><ele>2690.8</ele></trkpt>
      <trkpt lat="43.978505" lon="-114.959661"><ele>2685.8</ele></trkpt>
      <trkpt lat="43.978389" lon="-114.959407"><ele>2682.0</ele></trkpt>
      <trkpt lat="43.978179" lon="-114.959296"><ele>2675.5</ele></trkpt>
      <trkpt lat="43.978103" lon="-114.959106"><ele>2673.0</ele></trkpt>
      <trkpt lat="43.977939" lon="-114.958878"><ele>2668.5</ele></trkpt>
      <trkpt lat="43.977987" lon="-114.958718"><ele>2670.0</ele></trkpt>
      <trkpt lat="43.978032" lon="-114.958429"><ele>2671.8</ele></trkpt>
      <trkpt lat="43.978140" lon="-114.958082"><ele>2676.2</ele></trkpt>
      <trkpt lat="43.978017" lon="-114.957871"><ele>2674.0</ele></trkpt>
      <trkpt lat="43.977963" lon="-114.957743"><ele>2673.5</ele></trkpt>
      <trkpt lat="43.977843" lon="-114.957800"><ele>2670.0</ele></trkpt>
      <trkpt lat="43.977586" lon="-114.957889"><ele>2662.8</ele></trkpt>
      <trkpt lat="43.977300" lon="-114.957970"><ele>2657.8</ele></trkpt>
      <trkpt lat="43.976959" lon="-114.957871"><ele>2655.2</ele></trkpt>
      <trkpt lat="43.976605" lon="-114.957809"><ele>2652.5</ele></trkpt>
      <trkpt lat="43.976272" lon="-114.957963"><ele>2654.5</ele></trkpt>
      <trkpt lat="43.976115" lon="-114.957821"><ele>2654.2</ele></trkpt>
      <trkpt lat="43.975710" lon="-114.957080"><ele>2640.5</ele></trkpt>
      <trkpt lat="43.975654" lon="-114.956913"><ele>2636.8</ele></trkpt>
      <trkpt lat="43.975799" lon="-114.956876"><ele>2635.5</ele></trkpt>
      <trkpt lat="43.975687" lon="-114.956774"><ele>2633.5</ele></trkpt>
      <trkpt lat="43.975336" lon="-114.956738"><ele>2633.0</ele></trkpt>
      <trkpt lat="43.975247" lon="-114.956705"><ele>2632.0</ele></trkpt>
      <trkpt lat="43.975456" lon="-114.956523"><ele>2626.0</ele></trkpt>
      <trkpt lat="43.975165" lon="-114.956468"><ele>2623.5</ele></trkpt>
      <trkpt lat="43.975137" lon="-114.956411"><ele>2621.2</ele></trkpt>
      <trkpt lat="43.975393" lon="-114.956217"><ele>2615.2</ele></trkpt>
      <trkpt lat="43.975691" lon="-114.956042"><ele>2610.5</ele></trkpt>
      <trkpt lat="43.975948" lon="-114.956062"><ele>2614.0</ele></trkpt>
      <trkpt lat="43.976259" lon="-114.955826"><ele>2611.8</ele></trkpt>
      <trkpt lat="43.976543" lon="-114.955413"><ele>2604.2</ele></trkpt>
      <trkpt lat="43.976846" lon="-114.954917"><ele>2598.2</ele></trkpt>
      <trkpt lat="43.976805" lon="-114.954542"><ele>2593.5</ele></trkpt>
      <trkpt lat="43.976617" lon="-114.954532"><ele>2587.8</ele></trkpt>
      <trkpt lat="43.976492" lon="-114.954447"><ele>2585.2</ele></trkpt>
      <trkpt lat="43.976319" lon="-114.954406"><ele>2582.5</ele></trkpt>
      <trkpt lat="43.976045" lon="-114.954351"><ele>2578.0</ele></trkpt>
      <trkpt lat="43.975653" lon="-114.954007"><ele>2568.2</ele></trkpt>
      <trkpt lat="43.975307" lon="-114.953967"><ele>2566.0</ele></trkpt>
      <trkpt lat="43.975180" lon="-114.953911"><ele>2564.5</ele></trkpt>
      <trkpt lat="43.974627" lon="-114.953879"><ele>2569.0</ele></trkpt>
      <trkpt lat="43.974390" lon="-114.953961"><ele>2574.8</ele></trkpt>
      <trkpt lat="43.974123" lon="-114.953866"><ele>2576.8</ele></trkpt>
      <trkpt lat="43.974044" lon="-114.953246"><ele>2563.0</ele></trkpt>
      <trkpt lat="43.974047" lon="-114.952827"><ele>2558.2</ele></trkpt>
      <trkpt lat="43.974360" lon="-114.952536"><ele>2550.8</ele></trkpt>
      <trkpt lat="43.974430" lon="-114.952195"><ele>2546.2</ele></trkpt>
      <trkpt lat="43.974171" lon="-114.951680"><ele>2546.0</ele></trkpt>
      <trkpt lat="43.973867" lon="-114.951345"><ele>2537.5</ele></trkpt>
      <trkpt lat="43.973352" lon="-114.951437"><ele>2533.5</ele></trkpt>
      <trkpt lat="43.973418" lon="-114.951049"><ele>2526.5</ele></trkpt>
      <trkpt lat="43.973592" lon="-114.950765"><ele>2523.2</ele></trkpt>
      <trkpt lat="43.973669" lon="-114.950488"><ele>2518.8</ele></trkpt>
      <trkpt lat="43.973001" lon="-114.950989"><ele>2517.5</ele></trkpt>
      <trkpt lat="43.972503" lon="-114.950925"><ele>2507.0</ele></trkpt>
      <trkpt lat="43.972178" lon="-114.950999"><ele>2504.5</ele></trkpt>
      <trkpt lat="43.972246" lon="-114.950767"><ele>2502.8</ele></trkpt>
      <trkpt lat="43.972178" lon="-114.950286"><ele>2497.8</ele></trkpt>
      <trkpt lat="43.972449" lon="-114.949783"><ele>2493.5</ele></trkpt>
      <trkpt lat="43.972789" lon="-114.949238"><ele>2488.0</ele></trkpt>
      <trkpt lat="43.973076" lon="-114.949085"><ele>2487.5</ele></trkpt>
      <trkpt lat="43.973492" lon="-114.949036"><ele>2487.8</ele></trkpt>
      <trkpt lat="43.973818" lon="-114.948938"><ele>2484.2</ele></trkpt>
      <trkpt lat="43.974241" lon="-114.948853"><ele>2479.5</ele></trkpt>
      <trkpt lat="43.974375" lon="-114.948922"><ele>2479.0</ele></trkpt>
      <trkpt lat="43.974805" lon="-114.949435"><ele>2485.0</ele></trkpt>
      <trkpt lat="43.974905" lon="-114.949460"><ele>2484.0</ele></trkpt>
      <trkpt lat="43.975017" lon="-114.949351"><ele>2479.2</ele></trkpt>
      <trkpt lat="43.975439" lon="-114.948904"><ele>2471.2</ele></trkpt>
      <trkpt lat="43.975718" lon="-114.948650"><ele>2468.0</ele></trkpt>
      <trkpt lat="43.975855" lon="-114.948510"><ele>2466.5</ele></trkpt>
      <trkpt lat="43.975803" lon="-114.948140"><ele>2461.8</ele></trkpt>
      <trkpt lat="43.975797" lon="-114.948037"><ele>2461.5</ele></trkpt>
      <trkpt lat="43.975928" lon="-114.947811"><ele>2464.2</ele></trkpt>
      <trkpt lat="43.975828" lon="-114.947529"><ele>2461.8</ele></trkpt>
      <trkpt lat="43.975766" lon="-114.947077"><ele>2459.2</ele></trkpt>
      <trkpt lat="43.976278" lon="-114.946836"><ele>2462.0</ele></trkpt>
      <trkpt lat="43.976564" lon="-114.946515"><ele>2458.2</ele></trkpt>
      <trkpt lat="43.976527" lon="-114.946423"><ele>2456.2</ele></trkpt>
      <trkpt lat="43.976306" lon="-114.946362"><ele>2454.2</ele></trkpt>
      <trkpt lat="43.976144" lon="-114.946155"><ele>2449.8</ele></trkpt>
      <trkpt lat="43.975976" lon="-114.946038"><ele>2447.5</ele></trkpt>
      <trkpt lat="43.975892" lon="-114.945932"><ele>2445.5</ele></trkpt>
      <trkpt lat="43.976078" lon="-114.945927"><ele>2445.5</ele></trkpt>
      <trkpt lat="43.976214" lon="-114.945862"><ele>2444.5</ele></trkpt>
      <trkpt lat="43.976325" lon="-114.945665"><ele>2442.5</ele></trkpt>
      <trkpt lat="43.976531" lon="-114.945537"><ele>2441.0</ele></trkpt>
      <trkpt lat="43.976683" lon="-114.945317"><ele>2438.5</ele></trkpt>
      <trkpt lat="43.976756" lon="-114.945050"><ele>2435.8</ele></trkpt>
      <trkpt lat="43.976946" lon="-114.944799"><ele>2435.0</ele></trkpt>
      <trkpt lat="43.977066" lon="-114.944676"><ele>2434.5</ele></trkpt>
      <trkpt lat="43.977064" lon="-114.944537"><ele>2433.5</ele></trkpt>
      <trkpt lat="43.977131" lon="-114.944319"><ele>2432.0</ele></trkpt>
      <trkpt lat="43.977112" lon="-114.944188"><ele>2431.0</ele></trkpt>
      <trkpt lat="43.977202" lon="-114.944052"><ele>2430.2</ele></trkpt>
      <trkpt lat="43.977199" lon="-114.943898"><ele>2430.0</ele></trkpt>
      <trkpt lat="43.977093" lon="-114.943673"><ele>2429.8</ele></trkpt>
      <trkpt lat="43.977179" lon="-114.943516"><ele>2429.0</ele></trkpt>
      <trkpt lat="43.977475" lon="-114.943351"><ele>2428.0</ele></trkpt>
      <trkpt lat="43.977632" lon="-114.943305"><ele>2428.5</ele></trkpt>
      <trkpt lat="43.977709" lon="-114.943102"><ele>2429.0</ele></trkpt>
      <trkpt lat="43.977620" lon="-114.942963"><ele>2428.8</ele></trkpt>
      <trkpt lat="43.977662" lon="-114.942843"><ele>2429.0</ele></trkpt>
      <trkpt lat="43.977725" lon="-114.942775"><ele>2429.2</ele></trkpt>
      <trkpt lat="43.977959" lon="-114.942613"><ele>2430.0</ele></trkpt>
      <trkpt lat="43.978057" lon="-114.942439"><ele>2429.8</ele></trkpt>
      <trkpt lat="43.978341" lon="-114.942216"><ele>2428.2</ele></trkpt>
      <trkpt lat="43.978619" lon="-114.941655"><ele>2426.0</ele></trkpt>
      <trkpt lat="43.978949" lon="-114.941387"><ele>2423.8</ele></trkpt>
      <trkpt lat="43.979148" lon="-114.941108"><ele>2418.8</ele></trkpt>
      <trkpt lat="43.979364" lon="-114.940675"><ele>2413.8</ele></trkpt>
      <trkpt lat="43.979657" lon="-114.940023"><ele>2410.5</ele></trkpt>
      <trkpt lat="43.979838" lon="-114.939584"><ele>2409.2</ele></trkpt>
      <trkpt lat="43.980013" lon="-114.939367"><ele>2410.2</ele></trkpt>
      <trkpt lat="43.980205" lon="-114.939202"><ele>2413.5</ele></trkpt>
      <trkpt lat="43.980375" lon="-114.939068"><ele>2416.8</ele></trkpt>
      <trkpt lat="43.980306" lon="-114.938370"><ele>2411.8</ele></trkpt>
      <trkpt lat="43.980299" lon="-114.938131"><ele>2411.0</ele></trkpt>
      <trkpt lat="43.980290" lon="-114.937904"><ele>2410.2</ele></trkpt>
      <trkpt lat="43.980344" lon="-114.937618"><ele>2410.5</ele></trkpt>
      <trkpt lat="43.980485" lon="-114.937432"><ele>2412.8</ele></trkpt>
      <trkpt lat="43.980487" lon="-114.937221"><ele>2410.5</ele></trkpt>
      <trkpt lat="43.980349" lon="-114.936656"><ele>2402.5</ele></trkpt>
      <trkpt lat="43.980387" lon="-114.936438"><ele>2400.5</ele></trkpt>
      <trkpt lat="43.980408" lon="-114.936144"><ele>2397.0</ele></trkpt>
      <trkpt lat="43.980487" lon="-114.935959"><ele>2396.2</ele></trkpt>
      <trkpt lat="43.980635" lon="-114.935927"><ele>2399.0</ele></trkpt>
      <trkpt lat="43.980776" lon="-114.935759"><ele>2400.0</ele></trkpt>
      <trkpt lat="43.980861" lon="-114.935485"><ele>2399.8</ele></trkpt>
      <trkpt lat="43.980951" lon="-114.935178"><ele>2400.5</ele></trkpt>
      <trkpt lat="43.980897" lon="-114.934824"><ele>2395.5</ele></trkpt>
      <trkpt lat="43.980897" lon="-114.934581"><ele>2393.2</ele></trkpt>
      <trkpt lat="43.981030" lon="-114.934351"><ele>2396.5</ele></trkpt>
      <trkpt lat="43.981070" lon="-114.934157"><ele>2396.5</ele></trkpt>
      <trkpt lat="43.981014" lon="-114.933884"><ele>2392.2</ele></trkpt>
      <trkpt lat="43.981069" lon="-114.933767"><ele>2393.5</ele></trkpt>
      <trkpt lat="43.981199" lon="-114.933588"><ele>2397.2</ele></trkpt>
      <trkpt lat="43.981191" lon="-114.933413"><ele>2395.8</ele></trkpt>
      <trkpt lat="43.981192" lon="-114.933119"><ele>2394.2</ele></trkpt>
      <trkpt lat="43.981159" lon="-114.932891"><ele>2392.5</ele></trkpt>
      <trkpt lat="43.981082" lon="-114.932774"><ele>2389.5</ele></trkpt>
      <trkpt lat="43.980707" lon="-114.932559"><ele>2379.8</ele></trkpt>
      <trkpt lat="43.980688" lon="-114.932151"><ele>2377.5</ele></trkpt>
      <trkpt lat="43.980543" lon="-114.931874"><ele>2373.8</ele></trkpt>
    </trkseg>
    <trkseg>
      <!-- Mon — out to Pettit Lake -->
      <trkpt lat="43.980543" lon="-114.931874"><ele>2373.8</ele></trkpt>
      <trkpt lat="43.980738" lon="-114.932392"><ele>2379.8</ele></trkpt>
      <trkpt lat="43.981062" lon="-114.932683"><ele>2388.8</ele></trkpt>
      <trkpt lat="43.981153" lon="-114.932416"><ele>2390.2</ele></trkpt>
      <trkpt lat="43.981130" lon="-114.932225"><ele>2387.5</ele></trkpt>
      <trkpt lat="43.981264" lon="-114.932119"><ele>2389.8</ele></trkpt>
      <trkpt lat="43.981424" lon="-114.932094"><ele>2393.0</ele></trkpt>
      <trkpt lat="43.981534" lon="-114.931704"><ele>2389.2</ele></trkpt>
      <trkpt lat="43.981663" lon="-114.931597"><ele>2390.0</ele></trkpt>
      <trkpt lat="43.981799" lon="-114.931441"><ele>2391.8</ele></trkpt>
      <trkpt lat="43.981887" lon="-114.931267"><ele>2391.8</ele></trkpt>
      <trkpt lat="43.981837" lon="-114.931088"><ele>2388.2</ele></trkpt>
      <trkpt lat="43.981637" lon="-114.930890"><ele>2381.0</ele></trkpt>
      <trkpt lat="43.981673" lon="-114.930604"><ele>2380.0</ele></trkpt>
      <trkpt lat="43.981774" lon="-114.930324"><ele>2380.2</ele></trkpt>
      <trkpt lat="43.981794" lon="-114.930169"><ele>2379.8</ele></trkpt>
      <trkpt lat="43.981840" lon="-114.929988"><ele>2379.0</ele></trkpt>
      <trkpt lat="43.982006" lon="-114.929945"><ele>2381.0</ele></trkpt>
      <trkpt lat="43.982276" lon="-114.929697"><ele>2381.8</ele></trkpt>
      <trkpt lat="43.982562" lon="-114.929728"><ele>2384.8</ele></trkpt>
      <trkpt lat="43.982669" lon="-114.929515"><ele>2382.2</ele></trkpt>
      <trkpt lat="43.982778" lon="-114.929102"><ele>2377.2</ele></trkpt>
      <trkpt lat="43.982985" lon="-114.928946"><ele>2375.8</ele></trkpt>
      <trkpt lat="43.983493" lon="-114.928663"><ele>2371.0</ele></trkpt>
      <trkpt lat="43.983659" lon="-114.928714"><ele>2370.2</ele></trkpt>
      <trkpt lat="43.983839" lon="-114.928346"><ele>2362.5</ele></trkpt>
      <trkpt lat="43.984008" lon="-114.928334"><ele>2360.0</ele></trkpt>
      <trkpt lat="43.984255" lon="-114.928189"><ele>2354.5</ele></trkpt>
      <trkpt lat="43.984435" lon="-114.928338"><ele>2359.2</ele></trkpt>
      <trkpt lat="43.984731" lon="-114.928212"><ele>2357.8</ele></trkpt>
      <trkpt lat="43.984687" lon="-114.927953"><ele>2351.2</ele></trkpt>
      <trkpt lat="43.984584" lon="-114.927801"><ele>2346.8</ele></trkpt>
      <trkpt lat="43.984494" lon="-114.927589"><ele>2340.8</ele></trkpt>
      <trkpt lat="43.984492" lon="-114.927113"><ele>2336.0</ele></trkpt>
      <trkpt lat="43.984615" lon="-114.926884"><ele>2334.5</ele></trkpt>
      <trkpt lat="43.984764" lon="-114.926456"><ele>2333.2</ele></trkpt>
      <trkpt lat="43.985314" lon="-114.925709"><ele>2333.8</ele></trkpt>
      <trkpt lat="43.985398" lon="-114.925006"><ele>2334.2</ele></trkpt>
      <trkpt lat="43.985436" lon="-114.924680"><ele>2333.5</ele></trkpt>
      <trkpt lat="43.985688" lon="-114.924420"><ele>2331.8</ele></trkpt>
      <trkpt lat="43.985914" lon="-114.923886"><ele>2329.5</ele></trkpt>
      <trkpt lat="43.986177" lon="-114.923370"><ele>2328.5</ele></trkpt>
      <trkpt lat="43.986782" lon="-114.922768"><ele>2322.0</ele></trkpt>
      <trkpt lat="43.986971" lon="-114.921981"><ele>2315.5</ele></trkpt>
      <trkpt lat="43.986899" lon="-114.921514"><ele>2309.2</ele></trkpt>
      <trkpt lat="43.986976" lon="-114.920902"><ele>2309.0</ele></trkpt>
      <trkpt lat="43.986927" lon="-114.920126"><ele>2300.2</ele></trkpt>
      <trkpt lat="43.987084" lon="-114.919636"><ele>2298.5</ele></trkpt>
      <trkpt lat="43.987167" lon="-114.919105"><ele>2295.0</ele></trkpt>
      <trkpt lat="43.987306" lon="-114.918807"><ele>2295.0</ele></trkpt>
      <trkpt lat="43.987353" lon="-114.918307"><ele>2291.2</ele></trkpt>
      <trkpt lat="43.987487" lon="-114.917670"><ele>2286.5</ele></trkpt>
      <trkpt lat="43.987415" lon="-114.917058"><ele>2282.2</ele></trkpt>
      <trkpt lat="43.987243" lon="-114.916276"><ele>2275.8</ele></trkpt>
      <trkpt lat="43.987056" lon="-114.915793"><ele>2270.2</ele></trkpt>
      <trkpt lat="43.987016" lon="-114.915447"><ele>2269.0</ele></trkpt>
      <trkpt lat="43.987089" lon="-114.914369"><ele>2266.0</ele></trkpt>
      <trkpt lat="43.987116" lon="-114.913802"><ele>2262.2</ele></trkpt>
      <trkpt lat="43.987375" lon="-114.913285"><ele>2261.0</ele></trkpt>
      <trkpt lat="43.987683" lon="-114.912681"><ele>2259.0</ele></trkpt>
      <trkpt lat="43.988331" lon="-114.911825"><ele>2257.0</ele></trkpt>
      <trkpt lat="43.988496" lon="-114.911393"><ele>2252.2</ele></trkpt>
      <trkpt lat="43.988692" lon="-114.910366"><ele>2239.0</ele></trkpt>
      <trkpt lat="43.988778" lon="-114.909957"><ele>2232.8</ele></trkpt>
      <trkpt lat="43.989247" lon="-114.909921"><ele>2234.2</ele></trkpt>
      <trkpt lat="43.990020" lon="-114.909949"><ele>2232.5</ele></trkpt>
      <trkpt lat="43.990429" lon="-114.910018"><ele>2232.2</ele></trkpt>
      <trkpt lat="43.990491" lon="-114.909772"><ele>2226.8</ele></trkpt>
      <trkpt lat="43.990171" lon="-114.909664"><ele>2225.8</ele></trkpt>
      <trkpt lat="43.989839" lon="-114.909031"><ele>2214.2</ele></trkpt>
      <trkpt lat="43.990189" lon="-114.908586"><ele>2208.0</ele></trkpt>
      <trkpt lat="43.990588" lon="-114.907902"><ele>2203.2</ele></trkpt>
      <trkpt lat="43.990621" lon="-114.907435"><ele>2201.0</ele></trkpt>
      <trkpt lat="43.990775" lon="-114.906960"><ele>2199.5</ele></trkpt>
      <trkpt lat="43.990795" lon="-114.906290"><ele>2199.2</ele></trkpt>
      <trkpt lat="43.990812" lon="-114.905506"><ele>2198.2</ele></trkpt>
      <trkpt lat="43.990931" lon="-114.905027"><ele>2196.5</ele></trkpt>
      <trkpt lat="43.990987" lon="-114.904819"><ele>2197.8</ele></trkpt>
      <trkpt lat="43.990913" lon="-114.904683"><ele>2198.5</ele></trkpt>
      <trkpt lat="43.990650" lon="-114.904466"><ele>2201.2</ele></trkpt>
      <trkpt lat="43.990696" lon="-114.904235"><ele>2202.8</ele></trkpt>
      <trkpt lat="43.990940" lon="-114.903760"><ele>2203.8</ele></trkpt>
      <trkpt lat="43.991152" lon="-114.903371"><ele>2204.2</ele></trkpt>
      <trkpt lat="43.991466" lon="-114.902995"><ele>2201.8</ele></trkpt>
      <trkpt lat="43.991961" lon="-114.902348"><ele>2195.2</ele></trkpt>
      <trkpt lat="43.992281" lon="-114.902013"><ele>2190.2</ele></trkpt>
      <trkpt lat="43.992489" lon="-114.901746"><ele>2186.5</ele></trkpt>
      <trkpt lat="43.992398" lon="-114.900779"><ele>2184.0</ele></trkpt>
      <trkpt lat="43.992480" lon="-114.900198"><ele>2181.5</ele></trkpt>
      <trkpt lat="43.992631" lon="-114.899836"><ele>2180.8</ele></trkpt>
      <trkpt lat="43.993043" lon="-114.899346"><ele>2179.2</ele></trkpt>
      <trkpt lat="43.993270" lon="-114.898881"><ele>2178.2</ele></trkpt>
      <trkpt lat="43.993411" lon="-114.898484"><ele>2177.8</ele></trkpt>
      <trkpt lat="43.993671" lon="-114.898139"><ele>2177.0</ele></trkpt>
      <trkpt lat="43.993649" lon="-114.897457"><ele>2178.2</ele></trkpt>
      <trkpt lat="43.993884" lon="-114.897028"><ele>2177.0</ele></trkpt>
      <trkpt lat="43.994278" lon="-114.896640"><ele>2175.5</ele></trkpt>
      <trkpt lat="43.994735" lon="-114.896114"><ele>2174.5</ele></trkpt>
      <trkpt lat="43.995066" lon="-114.895736"><ele>2174.2</ele></trkpt>
      <trkpt lat="43.995601" lon="-114.894080"><ele>2175.5</ele></trkpt>
      <trkpt lat="43.995618" lon="-114.893396"><ele>2174.2</ele></trkpt>
      <trkpt lat="43.995220" lon="-114.892733"><ele>2174.8</ele></trkpt>
      <trkpt lat="43.994913" lon="-114.892296"><ele>2174.5</ele></trkpt>
      <trkpt lat="43.994866" lon="-114.891610"><ele>2173.0</ele></trkpt>
      <trkpt lat="43.994839" lon="-114.890944"><ele>2171.8</ele></trkpt>
      <trkpt lat="43.994790" lon="-114.890582"><ele>2172.0</ele></trkpt>
      <trkpt lat="43.994797" lon="-114.889908"><ele>2173.0</ele></trkpt>
      <trkpt lat="43.994815" lon="-114.889222"><ele>2175.0</ele></trkpt>
      <trkpt lat="43.994891" lon="-114.888917"><ele>2175.8</ele></trkpt>
      <trkpt lat="43.995312" lon="-114.888397"><ele>2175.5</ele></trkpt>
      <trkpt lat="43.995675" lon="-114.887736"><ele>2175.2</ele></trkpt>
      <trkpt lat="43.995380" lon="-114.887553"><ele>2177.0</ele></trkpt>
      <trkpt lat="43.994899" lon="-114.887563"><ele>2180.2</ele></trkpt>
      <trkpt lat="43.994340" lon="-114.888102"><ele>2186.5</ele></trkpt>
      <trkpt lat="43.992993" lon="-114.889199"><ele>2199.0</ele></trkpt>
      <trkpt lat="43.992447" lon="-114.889880"><ele>2207.2</ele></trkpt>
      <trkpt lat="43.991694" lon="-114.891038"><ele>2219.2</ele></trkpt>
      <trkpt lat="43.991233" lon="-114.891938"><ele>2224.8</ele></trkpt>
      <trkpt lat="43.991080" lon="-114.891876"><ele>2228.8</ele></trkpt>
      <trkpt lat="43.991124" lon="-114.890323"><ele>2237.2</ele></trkpt>
      <trkpt lat="43.990893" lon="-114.890160"><ele>2243.8</ele></trkpt>
      <trkpt lat="43.990501" lon="-114.890610"><ele>2248.8</ele></trkpt>
      <trkpt lat="43.989708" lon="-114.891559"><ele>2257.2</ele></trkpt>
      <trkpt lat="43.989249" lon="-114.892362"><ele>2262.5</ele></trkpt>
      <trkpt lat="43.988993" lon="-114.892279"><ele>2266.8</ele></trkpt>
      <trkpt lat="43.988907" lon="-114.891398"><ele>2271.8</ele></trkpt>
      <trkpt lat="43.988838" lon="-114.890246"><ele>2284.0</ele></trkpt>
      <trkpt lat="43.988936" lon="-114.889408"><ele>2289.8</ele></trkpt>
      <trkpt lat="43.989238" lon="-114.888484"><ele>2292.5</ele></trkpt>
      <trkpt lat="43.989100" lon="-114.887932"><ele>2298.5</ele></trkpt>
      <trkpt lat="43.988788" lon="-114.887470"><ele>2300.8</ele></trkpt>
      <trkpt lat="43.987600" lon="-114.887578"><ele>2297.0</ele></trkpt>
      <trkpt lat="43.986760" lon="-114.888057"><ele>2294.2</ele></trkpt>
      <trkpt lat="43.986181" lon="-114.887933"><ele>2292.0</ele></trkpt>
      <trkpt lat="43.985803" lon="-114.887440"><ele>2287.5</ele></trkpt>
      <trkpt lat="43.985778" lon="-114.886383"><ele>2273.5</ele></trkpt>
      <trkpt lat="43.985809" lon="-114.885810"><ele>2271.2</ele></trkpt>
      <trkpt lat="43.985636" lon="-114.885431"><ele>2266.5</ele></trkpt>
      <trkpt lat="43.985188" lon="-114.885053"><ele>2250.8</ele></trkpt>
      <trkpt lat="43.985066" lon="-114.884518"><ele>2243.5</ele></trkpt>
      <trkpt lat="43.984969" lon="-114.883761"><ele>2239.2</ele></trkpt>
      <trkpt lat="43.984702" lon="-114.882819"><ele>2229.0</ele></trkpt>
      <trkpt lat="43.984564" lon="-114.881453"><ele>2218.0</ele></trkpt>
      <trkpt lat="43.984297" lon="-114.880466"><ele>2201.0</ele></trkpt>
      <trkpt lat="43.984236" lon="-114.879843"><ele>2194.8</ele></trkpt>
      <trkpt lat="43.984024" lon="-114.879032"><ele>2182.8</ele></trkpt>
      <trkpt lat="43.983976" lon="-114.878271"><ele>2178.0</ele></trkpt>
      <trkpt lat="43.983953" lon="-114.876732"><ele>2163.5</ele></trkpt>
      <trkpt lat="43.983884" lon="-114.876130"><ele>2159.2</ele></trkpt>
      <trkpt lat="43.983813" lon="-114.875525"><ele>2153.5</ele></trkpt>
      <trkpt lat="43.983588" lon="-114.874774"><ele>2141.5</ele></trkpt>
      <trkpt lat="43.983596" lon="-114.874670"><ele>2141.8</ele></trkpt>
      <trkpt lat="43.983532" lon="-114.874022"><ele>2140.0</ele></trkpt>
      <trkpt lat="43.983553" lon="-114.872978"><ele>2142.2</ele></trkpt>
      <trkpt lat="43.983693" lon="-114.872617"><ele>2146.5</ele></trkpt>
      <trkpt lat="43.984225" lon="-114.872079"><ele>2149.2</ele></trkpt>
      <trkpt lat="43.984388" lon="-114.871890"><ele>2150.0</ele></trkpt>
    </trkseg>
  </trk>
</gpx>
