<?xml version="1.0" encoding="UTF-8"?>
<gpx version="1.1" creator="pathbeaters26" xmlns="http://www.topografix.com/GPX/1/1" xmlns:xsi="http://www.w3.org/2001/XMLSchema-instance" xsi:schemaLocation="http://www.topografix.com/GPX/1/1 http://www.topografix.com/GPX/1/1/gpx.xsd">
  <metadata><name>Boulder Chain Lakes over Windy Devil (west side)</name><desc>Thu-Mon plan; one trkseg per day leg (Fri, Sat, Sun, Mon). Track routed with BRouter hiking-mountain over OSM trails; elevations from the BRouter SRTM profile.</desc></metadata>
  <wpt lat="44.046558" lon="-114.657629"><ele>2674.2</ele><name>Fourth of July TH</name></wpt>
  <wpt lat="44.043240" lon="-114.631690"><ele>2856.0</ele><name>Fourth of July Lake</name></wpt>
  <wpt lat="44.052500" lon="-114.626500"><ele>3004.8</ele><name>Ants Basin</name></wpt>
  <wpt lat="44.059050" lon="-114.619800"><ele>2878.6</ele><name>Sun camp · Born Lakes</name></wpt>
  <wpt lat="44.070330" lon="-114.596660"><ele>3060.9</ele><name>Windy Devil</name></wpt>
  <wpt lat="44.077420" lon="-114.592220"><ele>2901.5</ele><name>Hummock Lake</name></wpt>
  <wpt lat="44.077630" lon="-114.588510"><ele>2899.3</ele><name>Fri + Sat camp · Hourglass Lake</name></wpt>
  <wpt lat="44.074310" lon="-114.598390"><ele>2974.9</ele><name>Headwall Lake</name></wpt>
  <wpt lat="44.074101" lon="-114.607025"><ele>3182.2</ele><name>Lonesome Lake</name></wpt>
  <trk><name>Boulder Chain Lakes over Windy Devil (west side)</name>
    <trkseg>
      <!-- Fri — Ants Basin, Born Lakes, over Windy Devil -->
      <trkpt lat="44.046558" lon="-114.657629"><ele>2674.0</ele></trkpt>
      <trkpt lat="44.046501" lon="-114.657578"><ele>2673.5</ele></trkpt>
      <trkpt lat="44.046544" lon="-114.657211"><ele>2674.0</ele></trkpt>
      <trkpt lat="44.046595" lon="-114.657127"><ele>2674.2</ele></trkpt>
      <trkpt lat="44.046602" lon="-114.657073"><ele>2674.2</ele></trkpt>
      <trkpt lat="44.046564" lon="-114.656981"><ele>2674.0</ele></trkpt>
      <trkpt lat="44.046542" lon="-114.656964"><ele>2674.0</ele></trkpt>
      <trkpt lat="44.046500" lon="-114.656932"><ele>2674.0</ele></trkpt>
      <trkpt lat="44.046275" lon="-114.656845"><ele>2674.0</ele></trkpt>
      <trkpt lat="44.046180" lon="-114.656772"><ele>2674.5</ele></trkpt>
      <trkpt lat="44.046116" lon="-114.656552"><ele>2676.5</ele></trkpt>
      <trkpt lat="44.046072" lon="-114.656341"><ele>2678.8</ele></trkpt>
      <trkpt lat="44.046081" lon="-114.656203"><ele>2680.2</ele></trkpt>
      <trkpt lat="44.046212" lon="-114.655983"><ele>2681.8</ele></trkpt>
      <trkpt lat="44.046256" lon="-114.655786"><ele>2683.8</ele></trkpt>
      <trkpt lat="44.046364" lon="-114.655684"><ele>2684.5</ele></trkpt>
      <trkpt lat="44.046504" lon="-114.655444"><ele>2687.5</ele></trkpt>
      <trkpt lat="44.046548" lon="-114.655258"><ele>2690.0</ele></trkpt>
      <trkpt lat="44.046690" lon="-114.655022"><ele>2692.2</ele></trkpt>
      <trkpt lat="44.046760" lon="-114.654871"><ele>2693.8</ele></trkpt>
      <trkpt lat="44.047026" lon="-114.654800"><ele>2692.5</ele></trkpt>
      <trkpt lat="44.047106" lon="-114.654753"><ele>2692.5</ele></trkpt>
      <trkpt lat="44.047322" lon="-114.654172"><ele>2697.2</ele></trkpt>
      <trkpt lat="44.047545" lon="-114.653603"><ele>2702.5</ele></trkpt>
      <trkpt lat="44.047570" lon="-114.653379"><ele>2705.0</ele></trkpt>
      <trkpt lat="44.047575" lon="-114.653113"><ele>2708.2</ele></trkpt>
      <trkpt lat="44.047744" lon="-114.652835"><ele>2710.8</ele></trkpt>
      <trkpt lat="44.047839" lon="-114.652627"><ele>2712.5</ele></trkpt>
      <trkpt lat="44.047917" lon="-114.652303"><ele>2718.2</ele></trkpt>
      <trkpt lat="44.047996" lon="-114.652078"><ele>2722.8</ele></trkpt>
      <trkpt lat="44.048194" lon="-114.651894"><ele>2724.2</ele></trkpt>
      <trkpt lat="44.048515" lon="-114.651715"><ele>2723.5</ele></trkpt>
      <trkpt lat="44.048716" lon="-114.651573"><ele>2723.5</ele></trkpt>
      <trkpt lat="44.048922" lon="-114.651357"><ele>2724.8</ele></trkpt>
      <trkpt lat="44.049236" lon="-114.650931"><ele>2727.0</ele></trkpt>
      <trkpt lat="44.049363" lon="-114.650775"><ele>2728.2</ele></trkpt>
      <trkpt lat="44.049512" lon="-114.650724"><ele>2727.8</ele></trkpt>
      <trkpt lat="44.049596" lon="-114.650671"><ele>2727.8</ele></trkpt>
      <trkpt lat="44.049620" lon="-114.650520"><ele>2728.8</ele></trkpt>
      <trkpt lat="44.049685" lon="-114.650351"><ele>2729.2</ele></trkpt>
      <trkpt lat="44.049832" lon="-114.650121"><ele>2728.8</ele></trkpt>
      <trkpt lat="44.049795" lon="-114.649981"><ele>2730.0</ele></trkpt>
      <trkpt lat="44.049791" lon="-114.649777"><ele>2730.2</ele></trkpt>
      <trkpt lat="44.049801" lon="-114.649515"><ele>2730.0</ele></trkpt>
      <trkpt lat="44.049797" lon="-114.649244"><ele>2730.2</ele></trkpt>
      <trkpt lat="44.049781" lon="-114.649048"><ele>2731.8</ele></trkpt>
      <trkpt lat="44.049826" lon="-114.648916"><ele>2732.2</ele></trkpt>
      <trkpt lat="44.049895" lon="-114.648745"><ele>2732.5</ele></trkpt>
      <trkpt lat="44.049891" lon="-114.648627"><ele>2733.8</ele></trkpt>
      <trkpt lat="44.049974" lon="-114.648514"><ele>2732.8</ele></trkpt>
      <trkpt lat="44.050015" lon="-114.648383"><ele>2733.5</ele></trkpt>
      <trkpt lat="44.050067" lon="-114.647814"><ele>2738.0</ele></trkpt>
      <trkpt lat="44.050028" lon="-114.647621"><ele>2739.2</ele></trkpt>
      <trkpt lat="44.049914" lon="-114.647439"><ele>2741.8</ele></trkpt>
      <trkpt lat="44.049828" lon="-114.646937"><ele>2744.2</ele></trkpt>
      <trkpt lat="44.049791" lon="-114.646685"><ele>2745.2</ele></trkpt>
      <trkpt lat="44.049673" lon="-114.646277"><ele>2749.8</ele></trkpt>
      <trkpt lat="44.049581" lon="-114.646089"><ele>2752.0</ele></trkpt>
      <trkpt lat="44.049469" lon="-114.645819"><ele>2754.5</ele></trkpt>
      <trkpt lat="44.049394" lon="-114.645470"><ele>2756.5</ele></trkpt>
      <trkpt lat="44.049323" lon="-114.645183"><ele>2757.5</ele></trkpt>
      <trkpt lat="44.049247" lon="-114.645038"><ele>2757.8</ele></trkpt>
      <trkpt lat="44.049228" lon="-114.644874"><ele>2758.2</ele></trkpt>
      <trkpt lat="44.049236" lon="-114.644660"><ele>2759.0</ele></trkpt>
      <trkpt lat="44.049124" lon="-114.644520"><ele>2759.5</ele></trkpt>
      <trkpt lat="44.048968" lon="-114.644351"><ele>2761.0</ele></trkpt>
      <trkpt lat="44.048879" lon="-114.644172"><ele>2761.5</ele></trkpt>
      <trkpt lat="44.048700" lon="-114.643957"><ele>2763.0</ele></trkpt>
      <trkpt lat="44.048544" lon="-114.643882"><ele>2763.2</ele></trkpt>
      <trkpt lat="44.048447" lon="-114.643879"><ele>2763.5</ele></trkpt>
      <trkpt lat="44.048349" lon="-114.643906"><ele>2764.0</ele></trkpt>
      <trkpt lat="44.048212" lon="-114.643839"><ele>2765.2</ele></trkpt>
      <trkpt lat="44.048054" lon="-114.643787"><ele>2767.0</ele></trkpt>
      <trkpt lat="44.047883" lon="-114.643818"><ele>2769.2</ele></trkpt>
      <trkpt lat="44.047751" lon="-114.643712"><ele>2770.5</ele></trkpt>
      <trkpt lat="44.047662" lon="-114.643546"><ele>2771.2</ele></trkpt>
      <trkpt lat="44.047550" lon="-114.643411"><ele>2772.5</ele></trkpt>
      <trkpt lat="44.047380" lon="-114.643114"><ele>2776.0</ele></trkpt>
      <trkpt lat="44.047326" lon="-114.642927"><ele>2777.8</ele></trkpt>
      <trkpt lat="44.047364" lon="-114.642658"><ele>2777.2</ele></trkpt>
      <trkpt lat="44.047385" lon="-114.642385"><ele>2777.0</ele></trkpt>
      <trkpt lat="44.047342" lon="-114.642158"><ele>2778.0</ele></trkpt>
      <trkpt lat="44.047230" lon="-114.641844"><ele>2781.8</ele></trkpt>
      <trkpt lat="44.047285" lon="-114.641323"><ele>2783.0</ele></trkpt>
      <trkpt lat="44.047392" lon="-114.641008"><ele>2782.0</ele></trkpt>
      <trkpt lat="44.047570" lon="-114.640116"><ele>2790.2</ele></trkpt>
      <trkpt lat="44.047649" lon="-114.639610"><ele>2797.2</ele></trkpt>
      <trkpt lat="44.047869" lon="-114.639528"><ele>2798.2</ele></trkpt>
      <trkpt lat="44.048103" lon="-114.639537"><ele>2797.8</ele></trkpt>
      <trkpt lat="44.048276" lon="-114.639523"><ele>2797.8</ele></trkpt>
      <trkpt lat="44.048363" lon="-114.639459"><ele>2798.5</ele></trkpt>
      <trkpt lat="44.048484" lon="-114.639317"><ele>2800.5</ele></trkpt>
      <trkpt lat="44.048559" lon="-114.639008"><ele>2804.2</ele></trkpt>
      <trkpt lat="44.048531" lon="-114.638815"><ele>2807.0</ele></trkpt>
      <trkpt lat="44.048436" lon="-114.638563"><ele>2810.2</ele></trkpt>
      <trkpt lat="44.048346" lon="-114.638399"><ele>2812.0</ele></trkpt>
      <trkpt lat="44.048324" lon="-114.638316"><ele>2813.2</ele></trkpt>
      <trkpt lat="44.048376" lon="-114.638222"><ele>2814.5</ele></trkpt>
      <trkpt lat="44.048463" lon="-114.638150"><ele>2815.8</ele></trkpt>
      <trkpt lat="44.048523" lon="-114.638077"><ele>2817.2</ele></trkpt>
      <trkpt lat="44.048403" lon="-114.637737"><ele>2820.8</ele></trkpt>
      <trkpt lat="44.048274" lon="-114.637471"><ele>2823.8</ele></trkpt>
      <trkpt lat="44.048236" lon="-114.637249"><ele>2827.0</ele></trkpt>
      <trkpt lat="44.048209" lon="-114.637013"><ele>2830.0</ele></trkpt>
      <trkpt lat="44.048164" lon="-114.636707"><ele>2834.0</ele></trkpt>
      <trkpt lat="44.048097" lon="-114.636294"><ele>2839.0</ele></trkpt>
      <trkpt lat="44.048062" lon="-114.635953"><ele>2843.0</ele></trkpt>
      <trkpt lat="44.048000" lon="-114.635658"><ele>2845.2</ele></trkpt>
      <trkpt lat="44.047788" lon="-114.635202"><ele>2848.0</ele></trkpt>
      <trkpt lat="44.047503" lon="-114.634861"><ele>2849.5</ele></trkpt>
      <trkpt lat="44.047339" lon="-114.634773"><ele>2850.2</ele></trkpt>
      <trkpt lat="44.047231" lon="-114.634792"><ele>2851.0</ele></trkpt>
      <trkpt lat="44.046977" lon="-114.634872"><ele>2852.2</ele></trkpt>
      <trkpt lat="44.046687" lon="-114.634891"><ele>2854.0</ele></trkpt>
      <trkpt lat="44.046541" lon="-114.634884"><ele>2854.8</ele></trkpt>
      <trkpt lat="44.046395" lon="-114.634798"><ele>2855.8</ele></trkpt>
      <trkpt lat="44.045887" lon="-114.634540"><ele>2859.8</ele></trkpt>
      <trkpt lat="44.045855" lon="-114.634477"><ele>2860.2</ele></trkpt>
      <trkpt lat="44.045694" lon="-114.634404"><ele>2860.8</ele></trkpt>
      <trkpt lat="44.045545" lon="-114.634259"><ele>2861.2</ele></trkpt>
      <trkpt lat="44.045441" lon="-114.634247"><ele>2861.5</ele></trkpt>
      <trkpt lat="44.045268" lon="-114.634161"><ele>2862.0</ele></trkpt>
      <trkpt lat="44.045082" lon="-114.634088"><ele>2862.2</ele></trkpt>
      <trkpt lat="44.044743" lon="-114.633855"><ele>2863.5</ele></trkpt>
      <trkpt lat="44.044548" lon="-114.633803"><ele>2863.2</ele></trkpt>
      <trkpt lat="44.044481" lon="-114.633759"><ele>2863.2</ele></trkpt>
      <trkpt lat="44.044404" lon="-114.633612"><ele>2862.8</ele></trkpt>
      <trkpt lat="44.044256" lon="-114.633491"><ele>2862.0</ele></trkpt>
      <trkpt lat="44.044196" lon="-114.633463"><ele>2861.5</ele></trkpt>
      <trkpt lat="44.044029" lon="-114.633493"><ele>2861.5</ele></trkpt>
      <trkpt lat="44.043915" lon="-114.633493"><ele>2861.8</ele></trkpt>
      <trkpt lat="44.043751" lon="-114.633439"><ele>2861.8</ele></trkpt>
      <trkpt lat="44.043560" lon="-114.633404"><ele>2861.8</ele></trkpt>
      <trkpt lat="44.043356" lon="-114.633336"><ele>2861.8</ele></trkpt>
      <trkpt lat="44.042982" lon="-114.633185"><ele>2864.2</ele></trkpt>
      <trkpt lat="44.042866" lon="-114.633117"><ele>2864.8</ele></trkpt>
      <trkpt lat="44.042777" lon="-114.632991"><ele>2865.2</ele></trkpt>
      <trkpt lat="44.042624" lon="-114.632834"><ele>2866.8</ele></trkpt>
      <trkpt lat="44.042777" lon="-114.632991"><ele>2865.2</ele></trkpt>
      <trkpt lat="44.042866" lon="-114.633117"><ele>2864.8</ele></trkpt>
      <trkpt lat="44.042982" lon="-114.633185"><ele>2864.2</ele></trkpt>
      <trkpt lat="44.043356" lon="-114.633336"><ele>2861.8</ele></trkpt>
      <trkpt lat="44.043560" lon="-114.633404"><ele>2861.8</ele></trkpt>
      <trkpt lat="44.043751" lon="-114.633439"><ele>2861.8</ele></trkpt>
      <trkpt lat="44.043915" lon="-114.633493"><ele>2861.8</ele></trkpt>
      <trkpt lat="44.044029" lon="-114.633493"><ele>2861.5</ele></trkpt>
      <trkpt lat="44.044196" lon="-114.633463"><ele>2861.5</ele></trkpt>
      <trkpt lat="44.044256" lon="-114.633491"><ele>2862.0</ele></trkpt>
      <trkpt lat="44.044404" lon="-114.633612"><ele>2862.8</ele></trkpt>
      <trkpt lat="44.044481" lon="-114.633759"><ele>2863.2</ele></trkpt>
      <trkpt lat="44.044548" lon="-114.633803"><ele>2863.2</ele></trkpt>
      <trkpt lat="44.044743" lon="-114.633855"><ele>2863.5</ele></trkpt>
      <trkpt lat="44.045082" lon="-114.634088"><ele>2862.2</ele></trkpt>
      <trkpt lat="44.045268" lon="-114.634161"><ele>2862.0</ele></trkpt>
      <trkpt lat="44.045441" lon="-114.634247"><ele>2861.5</ele></trkpt>
      <trkpt lat="44.045377" lon="-114.633896"><ele>2863.2</ele></trkpt>
      <trkpt lat="44.045387" lon="-114.633781"><ele>2863.8</ele></trkpt>
      <trkpt lat="44.045330" lon="-114.633645"><ele>2864.5</ele></trkpt>
      <trkpt lat="44.045314" lon="-114.633549"><ele>2865.0</ele></trkpt>
      <trkpt lat="44.045375" lon="-114.633372"><ele>2865.8</ele></trkpt>
      <trkpt lat="44.045381" lon="-114.633257"><ele>2866.2</ele></trkpt>
      <trkpt lat="44.045429" lon="-114.632926"><ele>2867.8</ele></trkpt>
      <trkpt lat="44.045451" lon="-114.632714"><ele>2869.0</ele></trkpt>
      <trkpt lat="44.045418" lon="-114.632480"><ele>2870.0</ele></trkpt>
      <trkpt lat="44.045289" lon="-114.632155"><ele>2869.2</ele></trkpt>
      <trkpt lat="44.045297" lon="-114.632036"><ele>2869.2</ele></trkpt>
      <trkpt lat="44.045350" lon="-114.631776"><ele>2869.5</ele></trkpt>
      <trkpt lat="44.045399" lon="-114.631695"><ele>2869.8</ele></trkpt>
      <trkpt lat="44.045707" lon="-114.631387"><ele>2872.5</ele></trkpt>
      <trkpt lat="44.045773" lon="-114.631265"><ele>2873.2</ele></trkpt>
      <trkpt lat="44.045890" lon="-114.630967"><ele>2875.2</ele></trkpt>
      <trkpt lat="44.046098" lon="-114.630507"><ele>2880.0</ele></trkpt>
      <trkpt lat="44.046193" lon="-114.630243"><ele>2882.8</ele></trkpt>
      <trkpt lat="44.046239" lon="-114.630043"><ele>2884.5</ele></trkpt>
      <trkpt lat="44.046277" lon="-114.629838"><ele>2887.8</ele></trkpt>
      <trkpt lat="44.046371" lon="-114.629675"><ele>2891.8</ele></trkpt>
      <trkpt lat="44.046427" lon="-114.629314"><ele>2898.2</ele></trkpt>
      <trkpt lat="44.046538" lon="-114.629245"><ele>2901.8</ele></trkpt>
      <trkpt lat="44.046617" lon="-114.629240"><ele>2903.5</ele></trkpt>
      <trkpt lat="44.046823" lon="-114.629337"><ele>2907.5</ele></trkpt>
      <trkpt lat="44.046900" lon="-114.629256"><ele>2911.2</ele></trkpt>
      <trkpt lat="44.046903" lon="-114.629149"><ele>2913.2</ele></trkpt>
      <trkpt lat="44.046884" lon="-114.629050"><ele>2915.0</ele></trkpt>
      <trkpt lat="44.046894" lon="-114.628990"><ele>2916.8</ele></trkpt>
      <trkpt lat="44.046943" lon="-114.628958"><ele>2919.0</ele></trkpt>
      <trkpt lat="44.047052" lon="-114.628926"><ele>2923.0</ele></trkpt>
      <trkpt lat="44.047228" lon="-114.629006"><ele>2926.5</ele></trkpt>
      <trkpt lat="44.047470" lon="-114.629195"><ele>2929.2</ele></trkpt>
      <trkpt lat="44.047649" lon="-114.629363"><ele>2930.8</ele></trkpt>
      <trkpt lat="44.047841" lon="-114.629487"><ele>2934.0</ele></trkpt>
      <trkpt lat="44.047991" lon="-114.629489"><ele>2939.0</ele></trkpt>
      <trkpt lat="44.048183" lon="-114.629450"><ele>2946.2</ele></trkpt>
      <trkpt lat="44.048286" lon="-114.629445"><ele>2949.8</ele></trkpt>
      <trkpt lat="44.048357" lon="-114.629490"><ele>2951.0</ele></trkpt>
      <trkpt lat="44.048482" lon="-114.629754"><ele>2949.5</ele></trkpt>
      <trkpt lat="44.048757" lon="-114.629970"><ele>2953.0</ele></trkpt>
      <trkpt lat="44.048875" lon="-114.630007"><ele>2955.5</ele></trkpt>
      <trkpt lat="44.049059" lon="-114.630208"><ele>2957.8</ele></trkpt>
      <trkpt lat="44.049459" lon="-114.630546"><ele>2962.0</ele></trkpt>
      <trkpt lat="44.049636" lon="-114.630666"><ele>2964.2</ele></trkpt>
      <trkpt lat="44.049804" lon="-114.630719"><ele>2966.8</ele></trkpt>
      <trkpt lat="44.050004" lon="-114.630763"><ele>2970.2</ele></trkpt>
      <trkpt lat="44.050027" lon="-114.630806"><ele>2971.0</ele></trkpt>
      <trkpt lat="44.050043" lon="-114.630871"><ele>2971.8</ele></trkpt>
      <trkpt lat="44.050109" lon="-114.631026"><ele>2974.5</ele></trkpt>
      <trkpt lat="44.050141" lon="-114.631158"><ele>2975.8</ele></trkpt>
      <trkpt lat="44.050125" lon="-114.631223"><ele>2975.0</ele></trkpt>
      <trkpt lat="44.050157" lon="-114.631310"><ele>2976.5</ele></trkpt>
      <trkpt lat="44.050223" lon="-114.631578"><ele>2979.2</ele></trkpt>
      <trkpt lat="44.050217" lon="-114.631816"><ele>2979.5</ele></trkpt>
      <trkpt lat="44.050241" lon="-114.632032"><ele>2981.5</ele></trkpt>
      <trkpt lat="44.050315" lon="-114.632259"><ele>2985.8</ele></trkpt>
      <trkpt lat="44.050375" lon="-114.632520"><ele>2989.2</ele></trkpt>
      <trkpt lat="44.050392" lon="-114.632784"><ele>2989.8</ele></trkpt>
      <trkpt lat="44.050416" lon="-114.632961"><ele>2990.5</ele></trkpt>
      <trkpt lat="44.050473" lon="-114.633182"><ele>2993.0</ele></trkpt>
      <trkpt lat="44.050556" lon="-114.633373"><ele>2996.8</ele></trkpt>
      <trkpt lat="44.050613" lon="-114.633587"><ele>2998.8</ele></trkpt>
      <trkpt lat="44.050863" lon="-114.634303"><ele>3008.8</ele></trkpt>
      <trkpt lat="44.051038" lon="-114.634497"><ele>3013.5</ele></trkpt>
      <trkpt lat="44.051122" lon="-114.634602"><ele>3016.0</ele></trkpt>
      <trkpt lat="44.051299" lon="-114.634862"><ele>3021.0</ele></trkpt>
      <trkpt lat="44.051478" lon="-114.635281"><ele>3024.0</ele></trkpt>
      <trkpt lat="44.051558" lon="-114.635504"><ele>3024.8</ele></trkpt>
      <trkpt lat="44.051571" lon="-114.635619"><ele>3023.8</ele></trkpt>
      <trkpt lat="44.051642" lon="-114.635719"><ele>3026.2</ele></trkpt>
      <trkpt lat="44.051739" lon="-114.635917"><ele>3024.5</ele></trkpt>
      <trkpt lat="44.051827" lon="-114.636075"><ele>3021.5</ele></trkpt>
      <trkpt lat="44.051927" lon="-114.636236"><ele>3019.0</ele></trkpt>
      <trkpt lat="44.051967" lon="-114.636334"><ele>3017.0</ele></trkpt>
      <trkpt lat="44.052060" lon="-114.636332"><ele>3019.0</ele></trkpt>
      <trkpt lat="44.052300" lon="-114.636591"><ele>3017.8</ele></trkpt>
      <trkpt lat="44.052418" lon="-114.636647"><ele>3019.2</ele></trkpt>
      <trkpt lat="44.052434" lon="-114.636591"><ele>3021.0</ele></trkpt>
      <trkpt lat="44.052308" lon="-114.634717"><ele>3047.0</ele></trkpt>
      <trkpt lat="44.052411" lon="-114.632786"><ele>3081.2</ele></trkpt>
      <trkpt lat="44.051939" lon="-114.629552"><ele>3062.8</ele></trkpt>
      <trkpt lat="44.051793" lon="-114.627300"><ele>3071.8</ele></trkpt>
      <trkpt lat="44.051722" lon="-114.627135"><ele>3078.5</ele></trkpt>
      <trkpt lat="44.051793" lon="-114.627300"><ele>3071.8</ele></trkpt>
      <trkpt lat="44.051939" lon="-114.629552"><ele>3062.8</ele></trkpt>
      <trkpt lat="44.052411" lon="-114.632786"><ele>3081.2</ele></trkpt>
      <trkpt lat="44.052308" lon="-114.634717"><ele>3047.0</ele></trkpt>
      <trkpt lat="44.052434" lon="-114.636591"><ele>3021.0</ele></trkpt>
      <trkpt lat="44.052596" lon="-114.637337"><ele>3008.5</ele></trkpt>
      <trkpt lat="44.052826" lon="-114.638073"><ele>2996.8</ele></trkpt>
      <trkpt lat="44.052964" lon="-114.638257"><ele>2997.5</ele></trkpt>
      <trkpt lat="44.053104" lon="-114.638408"><ele>2999.2</ele></trkpt>
      <trkpt lat="44.053187" lon="-114.638626"><ele>3000.5</ele></trkpt>
      <trkpt lat="44.053236" lon="-114.638730"><ele>3002.2</ele></trkpt>
      <trkpt lat="44.053346" lon="-114.638928"><ele>3006.5</ele></trkpt>
      <trkpt lat="44.053478" lon="-114.639062"><ele>3005.5</ele></trkpt>
      <trkpt lat="44.053597" lon="-114.639114"><ele>3004.8</ele></trkpt>
      <trkpt lat="44.053635" lon="-114.639085"><ele>3003.5</ele></trkpt>
      <trkpt lat="44.053644" lon="-114.639011"><ele>3001.5</ele></trkpt>
      <trkpt lat="44.053644" lon="-114.638923"><ele>2999.5</ele></trkpt>
      <trkpt lat="44.053651" lon="-114.638909"><ele>2999.2</ele></trkpt>
      <trkpt lat="44.053687" lon="-114.638975"><ele>3000.0</ele></trkpt>
      <trkpt lat="44.053895" lon="-114.639131"><ele>3001.0</ele></trkpt>
      <trkpt lat="44.053902" lon="-114.639103"><ele>2999.8</ele></trkpt>
      <trkpt lat="44.053780" lon="-114.638840"><ele>2994.0</ele></trkpt>
      <trkpt lat="44.053790" lon="-114.638830"><ele>2993.5</ele></trkpt>
      <trkpt lat="44.054084" lon="-114.638900"><ele>2988.5</ele></trkpt>
      <trkpt lat="44.054214" lon="-114.638897"><ele>2984.2</ele></trkpt>
      <trkpt lat="44.054352" lon="-114.638988"><ele>2982.8</ele></trkpt>
      <trkpt lat="44.054434" lon="-114.639005"><ele>2980.0</ele></trkpt>
      <trkpt lat="44.054570" lon="-114.639120"><ele>2978.8</ele></trkpt>
      <trkpt lat="44.055165" lon="-114.639367"><ele>2960.5</ele></trkpt>
      <trkpt lat="44.055319" lon="-114.639441"><ele>2956.2</ele></trkpt>
      <trkpt lat="44.055440" lon="-114.639511"><ele>2953.0</ele></trkpt>
      <trkpt lat="44.055513" lon="-114.639570"><ele>2951.2</ele></trkpt>
      <trkpt lat="44.055432" lon="-114.639220"><ele>2945.8</ele></trkpt>
      <trkpt lat="44.055402" lon="-114.639162"><ele>2945.2</ele></trkpt>
      <trkpt lat="44.055400" lon="-114.639142"><ele>2945.0</ele></trkpt>
      <trkpt lat="44.055465" lon="-114.639129"><ele>2942.2</ele></trkpt>
      <trkpt lat="44.055585" lon="-114.639168"><ele>2938.5</ele></trkpt>
      <trkpt lat="44.055600" lon="-114.639132"><ele>2937.2</ele></trkpt>
      <trkpt lat="44.055605" lon="-114.639025"><ele>2935.5</ele></trkpt>
      <trkpt lat="44.055574" lon="-114.638849"><ele>2933.5</ele></trkpt>
      <trkpt lat="44.055642" lon="-114.638766"><ele>2930.2</ele></trkpt>
      <trkpt lat="44.055650" lon="-114.638675"><ele>2928.8</ele></trkpt>
      <trkpt lat="44.055650" lon="-114.638555"><ele>2927.0</ele></trkpt>
      <trkpt lat="44.055635" lon="-114.638350"><ele>2924.2</ele></trkpt>
      <trkpt lat="44.055654" lon="-114.638170"><ele>2922.5</ele></trkpt>
      <trkpt lat="44.055645" lon="-114.637989"><ele>2921.5</ele></trkpt>
      <trkpt lat="44.055660" lon="-114.637857"><ele>2920.5</ele></trkpt>
      <trkpt lat="44.055652" lon="-114.637686"><ele>2919.2</ele></trkpt>
      <trkpt lat="44.055666" lon="-114.637564"><ele>2918.5</ele></trkpt>
      <trkpt lat="44.055701" lon="-114.637430"><ele>2917.8</ele></trkpt>
      <trkpt lat="44.055711" lon="-114.637296"><ele>2917.2</ele></trkpt>
      <trkpt lat="44.055676" lon="-114.637114"><ele>2916.8</ele></trkpt>
      <trkpt lat="44.055666" lon="-114.636909"><ele>2916.2</ele></trkpt>
      <trkpt lat="44.055666" lon="-114.636455"><ele>2916.0</ele></trkpt>
      <trkpt lat="44.055675" lon="-114.636145"><ele>2917.0</ele></trkpt>
      <trkpt lat="44.055706" lon="-114.635941"><ele>2917.2</ele></trkpt>
      <trkpt lat="44.055697" lon="-114.635805"><ele>2917.8</ele></trkpt>
      <trkpt lat="44.055651" lon="-114.635706"><ele>2918.0</ele></trkpt>
      <trkpt lat="44.055619" lon="-114.635563"><ele>2918.2</ele></trkpt>
      <trkpt lat="44.055564" lon="-114.635430"><ele>2918.8</ele></trkpt>
      <trkpt lat="44.055538" lon="-114.635289"><ele>2919.0</ele></trkpt>
      <trkpt lat="44.055514" lon="-114.635198"><ele>2919.2</ele></trkpt>
      <trkpt lat="44.055532" lon="-114.635058"><ele>2919.0</ele></trkpt>
      <trkpt lat="44.055617" lon="-114.634860"><ele>2916.8</ele></trkpt>
      <trkpt lat="44.055690" lon="-114.634757"><ele>2914.5</ele></trkpt>
      <trkpt lat="44.055749" lon="-114.634562"><ele>2911.0</ele></trkpt>
      <trkpt lat="44.055741" lon="-114.634342"><ele>2908.5</ele></trkpt>
      <trkpt lat="44.055717" lon="-114.634234"><ele>2907.8</ele></trkpt>
      <trkpt lat="44.055530" lon="-114.633978"><ele>2907.5</ele></trkpt>
      <trkpt lat="44.055457" lon="-114.633769"><ele>2905.0</ele></trkpt>
      <trkpt lat="44.055402" lon="-114.633645"><ele>2903.8</ele></trkpt>
      <trkpt lat="44.055419" lon="-114.633596"><ele>2902.2</ele></trkpt>
      <trkpt lat="44.055504" lon="-114.633525"><ele>2898.2</ele></trkpt>
      <trkpt lat="44.055758" lon="-114.633214"><ele>2884.5</ele></trkpt>
      <trkpt lat="44.055827" lon="-114.633141"><ele>2881.0</ele></trkpt>
      <trkpt lat="44.055826" lon="-114.633023"><ele>2879.2</ele></trkpt>
      <trkpt lat="44.055839" lon="-114.632811"><ele>2875.5</ele></trkpt>
      <trkpt lat="44.055861" lon="-114.632567"><ele>2871.2</ele></trkpt>
      <trkpt lat="44.055888" lon="-114.632411"><ele>2868.2</ele></trkpt>
      <trkpt lat="44.055929" lon="-114.632411"><ele>2867.2</ele></trkpt>
      <trkpt lat="44.055938" lon="-114.632336"><ele>2866.0</ele></trkpt>
      <trkpt lat="44.056027" lon="-114.632242"><ele>2862.2</ele></trkpt>
      <trkpt lat="44.056075" lon="-114.632114"><ele>2859.5</ele></trkpt>
      <trkpt lat="44.056087" lon="-114.631972"><ele>2857.5</ele></trkpt>
      <trkpt lat="44.056087" lon="-114.631848"><ele>2856.0</ele></trkpt>
      <trkpt lat="44.056024" lon="-114.631669"><ele>2856.0</ele></trkpt>
      <trkpt lat="44.055972" lon="-114.631480"><ele>2856.8</ele></trkpt>
      <trkpt lat="44.055964" lon="-114.631236"><ele>2856.2</ele></trkpt>
      <trkpt lat="44.055999" lon="-114.630742"><ele>2853.5</ele></trkpt>
      <trkpt lat="44.055970" lon="-114.630466"><ele>2854.5</ele></trkpt>
      <trkpt lat="44.055929" lon="-114.630266"><ele>2856.0</ele></trkpt>
      <trkpt lat="44.055950" lon="-114.630045"><ele>2855.5</ele></trkpt>
      <trkpt lat="44.055923" lon="-114.629726"><ele>2854.0</ele></trkpt>
      <trkpt lat="44.055884" lon="-114.629472"><ele>2853.0</ele></trkpt>
      <trkpt lat="44.055827" lon="-114.629313"><ele>2853.5</ele></trkpt>
      <trkpt lat="44.055808" lon="-114.629185"><ele>2853.0</ele></trkpt>
      <trkpt lat="44.055731" lon="-114.629030"><ele>2854.5</ele></trkpt>
      <trkpt lat="44.055653" lon="-114.628939"><ele>2856.8</ele></trkpt>
      <trkpt lat="44.055605" lon="-114.628917"><ele>2858.2</ele></trkpt>
      <trkpt lat="44.055593" lon="-114.628843"><ele>2858.2</ele></trkpt>
      <trkpt lat="44.055611" lon="-114.628510"><ele>2855.2</ele></trkpt>
      <trkpt lat="44.055767" lon="-114.627833"><ele>2845.5</ele></trkpt>
      <trkpt lat="44.055834" lon="-114.627364"><ele>2842.8</ele></trkpt>
      <trkpt lat="44.055840" lon="-114.627053"><ele>2844.5</ele></trkpt>
      <trkpt lat="44.055828" lon="-114.626721"><ele>2846.8</ele></trkpt>
      <trkpt lat="44.055849" lon="-114.626530"><ele>2847.5</ele></trkpt>
      <trkpt lat="44.055929" lon="-114.626209"><ele>2849.2</ele></trkpt>
      <trkpt lat="44.055932" lon="-114.625935"><ele>2851.0</ele></trkpt>
      <trkpt lat="44.055915" lon="-114.625819"><ele>2851.8</ele></trkpt>
      <trkpt lat="44.055944" lon="-114.625719"><ele>2853.0</ele></trkpt>
      <trkpt lat="44.055973" lon="-114.625496"><ele>2855.5</ele></trkpt>
      <trkpt lat="44.056042" lon="-114.625284"><ele>2858.0</ele></trkpt>
      <trkpt lat="44.056005" lon="-114.625083"><ele>2860.5</ele></trkpt>
      <trkpt lat="44.056005" lon="-114.624989"><ele>2861.5</ele></trkpt>
      <trkpt lat="44.055997" lon="-114.624821"><ele>2863.0</ele></trkpt>
      <trkpt lat="44.055930" lon="-114.624565"><ele>2865.2</ele></trkpt>
      <trkpt lat="44.055904" lon="-114.624410"><ele>2866.8</ele></trkpt>
      <trkpt lat="44.055994" lon="-114.624162"><ele>2868.5</ele></trkpt>
      <trkpt lat="44.056016" lon="-114.623902"><ele>2870.2</ele></trkpt>
      <trkpt lat="44.056107" lon="-114.623236"><ele>2875.2</ele></trkpt>
      <trkpt lat="44.056202" lon="-114.622967"><ele>2877.5</ele></trkpt>
      <trkpt lat="44.056216" lon="-114.622723"><ele>2879.5</ele></trkpt>
      <trkpt lat="44.056282" lon="-114.622534"><ele>2880.8</ele></trkpt>
      <trkpt lat="44.056387" lon="-114.622286"><ele>2882.2</ele></trkpt>
      <trkpt lat="44.056487" lon="-114.621959"><ele>2883.2</ele></trkpt>
      <trkpt lat="44.056532" lon="-114.621752"><ele>2883.5</ele></trkpt>
      <trkpt lat="44.056523" lon="-114.621550"><ele>2885.8</ele></trkpt>
      <trkpt lat="44.056512" lon="-114.621500"><ele>2886.8</ele></trkpt>
      <trkpt lat="44.056621" lon="-114.621121"><ele>2888.0</ele></trkpt>
      <trkpt lat="44.056655" lon="-114.620430"><ele>2889.0</ele></trkpt>
      <trkpt lat="44.056642" lon="-114.620235"><ele>2888.8</ele></trkpt>
      <trkpt lat="44.056524" lon="-114.619662"><ele>2890.2</ele></trkpt>
      <trkpt lat="44.056511" lon="-114.619528"><ele>2889.8</ele></trkpt>
      <trkpt lat="44.056542" lon="-114.619376"><ele>2887.8</ele></trkpt>
      <trkpt lat="44.056579" lon="-114.619269"><ele>2886.0</ele></trkpt>
      <trkpt lat="44.056638" lon="-114.619098"><ele>2883.2</ele></trkpt>
      <trkpt lat="44.056681" lon="-114.619010"><ele>2882.0</ele></trkpt>
      <trkpt lat="44.056783" lon="-114.618940"><ele>2881.8</ele></trkpt>
      <trkpt lat="44.056899" lon="-114.618927"><ele>2881.8</ele></trkpt>
      <trkpt lat="44.057019" lon="-114.618969"><ele>2882.2</ele></trkpt>
      <trkpt lat="44.057237" lon="-114.619220"><ele>2882.8</ele></trkpt>
      <trkpt lat="44.057300" lon="-114.619266"><ele>2882.8</ele></trkpt>
      <trkpt lat="44.057367" lon="-114.619286"><ele>2882.8</ele></trkpt>
      <trkpt lat="44.057434" lon="-114.619269"><ele>2882.8</ele></trkpt>
      <trkpt lat="44.057680" lon="-114.619088"><ele>2883.2</ele></trkpt>
      <trkpt lat="44.058002" lon="-114.618932"><ele>2884.0</ele></trkpt>
      <trkpt lat="44.058163" lon="-114.618849"><ele>2884.5</ele></trkpt>
      <trkpt lat="44.058240" lon="-114.618830"><ele>2884.8</ele></trkpt>
      <trkpt lat="44.058436" lon="-114.618856"><ele>2885.0</ele></trkpt>
      <trkpt lat="44.058563" lon="-114.618905"><ele>2884.8</ele></trkpt>
      <trkpt lat="44.058689" lon="-114.618997"><ele>2884.5</ele></trkpt>
      <trkpt lat="44.058764" lon="-114.619022"><ele>2884.5</ele></trkpt>
      <trkpt lat="44.058928" lon="-114.619009"><ele>2884.5</ele></trkpt>
      <trkpt lat="44.059095" lon="-114.619028"><ele>2884.2</ele></trkpt>
      <trkpt lat="44.059050" lon="-114.619800"><ele>2878.6</ele></trkpt>
      <trkpt lat="44.059355" lon="-114.619175"><ele>2878.4</ele></trkpt>
      <trkpt lat="44.059660" lon="-114.618549"><ele>2878.5</ele></trkpt>
      <trkpt lat="44.059965" lon="-114.617924"><ele>2879.6</ele></trkpt>
      <trkpt lat="44.060269" lon="-114.617298"><ele>2889.9</ele></trkpt>
      <trkpt lat="44.060574" lon="-114.616673"><ele>2898.9</ele></trkpt>
      <trkpt lat="44.060879" lon="-114.616048"><ele>2909.0</ele></trkpt>
      <trkpt lat="44.061184" lon="-114.615422"><ele>2917.8</ele></trkpt>
      <trkpt lat="44.061489" lon="-114.614797"><ele>2919.3</ele></trkpt>
      <trkpt lat="44.061794" lon="-114.614171"><ele>2923.9</ele></trkpt>
      <trkpt lat="44.062099" lon="-114.613546"><ele>2924.9</ele></trkpt>
      <trkpt lat="44.062404" lon="-114.612921"><ele>2944.0</ele></trkpt>
      <trkpt lat="44.062708" lon="-114.612295"><ele>2954.0</ele></trkpt>
      <trkpt lat="44.063013" lon="-114.611670"><ele>2964.3</ele></trkpt>
      <trkpt lat="44.063318" lon="-114.611044"><ele>2983.8</ele></trkpt>
      <trkpt lat="44.063623" lon="-114.610419"><ele>3013.4</ele></trkpt>
      <trkpt lat="44.063928" lon="-114.609794"><ele>3050.0</ele></trkpt>
      <trkpt lat="44.064233" lon="-114.609168"><ele>3100.9</ele></trkpt>
      <trkpt lat="44.064538" lon="-114.608543"><ele>3143.2</ele></trkpt>
      <trkpt lat="44.064842" lon="-114.607917"><ele>3156.5</ele></trkpt>
      <trkpt lat="44.065147" lon="-114.607292"><ele>3119.7</ele></trkpt>
      <trkpt lat="44.065452" lon="-114.606666"><ele>3101.1</ele></trkpt>
      <trkpt lat="44.065757" lon="-114.606041"><ele>3098.9</ele></trkpt>
      <trkpt lat="44.066062" lon="-114.605416"><ele>3099.5</ele></trkpt>
      <trkpt lat="44.066367" lon="-114.604790"><ele>3101.3</ele></trkpt>
      <trkpt lat="44.066672" lon="-114.604165"><ele>3096.4</ele></trkpt>
      <trkpt lat="44.066976" lon="-114.603539"><ele>3092.5</ele></trkpt>
      <trkpt lat="44.067281" lon="-114.602914"><ele>3095.4</ele></trkpt>
      <trkpt lat="44.067586" lon="-114.602289"><ele>3094.4</ele></trkpt>
      <trkpt lat="44.067891" lon="-114.601663"><ele>3095.0</ele></trkpt>
      <trkpt lat="44.068196" lon="-114.601038"><ele>3098.3</ele></trkpt>
      <trkpt lat="44.068501" lon="-114.600412"><ele>3113.0</ele></trkpt>
      <trkpt lat="44.068806" lon="-114.599787"><ele>3139.7</ele></trkpt>
      <trkpt lat="44.069111" lon="-114.599162"><ele>3161.5</ele></trkpt>
      <trkpt lat="44.069415" lon="-114.598536"><ele>3167.0</ele></trkpt>
      <trkpt lat="44.069720" lon="-114.597911"><ele>3136.7</ele></trkpt>
      <trkpt lat="44.070025" lon="-114.597285"><ele>3093.1</ele></trkpt>
      <trkpt lat="44.070330" lon="-114.596660"><ele>3060.9</ele></trkpt>
      <trkpt lat="44.070330" lon="-114.596655"><ele>3054.5</ele></trkpt>
      <trkpt lat="44.070334" lon="-114.596656"><ele>3054.5</ele></trkpt>
      <trkpt lat="44.070357" lon="-114.596530"><ele>3053.0</ele></trkpt>
      <trkpt lat="44.070371" lon="-114.596388"><ele>3051.8</ele></trkpt>
      <trkpt lat="44.070423" lon="-114.596230"><ele>3049.0</ele></trkpt>
      <trkpt lat="44.070521" lon="-114.595983"><ele>3044.0</ele></trkpt>
      <trkpt lat="44.070631" lon="-114.595765"><ele>3040.2</ele></trkpt>
      <trkpt lat="44.070652" lon="-114.595800"><ele>3039.0</ele></trkpt>
      <trkpt lat="44.070629" lon="-114.595921"><ele>3039.5</ele></trkpt>
      <trkpt lat="44.070644" lon="-114.595991"><ele>3039.0</ele></trkpt>
      <trkpt lat="44.070679" lon="-114.595953"><ele>3037.5</ele></trkpt>
      <trkpt lat="44.070756" lon="-114.595798"><ele>3034.8</ele></trkpt>
      <trkpt lat="44.070785" lon="-114.595787"><ele>3034.0</ele></trkpt>
      <trkpt lat="44.070783" lon="-114.595865"><ele>3033.0</ele></trkpt>
      <trkpt lat="44.070748" lon="-114.595943"><ele>3034.8</ele></trkpt>
      <trkpt lat="44.070710" lon="-114.596082"><ele>3036.5</ele></trkpt>
      <trkpt lat="44.070725" lon="-114.596227"><ele>3036.2</ele></trkpt>
      <trkpt lat="44.070791" lon="-114.596195"><ele>3033.5</ele></trkpt>
      <trkpt lat="44.070847" lon="-114.595972"><ele>3030.2</ele></trkpt>
      <trkpt lat="44.070926" lon="-114.595814"><ele>3025.5</ele></trkpt>
      <trkpt lat="44.070995" lon="-114.595634"><ele>3025.0</ele></trkpt>
      <trkpt lat="44.071043" lon="-114.595564"><ele>3023.5</ele></trkpt>
      <trkpt lat="44.071089" lon="-114.595599"><ele>3019.5</ele></trkpt>
      <trkpt lat="44.071064" lon="-114.595749"><ele>3018.0</ele></trkpt>
      <trkpt lat="44.071026" lon="-114.595916"><ele>3019.0</ele></trkpt>
      <trkpt lat="44.071035" lon="-114.596122"><ele>3019.2</ele></trkpt>
      <trkpt lat="44.071078" lon="-114.596136"><ele>3016.8</ele></trkpt>
      <trkpt lat="44.071165" lon="-114.595862"><ele>3010.0</ele></trkpt>
      <trkpt lat="44.071201" lon="-114.595792"><ele>3008.2</ele></trkpt>
      <trkpt lat="44.071246" lon="-114.595784"><ele>3005.5</ele></trkpt>
      <trkpt lat="44.071228" lon="-114.595910"><ele>3006.2</ele></trkpt>
      <trkpt lat="44.071220" lon="-114.596350"><ele>3009.5</ele></trkpt>
      <trkpt lat="44.071330" lon="-114.596667"><ele>3005.5</ele></trkpt>
      <trkpt lat="44.071488" lon="-114.596766"><ele>2998.8</ele></trkpt>
      <trkpt lat="44.071648" lon="-114.596903"><ele>2993.0</ele></trkpt>
      <trkpt lat="44.071806" lon="-114.597160"><ele>2992.8</ele></trkpt>
      <trkpt lat="44.071959" lon="-114.597208"><ele>2988.2</ele></trkpt>
      <trkpt lat="44.072045" lon="-114.597222"><ele>2985.5</ele></trkpt>
      <trkpt lat="44.072088" lon="-114.597074"><ele>2981.2</ele></trkpt>
      <trkpt lat="44.072111" lon="-114.596911"><ele>2977.5</ele></trkpt>
      <trkpt lat="44.072163" lon="-114.596855"><ele>2974.8</ele></trkpt>
      <trkpt lat="44.072271" lon="-114.596881"><ele>2971.8</ele></trkpt>
      <trkpt lat="44.072419" lon="-114.596935"><ele>2967.8</ele></trkpt>
      <trkpt lat="44.072552" lon="-114.596916"><ele>2964.8</ele></trkpt>
      <trkpt lat="44.072691" lon="-114.596801"><ele>2963.2</ele></trkpt>
      <trkpt lat="44.072826" lon="-114.596624"><ele>2961.2</ele></trkpt>
      <trkpt lat="44.072916" lon="-114.596423"><ele>2959.8</ele></trkpt>
      <trkpt lat="44.073097" lon="-114.595980"><ele>2956.8</ele></trkpt>
      <trkpt lat="44.073176" lon="-114.595878"><ele>2956.2</ele></trkpt>
      <trkpt lat="44.073304" lon="-114.595835"><ele>2956.8</ele></trkpt>
      <trkpt lat="44.073464" lon="-114.595639"><ele>2957.2</ele></trkpt>
      <trkpt lat="44.073562" lon="-114.595554"><ele>2958.0</ele></trkpt>
      <trkpt lat="44.073679" lon="-114.595478"><ele>2958.8</ele></trkpt>
      <trkpt lat="44.073772" lon="-114.595302"><ele>2957.8</ele></trkpt>
      <trkpt lat="44.073891" lon="-114.595143"><ele>2957.0</ele></trkpt>
      <trkpt lat="44.074038" lon="-114.595073"><ele>2957.8</ele></trkpt>
      <trkpt lat="44.074123" lon="-114.594918"><ele>2957.0</ele></trkpt>
      <trkpt lat="44.074213" lon="-114.594717"><ele>2956.5</ele></trkpt>
      <trkpt lat="44.074298" lon="-114.594556"><ele>2955.5</ele></trkpt>
      <trkpt lat="44.074313" lon="-114.594368"><ele>2953.5</ele></trkpt>
      <trkpt lat="44.074302" lon="-114.594188"><ele>2951.8</ele></trkpt>
      <trkpt lat="44.074171" lon="-114.593765"><ele>2950.5</ele></trkpt>
      <trkpt lat="44.074146" lon="-114.593609"><ele>2949.5</ele></trkpt>
      <trkpt lat="44.074167" lon="-114.593526"><ele>2949.0</ele></trkpt>
      <trkpt lat="44.074159" lon="-114.593475"><ele>2948.8</ele></trkpt>
      <trkpt lat="44.074101" lon="-114.593475"><ele>2949.0</ele></trkpt>
      <trkpt lat="44.074069" lon="-114.593384"><ele>2948.8</ele></trkpt>
      <trkpt lat="44.074073" lon="-114.593309"><ele>2949.0</ele></trkpt>
      <trkpt lat="44.074096" lon="-114.593182"><ele>2950.8</ele></trkpt>
      <trkpt lat="44.074142" lon="-114.593043"><ele>2952.2</ele></trkpt>
      <trkpt lat="44.074215" lon="-114.592914"><ele>2952.0</ele></trkpt>
      <trkpt lat="44.074402" lon="-114.592831"><ele>2945.2</ele></trkpt>
      <trkpt lat="44.074545" lon="-114.592818"><ele>2939.5</ele></trkpt>
      <trkpt lat="44.074629" lon="-114.592780"><ele>2936.0</ele></trkpt>
      <trkpt lat="44.074695" lon="-114.592651"><ele>2933.5</ele></trkpt>
      <trkpt lat="44.074832" lon="-114.592515"><ele>2927.2</ele></trkpt>
      <trkpt lat="44.074947" lon="-114.592386"><ele>2923.5</ele></trkpt>
      <trkpt lat="44.075047" lon="-114.592330"><ele>2921.2</ele></trkpt>
      <trkpt lat="44.075184" lon="-114.592212"><ele>2920.8</ele></trkpt>
      <trkpt lat="44.075346" lon="-114.591817"><ele>2922.8</ele></trkpt>
      <trkpt lat="44.075462" lon="-114.591592"><ele>2922.8</ele></trkpt>
      <trkpt lat="44.075614" lon="-114.591318"><ele>2922.2</ele></trkpt>
      <trkpt lat="44.075789" lon="-114.591219"><ele>2919.0</ele></trkpt>
      <trkpt lat="44.075855" lon="-114.591112"><ele>2919.0</ele></trkpt>
      <trkpt lat="44.076015" lon="-114.590777"><ele>2921.8</ele></trkpt>
      <trkpt lat="44.076129" lon="-114.590669"><ele>2921.5</ele></trkpt>
      <trkpt lat="44.076287" lon="-114.590557"><ele>2920.5</ele></trkpt>
      <trkpt lat="44.076487" lon="-114.590294"><ele>2919.2</ele></trkpt>
      <trkpt lat="44.076512" lon="-114.590042"><ele>2920.2</ele></trkpt>
      <trkpt lat="44.076572" lon="-114.589730"><ele>2919.2</ele></trkpt>
      <trkpt lat="44.076603" lon="-114.589355"><ele>2918.8</ele></trkpt>
      <trkpt lat="44.076672" lon="-114.588800"><ele>2915.2</ele></trkpt>
      <trkpt lat="44.076703" lon="-114.588378"><ele>2911.5</ele></trkpt>
    </trkseg>
    <trkseg>
      <!-- Sat — Headwall and Lonesome Lakes -->
      <trkpt lat="44.076703" lon="-114.588378"><ele>2912.0</ele></trkpt>
      <trkpt lat="44.076672" lon="-114.588800"><ele>2915.2</ele></trkpt>
      <trkpt lat="44.076603" lon="-114.589355"><ele>2918.8</ele></trkpt>
      <trkpt lat="44.076572" lon="-114.589730"><ele>2919.2</ele></trkpt>
      <trkpt lat="44.076512" lon="-114.590042"><ele>2920.2</ele></trkpt>
      <trkpt lat="44.076487" lon="-114.590294"><ele>2919.2</ele></trkpt>
      <trkpt lat="44.076287" lon="-114.590557"><ele>2920.5</ele></trkpt>
      <trkpt lat="44.076129" lon="-114.590669"><ele>2921.5</ele></trkpt>
      <trkpt lat="44.076015" lon="-114.590777"><ele>2921.8</ele></trkpt>
      <trkpt lat="44.075855" lon="-114.591112"><ele>2919.0</ele></trkpt>
      <trkpt lat="44.075789" lon="-114.591219"><ele>2919.0</ele></trkpt>
      <trkpt lat="44.075614" lon="-114.591318"><ele>2922.2</ele></trkpt>
      <trkpt lat="44.075462" lon="-114.591592"><ele>2922.8</ele></trkpt>
      <trkpt lat="44.075346" lon="-114.591817"><ele>2922.8</ele></trkpt>
      <trkpt lat="44.075184" lon="-114.592212"><ele>2920.8</ele></trkpt>
      <trkpt lat="44.075047" lon="-114.592330"><ele>2921.2</ele></trkpt>
      <trkpt lat="44.074947" lon="-114.592386"><ele>2923.5</ele></trkpt>
      <trkpt lat="44.074832" lon="-114.592515"><ele>2927.2</ele></trkpt>
      <trkpt lat="44.074695" lon="-114.592651"><ele>2933.5</ele></trkpt>
      <trkpt lat="44.074629" lon="-114.592780"><ele>2936.0</ele></trkpt>
      <trkpt lat="44.074545" lon="-114.592818"><ele>2939.5</ele></trkpt>
      <trkpt lat="44.074402" lon="-114.592831"><ele>2945.2</ele></trkpt>
      <trkpt lat="44.074215" lon="-114.592914"><ele>2952.0</ele></trkpt>
      <trkpt lat="44.074142" lon="-114.593043"><ele>2952.2</ele></trkpt>
      <trkpt lat="44.074096" lon="-114.593182"><ele>2950.8</ele></trkpt>
      <trkpt lat="44.074073" lon="-114.593309"><ele>2949.0</ele></trkpt>
      <trkpt lat="44.074069" lon="-114.593384"><ele>2948.8</ele></trkpt>
      <trkpt lat="44.074101" lon="-114.593475"><ele>2949.0</ele></trkpt>
      <trkpt lat="44.074159" lon="-114.593475"><ele>2948.8</ele></trkpt>
      <trkpt lat="44.074167" lon="-114.593526"><ele>2949.0</ele></trkpt>
      <trkpt lat="44.074146" lon="-114.593609"><ele>2949.5</ele></trkpt>
      <trkpt lat="44.074171" lon="-114.593765"><ele>2950.5</ele></trkpt>
      <trkpt lat="44.074302" lon="-114.594188"><ele>2951.8</ele></trkpt>
      <trkpt lat="44.074313" lon="-114.594368"><ele>2953.5</ele></trkpt>
      <trkpt lat="44.074298" lon="-114.594556"><ele>2955.5</ele></trkpt>
      <trkpt lat="44.074213" lon="-114.594717"><ele>2956.5</ele></trkpt>
      <trkpt lat="44.074123" lon="-114.594918"><ele>2957.0</ele></trkpt>
      <trkpt lat="44.074038" lon="-114.595073"><ele>2957.8</ele></trkpt>
      <trkpt lat="44.073891" lon="-114.595143"><ele>2957.0</ele></trkpt>
      <trkpt lat="44.073772" lon="-114.595302"><ele>2957.8</ele></trkpt>
      <trkpt lat="44.073679" lon="-114.595478"><ele>2958.8</ele></trkpt>
      <trkpt lat="44.073562" lon="-114.595554"><ele>2958.0</ele></trkpt>
      <trkpt lat="44.073464" lon="-114.595639"><ele>2957.2</ele></trkpt>
      <trkpt lat="44.073304" lon="-114.595835"><ele>2956.8</ele></trkpt>
      <trkpt lat="44.073176" lon="-114.595878"><ele>2956.2</ele></trkpt>
      <trkpt lat="44.073097" lon="-114.595980"><ele>2956.8</ele></trkpt>
      <trkpt lat="44.072916" lon="-114.596423"><ele>2959.8</ele></trkpt>
      <trkpt lat="44.072826" lon="-114.596624"><ele>2961.2</ele></trkpt>
      <trkpt lat="44.074310" lon="-114.598390"><ele>2974.9</ele></trkpt>
      <trkpt lat="44.074291" lon="-114.599175"><ele>2974.9</ele></trkpt>
      <trkpt lat="44.074272" lon="-114.599960"><ele>2988.7</ele></trkpt>
      <trkpt lat="44.074253" lon="-114.600745"><ele>3023.2</ele></trkpt>
      <trkpt lat="44.074234" lon="-114.601530"><ele>3060.5</ele></trkpt>
      <trkpt lat="44.074215" lon="-114.602315"><ele>3091.6</ele></trkpt>
      <trkpt lat="44.074196" lon="-114.603100"><ele>3117.8</ele></trkpt>
      <trkpt lat="44.074177" lon="-114.603885"><ele>3141.6</ele></trkpt>
      <trkpt lat="44.074158" lon="-114.604670"><ele>3171.6</ele></trkpt>
      <trkpt lat="44.074139" lon="-114.605455"><ele>3223.3</ele></trkpt>
      <trkpt lat="44.074120" lon="-114.606240"><ele>3182.1</ele></trkpt>
      <trkpt lat="44.074101" lon="-114.607025"><ele>3182.2</ele></trkpt>
      <trkpt lat="44.074120" lon="-114.606240"><ele>3182.1</ele></trkpt>
      <trkpt lat="44.074139" lon="-114.605455"><ele>3223.3</ele></trkpt>
      <trkpt lat="44.074158" lon="-114.604670"><ele>3171.6</ele></trkpt>
      <trkpt lat="44.074177" lon="-114.603885"><ele>3141.6</ele></trkpt>
      <trkpt lat="44.074196" lon="-114.603100"><ele>3117.8</ele></trkpt>
      <trkpt lat="44.074215" lon="-114.602315"><ele>3091.6</ele></trkpt>
      <trkpt lat="44.074234" lon="-114.601530"><ele>3060.5</ele></trkpt>
      <trkpt lat="44.074253" lon="-114.600745"><ele>3023.2</ele></trkpt>
      <trkpt lat="44.074272" lon="-114.599960"><ele>2988.7</ele></trkpt>
      <trkpt lat="44.074291" lon="-114.599175"><ele>2974.9</ele></trkpt>
      <trkpt lat="44.074310" lon="-114.598390"><ele>2974.9</ele></trkpt>
      <trkpt lat="44.072826" lon="-114.596624"><ele>2961.2</ele></trkpt>
      <trkpt lat="44.072916" lon="-114.596423"><ele>2959.8</ele></trkpt>
      <trkpt lat="44.073097" lon="-114.595980"><ele>2956.8</ele></trkpt>
      <trkpt lat="44.073176" lon="-114.595878"><ele>2956.2</ele></trkpt>
      <trkpt lat="44.073304" lon="-114.595835"><ele>2956.8</ele></trkpt>
      <trkpt lat="44.073464" lon="-114.595639"><ele>2957.2</ele></trkpt>
      <trkpt lat="44.073562" lon="-114.595554"><ele>2958.0</ele></trkpt>
      <trkpt lat="44.073679" lon="-114.595478"><ele>2958.8</ele></trkpt>
      <trkpt lat="44.073772" lon="-114.595302"><ele>2957.8</ele></trkpt>
      <trkpt lat="44.073891" lon="-114.595143"><ele>2957.0</ele></trkpt>
      <trkpt lat="44.074038" lon="-114.595073"><ele>2957.8</ele></trkpt>
      <trkpt lat="44.074123" lon="-114.594918"><ele>2957.0</ele></trkpt>
      <trkpt lat="44.074213" lon="-114.594717"><ele>2956.5</ele></trkpt>
      <trkpt lat="44.074298" lon="-114.594556"><ele>2955.5</ele></trkpt>
      <trkpt lat="44.074313" lon="-114.594368"><ele>2953.5</ele></trkpt>
      <trkpt lat="44.074302" lon="-114.594188"><ele>2951.8</ele></trkpt>
      <trkpt lat="44.074171" lon="-114.593765"><ele>2950.5</ele></trkpt>
      <trkpt lat="44.074146" lon="-114.593609"><ele>2949.5</ele></trkpt>
      <trkpt lat="44.074167" lon="-114.593526"><ele>2949.0</ele></trkpt>
      <trkpt lat="44.074159" lon="-114.593475"><ele>2948.8</ele></trkpt>
      <trkpt lat="44.074101" lon="-114.593475"><ele>2949.0</ele></trkpt>
      <trkpt lat="44.074069" lon="-114.593384"><ele>2948.8</ele></trkpt>
      <trkpt lat="44.074073" lon="-114.593309"><ele>2949.0</ele></trkpt>
      <trkpt lat="44.074096" lon="-114.593182"><ele>2950.8</ele></trkpt>
      <trkpt lat="44.074142" lon="-114.593043"><ele>2952.2</ele></trkpt>
      <trkpt lat="44.074215" lon="-114.592914"><ele>2952.0</ele></trkpt>
      <trkpt lat="44.074402" lon="-114.592831"><ele>2945.2</ele></trkpt>
      <trkpt lat="44.074545" lon="-114.592818"><ele>2939.5</ele></trkpt>
      <trkpt lat="44.074629" lon="-114.592780"><ele>2936.0</ele></trkpt>
      <trkpt lat="44.074695" lon="-114.592651"><ele>2933.5</ele></trkpt>
      <trkpt lat="44.074832" lon="-114.592515"><ele>2927.2</ele></trkpt>
      <trkpt lat="44.074947" lon="-114.592386"><ele>2923.5</ele></trkpt>
      <trkpt lat="44.075047" lon="-114.592330"><ele>2921.2</ele></trkpt>
      <trkpt lat="44.075184" lon="-114.592212"><ele>2920.8</ele></trkpt>
      <trkpt lat="44.075346" lon="-114.591817"><ele>2922.8</ele></trkpt>
      <trkpt lat="44.075462" lon="-114.591592"><ele>2922.8</ele></trkpt>
      <trkpt lat="44.075614" lon="-114.591318"><ele>2922.2</ele></trkpt>
      <trkpt lat="44.075789" lon="-114.591219"><ele>2919.0</ele></trkpt>
      <trkpt lat="44.075855" lon="-114.591112"><ele>2919.0</ele></trkpt>
      <trkpt lat="44.076015" lon="-114.590777"><ele>2921.8</ele></trkpt>
      <trkpt lat="44.076129" lon="-114.590669"><ele>2921.5</ele></trkpt>
      <trkpt lat="44.076287" lon="-114.590557"><ele>2920.5</ele></trkpt>
      <trkpt lat="44.076487" lon="-114.590294"><ele>2919.2</ele></trkpt>
      <trkpt lat="44.076512" lon="-114.590042"><ele>2920.2</ele></trkpt>
      <trkpt lat="44.076572" lon="-114.589730"><ele>2919.2</ele></trkpt>
      <trkpt lat="44.076603" lon="-114.589355"><ele>2918.8</ele></trkpt>
      <trkpt lat="44.076672" lon="-114.588800"><ele>2915.2</ele></trkpt>
      <trkpt lat="44.076703" lon="-114.588378"><ele>2911.5</ele></trkpt>
    </trkseg>
    <trkseg>
      <!-- Sun — back over Windy Devil to Born Lakes -->
      <trkpt lat="44.076703" lon="-114.588378"><ele>2912.0</ele></trkpt>
      <trkpt lat="44.076672" lon="-114.588800"><ele>2915.2</ele></trkpt>
      <trkpt lat="44.076603" lon="-114.589355"><ele>2918.8</ele></trkpt>
      <trkpt lat="44.076572" lon="-114.589730"><ele>2919.2</ele></trkpt>
      <trkpt lat="44.076512" lon="-114.590042"><ele>2920.2</ele></trkpt>
      <trkpt lat="44.076487" lon="-114.590294"><ele>2919.2</ele></trkpt>
      <trkpt lat="44.076287" lon="-114.590557"><ele>2920.5</ele></trkpt>
      <trkpt lat="44.076129" lon="-114.590669"><ele>2921.5</ele></trkpt>
      <trkpt lat="44.076015" lon="-114.590777"><ele>2921.8</ele></trkpt>
      <trkpt lat="44.075855" lon="-114.591112"><ele>2919.0</ele></trkpt>
      <trkpt lat="44.075789" lon="-114.591219"><ele>2919.0</ele></trkpt>
      <trkpt lat="44.075614" lon="-114.591318"><ele>2922.2</ele></trkpt>
      <trkpt lat="44.075462" lon="-114.591592"><ele>2922.8</ele></trkpt>
      <trkpt lat="44.075346" lon="-114.591817"><ele>2922.8</ele></trkpt>
      <trkpt lat="44.075184" lon="-114.592212"><ele>2920.8</ele></trkpt>
      <trkpt lat="44.075047" lon="-114.592330"><ele>2921.2</ele></trkpt>
      <trkpt lat="44.074947" lon="-114.592386"><ele>2923.5</ele></trkpt>
      <trkpt lat="44.074832" lon="-114.592515"><ele>2927.2</ele></trkpt>
      <trkpt lat="44.074695" lon="-114.592651"><ele>2933.5</ele></trkpt>
      <trkpt lat="44.074629" lon="-114.592780"><ele>2936.0</ele></trkpt>
      <trkpt lat="44.074545" lon="-114.592818"><ele>2939.5</ele></trkpt>
      <trkpt lat="44.074402" lon="-114.592831"><ele>2945.2</ele></trkpt>
      <trkpt lat="44.074215" lon="-114.592914"><ele>2952.0</ele></trkpt>
      <trkpt lat="44.074142" lon="-114.593043"><ele>2952.2</ele></trkpt>
      <trkpt lat="44.074096" lon="-114.593182"><ele>2950.8</ele></trkpt>
      <trkpt lat="44.074073" lon="-114.593309"><ele>2949.0</ele></trkpt>
      <trkpt lat="44.074069" lon="-114.593384"><ele>2948.8</ele></trkpt>
      <trkpt lat="44.074101" lon="-114.593475"><ele>2949.0</ele></trkpt>
      <trkpt lat="44.074159" lon="-114.593475"><ele>2948.8</ele></trkpt>
      <trkpt lat="44.074167" lon="-114.593526"><ele>2949.0</ele></trkpt>
      <trkpt lat="44.074146" lon="-114.593609"><ele>2949.5</ele></trkpt>
      <trkpt lat="44.074171" lon="-114.593765"><ele>2950.5</ele></trkpt>
      <trkpt lat="44.074302" lon="-114.594188"><ele>2951.8</ele></trkpt>
      <trkpt lat="44.074313" lon="-114.594368"><ele>2953.5</ele></trkpt>
      <trkpt lat="44.074298" lon="-114.594556"><ele>2955.5</ele></trkpt>
      <trkpt lat="44.074213" lon="-114.594717"><ele>2956.5</ele></trkpt>
      <trkpt lat="44.074123" lon="-114.594918"><ele>2957.0</ele></trkpt>
      <trkpt lat="44.074038" lon="-114.595073"><ele>2957.8</ele></trkpt>
      <trkpt lat="44.073891" lon="-114.595143"><ele>2957.0</ele></trkpt>
      <trkpt lat="44.073772" lon="-114.595302"><ele>2957.8</ele></trkpt>
      <trkpt lat="44.073679" lon="-114.595478"><ele>2958.8</ele></trkpt>
      <trkpt lat="44.073562" lon="-114.595554"><ele>2958.0</ele></trkpt>
      <trkpt lat="44.073464" lon="-114.595639"><ele>2957.2</ele></trkpt>
      <trkpt lat="44.073304" lon="-114.595835"><ele>2956.8</ele></trkpt>
      <trkpt lat="44.073176" lon="-114.595878"><ele>2956.2</ele></trkpt>
      <trkpt lat="44.073097" lon="-114.595980"><ele>2956.8</ele></trkpt>
      <trkpt lat="44.072916" lon="-114.596423"><ele>2959.8</ele></trkpt>
      <trkpt lat="44.072826" lon="-114.596624"><ele>2961.2</ele></trkpt>
      <trkpt lat="44.072691" lon="-114.596801"><ele>2963.2</ele></trkpt>
      <trkpt lat="44.072552" lon="-114.596916"><ele>2964.8</ele></trkpt>
      <trkpt lat="44.072419" lon="-114.596935"><ele>2967.8</ele></trkpt>
      <trkpt lat="44.072271" lon="-114.596881"><ele>2971.8</ele></trkpt>
      <trkpt lat="44.072163" lon="-114.596855"><ele>2974.8</ele></trkpt>
      <trkpt lat="44.072111" lon="-114.596911"><ele>2977.5</ele></trkpt>
      <trkpt lat="44.072088" lon="-114.597074"><ele>2981.2</ele></trkpt>
      <trkpt lat="44.072045" lon="-114.597222"><ele>2985.5</ele></trkpt>
      <trkpt lat="44.071959" lon="-114.597208"><ele>2988.2</ele></trkpt>
      <trkpt lat="44.071806" lon="-114.597160"><ele>2992.8</ele></trkpt>
      <trkpt lat="44.071648" lon="-114.596903"><ele>2993.0</ele></trkpt>
      <trkpt lat="44.071488" lon="-114.596766"><ele>2998.8</ele></trkpt>
      <trkpt lat="44.071330" lon="-114.596667"><ele>3005.5</ele></trkpt>
      <trkpt lat="44.071220" lon="-114.596350"><ele>3009.5</ele></trkpt>
      <trkpt lat="44.071228" lon="-114.595910"><ele>3006.2</ele></trkpt>
      <trkpt lat="44.071246" lon="-114.595784"><ele>3005.5</ele></trkpt>
      <trkpt lat="44.071201" lon="-114.595792"><ele>3008.2</ele></trkpt>
      <trkpt lat="44.071165" lon="-114.595862"><ele>3010.0</ele></trkpt>
      <trkpt lat="44.071078" lon="-114.596136"><ele>3016.8</ele></trkpt>
      <trkpt lat="44.071035" lon="-114.596122"><ele>3019.2</ele></trkpt>
      <trkpt lat="44.071026" lon="-114.595916"><ele>3019.0</ele></trkpt>
      <trkpt lat="44.071064" lon="-114.595749"><ele>3018.0</ele></trkpt>
      <trkpt lat="44.071089" lon="-114.595599"><ele>3019.5</ele></trkpt>
      <trkpt lat="44.071043" lon="-114.595564"><ele>3023.5</ele></trkpt>
      <trkpt lat="44.070995" lon="-114.595634"><ele>3025.0</ele></trkpt>
      <trkpt lat="44.070926" lon="-114.595814"><ele>3025.5</ele></trkpt>
      <trkpt lat="44.070847" lon="-114.595972"><ele>3030.2</ele></trkpt>
      <trkpt lat="44.070791" lon="-114.596195"><ele>3033.5</ele></trkpt>
      <trkpt lat="44.070725" lon="-114.596227"><ele>3036.2</ele></trkpt>
      <trkpt lat="44.070710" lon="-114.596082"><ele>3036.5</ele></trkpt>
      <trkpt lat="44.070748" lon="-114.595943"><ele>3034.8</ele></trkpt>
      <trkpt lat="44.070783" lon="-114.595865"><ele>3033.0</ele></trkpt>
      <trkpt lat="44.070785" lon="-114.595787"><ele>3034.0</ele></trkpt>
      <trkpt lat="44.070756" lon="-114.595798"><ele>3034.8</ele></trkpt>
      <trkpt lat="44.070679" lon="-114.595953"><ele>3037.5</ele></trkpt>
      <trkpt lat="44.070644" lon="-114.595991"><ele>3039.0</ele></trkpt>
      <trkpt lat="44.070629" lon="-114.595921"><ele>3039.5</ele></trkpt>
      <trkpt lat="44.070652" lon="-114.595800"><ele>3039.0</ele></trkpt>
      <trkpt lat="44.070631" lon="-114.595765"><ele>3040.2</ele></trkpt>
      <trkpt lat="44.070521" lon="-114.595983"><ele>3044.0</ele></trkpt>
      <trkpt lat="44.070423" lon="-114.596230"><ele>3049.0</ele></trkpt>
      <trkpt lat="44.070371" lon="-114.596388"><ele>3051.8</ele></trkpt>
      <trkpt lat="44.070357" lon="-114.596530"><ele>3053.0</ele></trkpt>
      <trkpt lat="44.070334" lon="-114.596656"><ele>3054.5</ele></trkpt>
      <trkpt lat="44.070330" lon="-114.596660"><ele>3060.9</ele></trkpt>
      <trkpt lat="44.070025" lon="-114.597285"><ele>3093.1</ele></trkpt>
      <trkpt lat="44.069720" lon="-114.597911"><ele>3136.7</ele></trkpt>
      <trkpt lat="44.069415" lon="-114.598536"><ele>3167.0</ele></trkpt>
      <trkpt lat="44.069111" lon="-114.599162"><ele>3161.5</ele></trkpt>
      <trkpt lat="44.068806" lon="-114.599787"><ele>3139.7</ele></trkpt>
      <trkpt lat="44.068501" lon="-114.600412"><ele>3113.0</ele></trkpt>
      <trkpt lat="44.068196" lon="-114.601038"><ele>3098.3</ele></trkpt>
      <trkpt lat="44.067891" lon="-114.601663"><ele>3095.0</ele></trkpt>
      <trkpt lat="44.067586" lon="-114.602289"><ele>3094.4</ele></trkpt>
      <trkpt lat="44.067281" lon="-114.602914"><ele>3095.4</ele></trkpt>
      <trkpt lat="44.066976" lon="-114.603539"><ele>3092.5</ele></trkpt>
      <trkpt lat="44.066672" lon="-114.604165"><ele>3096.4</ele></trkpt>
      <trkpt lat="44.066367" lon="-114.604790"><ele>3101.3</ele></trkpt>
      <trkpt lat="44.066062" lon="-114.605416"><ele>3099.5</ele></trkpt>
      <trkpt lat="44.065757" lon="-114.606041"><ele>3098.9</ele></trkpt>
      <trkpt lat="44.065452" lon="-114.606666"><ele>3101.1</ele></trkpt>
      <trkpt lat="44.065147" lon="-114.607292"><ele>3119.7</ele></trkpt>
      <trkpt lat="44.064842" lon="-114.607917"><ele>3156.5</ele></trkpt>
      <trkpt lat="44.064538" lon="-114.608543"><ele>3143.2</ele></trkpt>
      <trkpt lat="44.064233" lon="-114.609168"><ele>3100.9</ele></trkpt>
      <trkpt lat="44.063928" lon="-114.609794"><ele>3050.0</ele></trkpt>
      <trkpt lat="44.063623" lon="-114.610419"><ele>3013.4</ele></trkpt>
      <trkpt lat="44.063318" lon="-114.611044"><ele>2983.8</ele></trkpt>
      <trkpt lat="44.063013" lon="-114.611670"><ele>2964.3</ele></trkpt>
      <trkpt lat="44.062708" lon="-114.612295"><ele>2954.0</ele></trkpt>
      <trkpt lat="44.062404" lon="-114.612921"><ele>2944.0</ele></trkpt>
      <trkpt lat="44.062099" lon="-114.613546"><ele>2924.9</ele></trkpt>
      <trkpt lat="44.061794" lon="-114.614171"><ele>2923.9</ele></trkpt>
      <trkpt lat="44.061489" lon="-114.614797"><ele>2919.3</ele></trkpt>
      <trkpt lat="44.061184" lon="-114.615422"><ele>2917.8</ele></trkpt>
      <trkpt lat="44.060879" lon="-114.616048"><ele>2909.0</ele></trkpt>
      <trkpt lat="44.060574" lon="-114.616673"><ele>2898.9</ele></trkpt>
      <trkpt lat="44.060269" lon="-114.617298"><ele>2889.9</ele></trkpt>
      <trkpt lat="44.059965" lon="-114.617924"><ele>2879.6</ele></trkpt>
      <trkpt lat="44.059660" lon="-114.618549"><ele>2878.5</ele></trkpt>
      <trkpt lat="44.059355" lon="-114.619175"><ele>2878.4</ele></trkpt>
      <trkpt lat="44.059050" lon="-114.619800"><ele>2878.6</ele></trkpt>
    </trkseg>
    <trkseg>
      <!-- Mon — out via Ants Basin -->
      <trkpt lat="44.059095" lon="-114.619028"><ele>2884.2</ele></trkpt>
      <trkpt lat="44.058928" lon="-114.619009"><ele>2884.5</ele></trkpt>
      <trkpt lat="44.058764" lon="-114.619022"><ele>2884.5</ele></trkpt>
      <trkpt lat="44.058689" lon="-114.618997"><ele>2884.5</ele></trkpt>
      <trkpt lat="44.058563" lon="-114.618905"><ele>2884.8</ele></trkpt>
      <trkpt lat="44.058436" lon="-114.618856"><ele>2885.0</ele></trkpt>
      <trkpt lat="44.058240" lon="-114.618830"><ele>2884.8</ele></trkpt>
      <trkpt lat="44.058163" lon="-114.618849"><ele>2884.5</ele></trkpt>
      <trkpt lat="44.058002" lon="-114.618932"><ele>2884.0</ele></trkpt>
      <trkpt lat="44.057680" lon="-114.619088"><ele>2883.2</ele></trkpt>
      <trkpt lat="44.057434" lon="-114.619269"><ele>2882.8</ele></trkpt>
      <trkpt lat="44.057367" lon="-114.619286"><ele>2882.8</ele></trkpt>
      <trkpt lat="44.057300" lon="-114.619266"><ele>2882.8</ele></trkpt>
      <trkpt lat="44.057237" lon="-114.619220"><ele>2882.8</ele></trkpt>
      <trkpt lat="44.057019" lon="-114.618969"><ele>2882.2</ele></trkpt>
      <trkpt lat="44.056899" lon="-114.618927"><ele>2881.8</ele></trkpt>
      <trkpt lat="44.056783" lon="-114.618940"><ele>2881.8</ele></trkpt>
      <trkpt lat="44.056681" lon="-114.619010"><ele>2882.0</ele></trkpt>
      <trkpt lat="44.056638" lon="-114.619098"><ele>2883.2</ele></trkpt>
      <trkpt lat="44.056579" lon="-114.619269"><ele>2886.0</ele></trkpt>
      <trkpt lat="44.056542" lon="-114.619376"><ele>2887.8</ele></trkpt>
      <trkpt lat="44.056511" lon="-114.619528"><ele>2889.8</ele></trkpt>
      <trkpt lat="44.056524" lon="-114.619662"><ele>2890.2</ele></trkpt>
      <trkpt lat="44.056642" lon="-114.620235"><ele>2888.8</ele></trkpt>
      <trkpt lat="44.056655" lon="-114.620430"><ele>2889.0</ele></trkpt>
      <trkpt lat="44.056621" lon="-114.621121"><ele>2888.0</ele></trkpt>
      <trkpt lat="44.056512" lon="-114.621500"><ele>2886.8</ele></trkpt>
      <trkpt lat="44.056523" lon="-114.621550"><ele>2885.8</ele></trkpt>
      <trkpt lat="44.056532" lon="-114.621752"><ele>2883.5</ele></trkpt>
      <trkpt lat="44.056487" lon="-114.621959"><ele>2883.2</ele></trkpt>
      <trkpt lat="44.056387" lon="-114.622286"><ele>2882.2</ele></trkpt>
      <trkpt lat="44.056282" lon="-114.622534"><ele>2880.8</ele></trkpt>
      <trkpt lat="44.056216" lon="-114.622723"><ele>2879.5</ele></trkpt>
      <trkpt lat="44.056202" lon="-114.622967"><ele>2877.5</ele></trkpt>
      <trkpt lat="44.056107" lon="-114.623236"><ele>2875.2</ele></trkpt>
      <trkpt lat="44.056016" lon="-114.623902"><ele>2870.2</ele></trkpt>
      <trkpt lat="44.055994" lon="-114.624162"><ele>2868.5</ele></trkpt>
      <trkpt lat="44.055904" lon="-114.624410"><ele>2866.8</ele></trkpt>
      <trkpt lat="44.055930" lon="-114.624565"><ele>2865.2</ele></trkpt>
      <trkpt lat="44.055997" lon="-114.624821"><ele>2863.0</ele></trkpt>
      <trkpt lat="44.056005" lon="-114.624989"><ele>2861.5</ele></trkpt>
      <trkpt lat="44.056005" lon="-114.625083"><ele>2860.5</ele></trkpt>
      <trkpt lat="44.056042" lon="-114.625284"><ele>2858.0</ele></trkpt>
      <trkpt lat="44.055973" lon="-114.625496"><ele>2855.5</ele></trkpt>
      <trkpt lat="44.055944" lon="-114.625719"><ele>2853.0</ele></trkpt>
      <trkpt lat="44.055915" lon="-114.625819"><ele>2851.8</ele></trkpt>
      <trkpt lat="44.055932" lon="-114.625935"><ele>2851.0</ele></trkpt>
      <trkpt lat="44.055929" lon="-114.626209"><ele>2849.2</ele></trkpt>
      <trkpt lat="44.055849" lon="-114.626530"><ele>2847.5</ele></trkpt>
      <trkpt lat="44.055828" lon="-114.626721"><ele>2846.8</ele></trkpt>
      <trkpt lat="44.055840" lon="-114.627053"><ele>2844.5</ele></trkpt>
      <trkpt lat="44.055834" lon="-114.627364"><ele>2842.8</ele></trkpt>
      <trkpt lat="44.055767" lon="-114.627833"><ele>2845.5</ele></trkpt>
      <trkpt lat="44.055611" lon="-114.628510"><ele>2855.2</ele></trkpt>
      <trkpt lat="44.055593" lon="-114.628843"><ele>2858.2</ele></trkpt>
      <trkpt lat="44.055605" lon="-114.628917"><ele>2858.2</ele></trkpt>
      <trkpt lat="44.055653" lon="-114.628939"><ele>2856.8</ele></trkpt>
      <trkpt lat="44.055731" lon="-114.629030"><ele>2854.5</ele></trkpt>
      <trkpt lat="44.055808" lon="-114.629185"><ele>2853.0</ele></trkpt>
      <trkpt lat="44.055827" lon="-114.629313"><ele>2853.5</ele></trkpt>
      <trkpt lat="44.055884" lon="-114.629472"><ele>2853.0</ele></trkpt>
      <trkpt lat="44.055923" lon="-114.629726"><ele>2854.0</ele></trkpt>
      <trkpt lat="44.055950" lon="-114.630045"><ele>2855.5</ele></trkpt>
      <trkpt lat="44.055929" lon="-114.630266"><ele>2856.0</ele></trkpt>
      <trkpt lat="44.055970" lon="-114.630466"><ele>2854.5</ele></trkpt>
      <trkpt lat="44.055999" lon="-114.630742"><ele>2853.5</ele></trkpt>
      <trkpt lat="44.055964" lon="-114.631236"><ele>2856.2</ele></trkpt>
      <trkpt lat="44.055972" lon="-114.631480"><ele>2856.8</ele></trkpt>
      <trkpt lat="44.056024" lon="-114.631669"><ele>2856.0</ele></trkpt>
      <trkpt lat="44.056087" lon="-114.631848"><ele>2856.0</ele></trkpt>
      <trkpt lat="44.056087" lon="-114.631972"><ele>2857.5</ele></trkpt>
      <trkpt lat="44.056075" lon="-114.632114"><ele>2859.5</ele></trkpt>
      <trkpt lat="44.056027" lon="-114.632242"><ele>2862.2</ele></trkpt>
      <trkpt lat="44.055938" lon="-114.632336"><ele>2866.0</ele></trkpt>
      <trkpt lat="44.055929" lon="-114.632411"><ele>2867.2</ele></trkpt>
      <trkpt lat="44.055888" lon="-114.632411"><ele>2868.2</ele></trkpt>
      <trkpt lat="44.055861" lon="-114.632567"><ele>2871.2</ele></trkpt>
      <trkpt lat="44.055839" lon="-114.632811"><ele>2875.5</ele></trkpt>
      <trkpt lat="44.055826" lon="-114.633023"><ele>2879.2</ele></trkpt>
      <trkpt lat="44.055827" lon="-114.633141"><ele>2881.0</ele></trkpt>
      <trkpt lat="44.055758" lon="-114.633214"><ele>2884.5</ele></trkpt>
      <trkpt lat="44.055504" lon="-114.633525"><ele>2898.2</ele></trkpt>
      <trkpt lat="44.055419" lon="-114.633596"><ele>2902.2</ele></trkpt>
      <trkpt lat="44.055402" lon="-114.633645"><ele>2903.8</ele></trkpt>
      <trkpt lat="44.055457" lon="-114.633769"><ele>2905.0</ele></trkpt>
      <trkpt lat="44.055530" lon="-114.633978"><ele>2907.5</ele></trkpt>
      <trkpt lat="44.055717" lon="-114.634234"><ele>2907.8</ele></trkpt>
      <trkpt lat="44.055741" lon="-114.634342"><ele>2908.5</ele></trkpt>
      <trkpt lat="44.055749" lon="-114.634562"><ele>2911.0</ele></trkpt>
      <trkpt lat="44.055690" lon="-114.634757"><ele>2914.5</ele></trkpt>
      <trkpt lat="44.055617" lon="-114.634860"><ele>2916.8</ele></trkpt>
      <trkpt lat="44.055532" lon="-114.635058"><ele>2919.0</ele></trkpt>
      <trkpt lat="44.055514" lon="-114.635198"><ele>2919.2</ele></trkpt>
      <trkpt lat="44.055538" lon="-114.635289"><ele>2919.0</ele></trkpt>
      <trkpt lat="44.055564" lon="-114.635430"><ele>2918.8</ele></trkpt>
      <trkpt lat="44.055619" lon="-114.635563"><ele>2918.2</ele></trkpt>
      <trkpt lat="44.055651" lon="-114.635706"><ele>2918.0</ele></trkpt>
      <trkpt lat="44.055697" lon="-114.635805"><ele>2917.8</ele></trkpt>
      <trkpt lat="44.055706" lon="-114.635941"><ele>2917.2</ele></trkpt>
      <trkpt lat="44.055675" lon="-114.636145"><ele>2917.0</ele></trkpt>
      <trkpt lat="44.055666" lon="-114.636455"><ele>2916.0</ele></trkpt>
      <trkpt lat="44.055666" lon="-114.636909"><ele>2916.2</ele></trkpt>
      <trkpt lat="44.055676" lon="-114.637114"><ele>2916.8</ele></trkpt>
      <trkpt lat="44.055711" lon="-114.637296"><ele>2917.2</ele></trkpt>
      <trkpt lat="44.055701" lon="-114.637430"><ele>2917.8</ele></trkpt>
      <trkpt lat="44.055666" lon="-114.637564"><ele>2918.5</ele></trkpt>
      <trkpt lat="44.055652" lon="-114.637686"><ele>2919.2</ele></trkpt>
      <trkpt lat="44.055660" lon="-114.637857"><ele>2920.5</ele></trkpt>
      <trkpt lat="44.055645" lon="-114.637989"><ele>2921.5</ele></trkpt>
      <trkpt lat="44.055654" lon="-114.638170"><ele>2922.5</ele></trkpt>
      <trkpt lat="44.055635" lon="-114.638350"><ele>2924.2</ele></trkpt>
      <trkpt lat="44.055650" lon="-114.638555"><ele>2927.0</ele></trkpt>
      <trkpt lat="44.055650" lon="-114.638675"><ele>2928.8</ele></trkpt>
      <trkpt lat="44.055642" lon="-114.638766"><ele>2930.2</ele></trkpt>
      <trkpt lat="44.055574" lon="-114.638849"><ele>2933.5</ele></trkpt>
      <trkpt lat="44.055605" lon="-114.639025"><ele>2935.5</ele></trkpt>
      <trkpt lat="44.055600" lon="-114.639132"><ele>2937.2</ele></trkpt>
      <trkpt lat="44.055585" lon="-114.639168"><ele>2938.5</ele></trkpt>
      <trkpt lat="44.055465" lon="-114.639129"><ele>2942.2</ele></trkpt>
      <trkpt lat="44.055400" lon="-114.639142"><ele>2945.0</ele></trkpt>
      <trkpt lat="44.055402" lon="-114.639162"><ele>2945.2</ele></trkpt>
      <trkpt lat="44.055432" lon="-114.639220"><ele>2945.8</ele></trkpt>
      <trkpt lat="44.055513" lon="-114.639570"><ele>2951.2</ele></trkpt>
      <trkpt lat="44.055440" lon="-114.639511"><ele>2953.0</ele></trkpt>
      <trkpt lat="44.055319" lon="-114.639441"><ele>2956.2</ele></trkpt>
      <trkpt lat="44.055165" lon="-114.639367"><ele>2960.5</ele></trkpt>
      <trkpt lat="44.054570" lon="-114.639120"><ele>2978.8</ele></trkpt>
      <trkpt lat="44.054434" lon="-114.639005"><ele>2980.0</ele></trkpt>
      <trkpt lat="44.054352" lon="-114.638988"><ele>2982.8</ele></trkpt>
      <trkpt lat="44.054214" lon="-114.638897"><ele>2984.2</ele></trkpt>
      <trkpt lat="44.054084" lon="-114.638900"><ele>2988.5</ele></trkpt>
      <trkpt lat="44.053790" lon="-114.638830"><ele>2993.5</ele></trkpt>
      <trkpt lat="44.053780" lon="-114.638840"><ele>2994.0</ele></trkpt>
      <trkpt lat="44.053902" lon="-114.639103"><ele>2999.8</ele></trkpt>
      <trkpt lat="44.053895" lon="-114.639131"><ele>3001.0</ele></trkpt>
      <trkpt lat="44.053687" lon="-114.638975"><ele>3000.0</ele></trkpt>
      <trkpt lat="44.053651" lon="-114.638909"><ele>2999.2</ele></trkpt>
      <trkpt lat="44.053644" lon="-114.638923"><ele>2999.5</ele></trkpt>
      <trkpt lat="44.053644" lon="-114.639011"><ele>3001.5</ele></trkpt>
      <trkpt lat="44.053635" lon="-114.639085"><ele>3003.5</ele></trkpt>
      <trkpt lat="44.053597" lon="-114.639114"><ele>3004.8</ele></trkpt>
      <trkpt lat="44.053478" lon="-114.639062"><ele>3005.5</ele></trkpt>
      <trkpt lat="44.053346" lon="-114.638928"><ele>3006.5</ele></trkpt>
      <trkpt lat="44.053236" lon="-114.638730"><ele>3002.2</ele></trkpt>
      <trkpt lat="44.053187" lon="-114.638626"><ele>3000.5</ele></trkpt>
      <trkpt lat="44.053104" lon="-114.638408"><ele>2999.2</ele></trkpt>
      <trkpt lat="44.052964" lon="-114.638257"><ele>2997.5</ele></trkpt>
      <trkpt lat="44.052826" lon="-114.638073"><ele>2996.8</ele></trkpt>
      <trkpt lat="44.052596" lon="-114.637337"><ele>3008.5</ele></trkpt>
      <trkpt lat="44.052434" lon="-114.636591"><ele>3021.0</ele></trkpt>
      <trkpt lat="44.052308" lon="-114.634717"><ele>3047.0</ele></trkpt>
      <trkpt lat="44.052411" lon="-114.632786"><ele>3081.2</ele></trkpt>
      <trkpt lat="44.051939" lon="-114.629552"><ele>3062.8</ele></trkpt>
      <trkpt lat="44.051793" lon="-114.627300"><ele>3071.8</ele></trkpt>
      <trkpt lat="44.051722" lon="-114.627135"><ele>3078.5</ele></trkpt>
      <trkpt lat="44.051793" lon="-114.627300"><ele>3071.8</ele></trkpt>
      <trkpt lat="44.051939" lon="-114.629552"><ele>3062.8</ele></trkpt>
      <trkpt lat="44.052411" lon="-114.632786"><ele>3081.2</ele></trkpt>
      <trkpt lat="44.052308" lon="-114.634717"><ele>3047.0</ele></trkpt>
      <trkpt lat="44.052434" lon="-114.636591"><ele>3021.0</ele></trkpt>
      <trkpt lat="44.052418" lon="-114.636647"><ele>3019.2</ele></trkpt>
      <trkpt lat="44.052300" lon="-114.636591"><ele>3017.8</ele></trkpt>
      <trkpt lat="44.052060" lon="-114.636332"><ele>3019.0</ele></trkpt>
      <trkpt lat="44.051967" lon="-114.636334"><ele>3017.0</ele></trkpt>
      <trkpt lat="44.051927" lon="-114.636236"><ele>3019.0</ele></trkpt>
      <trkpt lat="44.051827" lon="-114.636075"><ele>3021.5</ele></trkpt>
      <trkpt lat="44.051739" lon="-114.635917"><ele>3024.5</ele></trkpt>
      <trkpt lat="44.051642" lon="-114.635719"><ele>3026.2</ele></trkpt>
      <trkpt lat="44.051571" lon="-114.635619"><ele>3023.8</ele></trkpt>
      <trkpt lat="44.051558" lon="-114.635504"><ele>3024.8</ele></trkpt>
      <trkpt lat="44.051478" lon="-114.635281"><ele>3024.0</ele></trkpt>
      <trkpt lat="44.051299" lon="-114.634862"><ele>3021.0</ele></trkpt>
      <trkpt lat="44.051122" lon="-114.634602"><ele>3016.0</ele></trkpt>
      <trkpt lat="44.051038" lon="-114.634497"><ele>3013.5</ele></trkpt>
      <trkpt lat="44.050863" lon="-114.634303"><ele>3008.8</ele></trkpt>
      <trkpt lat="44.050613" lon="-114.633587"><ele>2998.8</ele></trkpt>
      <trkpt lat="44.050556" lon="-114.633373"><ele>2996.8</ele></trkpt>
      <trkpt lat="44.050473" lon="-114.633182"><ele>2993.0</ele></trkpt>
      <trkpt lat="44.050416" lon="-114.632961"><ele>2990.5</ele></trkpt>
      <trkpt lat="44.050392" lon="-114.632784"><ele>2989.8</ele></trkpt>
      <trkpt lat="44.050375" lon="-114.632520"><ele>2989.2</ele></trkpt>
      <trkpt lat="44.050315" lon="-114.632259"><ele>2985.8</ele></trkpt>
      <trkpt lat="44.050241" lon="-114.632032"><ele>2981.5</ele></trkpt>
      <trkpt lat="44.050217" lon="-114.631816"><ele>2979.5</ele></trkpt>
      <trkpt lat="44.050223" lon="-114.631578"><ele>2979.2</ele></trkpt>
      <trkpt lat="44.050157" lon="-114.631310"><ele>2976.5</ele></trkpt>
      <trkpt lat="44.050125" lon="-114.631223"><ele>2975.0</ele></trkpt>
      <trkpt lat="44.050141" lon="-114.631158"><ele>2975.8</ele></trkpt>
      <trkpt lat="44.050109" lon="-114.631026"><ele>2974.5</ele></trkpt>
      <trkpt lat="44.050043" lon="-114.630871"><ele>2971.8</ele></trkpt>
      <trkpt lat="44.050027" lon="-114.630806"><ele>2971.0</ele></trkpt>
      <trkpt lat="44.050004" lon="-114.630763"><ele>2970.2</ele></trkpt>
      <trkpt lat="44.049804" lon="-114.630719"><ele>2966.8</ele></trkpt>
      <trkpt lat="44.049636" lon="-114.630666"><ele>2964.2</ele></trkpt>
      <trkpt lat="44.049459" lon="-114.630546"><ele>2962.0</ele></trkpt>
      <trkpt lat="44.049059" lon="-114.630208"><ele>2957.8</ele></trkpt>
      <trkpt lat="44.048875" lon="-114.630007"><ele>2955.5</ele></trkpt>
      <trkpt lat="44.048757" lon="-114.629970"><ele>2953.0</ele></trkpt>
      <trkpt lat="44.048482" lon="-114.629754"><ele>2949.5</ele></trkpt>
      <trkpt lat="44.048357" lon="-114.629490"><ele>2951.0</ele></trkpt>
      <trkpt lat="44.048286" lon="-114.629445"><ele>2949.8</ele></trkpt>
      <trkpt lat="44.048183" lon="-114.629450"><ele>2946.2</ele></trkpt>
      <trkpt lat="44.047991" lon="-114.629489"><ele>2939.0</ele></trkpt>
      <trkpt lat="44.047841" lon="-114.629487"><ele>2934.0</ele></trkpt>
      <trkpt lat="44.047649" lon="-114.629363"><ele>2930.8</ele></trkpt>
      <trkpt lat="44.047470" lon="-114.629195"><ele>2929.2</ele></trkpt>
      <trkpt lat="44.047228" lon="-114.629006"><ele>2926.5</ele></trkpt>
      <trkpt lat="44.047052" lon="-114.628926"><ele>2923.0</ele></trkpt>
      <trkpt lat="44.046943" lon="-114.628958"><ele>2919.0</ele></trkpt>
      <trkpt lat="44.046894" lon="-114.628990"><ele>2916.8</ele></trkpt>
      <trkpt lat="44.046884" lon="-114.629050"><ele>2915.0</ele></trkpt>
      <trkpt lat="44.046903" lon="-114.629149"><ele>2913.2</ele></trkpt>
      <trkpt lat="44.046900" lon="-114.629256"><ele>2911.2</ele></trkpt>
      <trkpt lat="44.046823" lon="-114.629337"><ele>2907.5</ele></trkpt>
      <trkpt lat="44.046617" lon="-114.629240"><ele>2903.5</ele></trkpt>
      <trkpt lat="44.046538" lon="-114.629245"><ele>2901.8</ele></trkpt>
      <trkpt lat="44.046427" lon="-114.629314"><ele>2898.2</ele></trkpt>
      <trkpt lat="44.046371" lon="-114.629675"><ele>2891.8</ele></trkpt>
      <trkpt lat="44.046277" lon="-114.629838"><ele>2887.8</ele></trkpt>
      <trkpt lat="44.046239" lon="-114.630043"><ele>2884.5</ele></trkpt>
      <trkpt lat="44.046193" lon="-114.630243"><ele>2882.8</ele></trkpt>
      <trkpt lat="44.046098" lon="-114.630507"><ele>2880.0</ele></trkpt>
      <trkpt lat="44.045890" lon="-114.630967"><ele>2875.2</ele></trkpt>
      <trkpt lat="44.045773" lon="-114.631265"><ele>2873.2</ele></trkpt>
      <trkpt lat="44.045707" lon="-114.631387"><ele>2872.5</ele></trkpt>
      <trkpt lat="44.045399" lon="-114.631695"><ele>2869.8</ele></trkpt>
      <trkpt lat="44.045350" lon="-114.631776"><ele>2869.5</ele></trkpt>
      <trkpt lat="44.045297" lon="-114.632036"><ele>2869.2</ele></trkpt>
      <trkpt lat="44.045289" lon="-114.632155"><ele>2869.2</ele></trkpt>
      <trkpt lat="44.045418" lon="-114.632480"><ele>2870.0</ele></trkpt>
      <trkpt lat="44.045451" lon="-114.632714"><ele>2869.0</ele></trkpt>
      <trkpt lat="44.045429" lon="-114.632926"><ele>2867.8</ele></trkpt>
      <trkpt lat="44.045381" lon="-114.633257"><ele>2866.2</ele></trkpt>
      <trkpt lat="44.045375" lon="-114.633372"><ele>2865.8</ele></trkpt>
      <trkpt lat="44.045314" lon="-114.633549"><ele>2865.0</ele></trkpt>
      <trkpt lat="44.045330" lon="-114.633645"><ele>2864.5</ele></trkpt>
      <trkpt lat="44.045387" lon="-114.633781"><ele>2863.8</ele></trkpt>
      <trkpt lat="44.045377" lon="-114.633896"><ele>2863.2</ele></trkpt>
      <trkpt lat="44.045441" lon="-114.634247"><ele>2861.5</ele></trkpt>
      <trkpt lat="44.045268" lon="-114.634161"><ele>2862.0</ele></trkpt>
      <trkpt lat="44.045082" lon="-114.634088"><ele>2862.2</ele></trkpt>
      <trkpt lat="44.044743" lon="-114.633855"><ele>2863.5</ele></trkpt>
      <trkpt lat="44.044548" lon="-114.633803"><ele>2863.2</ele></trkpt>
      <trkpt lat="44.044481" lon="-114.633759"><ele>2863.2</ele></trkpt>
      <trkpt lat="44.044404" lon="-114.633612"><ele>2862.8</ele></trkpt>
      <trkpt lat="44.044256" lon="-114.633491"><ele>2862.0</ele></trkpt>
      <trkpt lat="44.044196" lon="-114.633463"><ele>2861.5</ele></trkpt>
      <trkpt lat="44.044029" lon="-114.633493"><ele>2861.5</ele></trkpt>
      <trkpt lat="44.043915" lon="-114.633493"><ele>2861.8</ele></trkpt>
      <trkpt lat="44.043751" lon="-114.633439"><ele>2861.8</ele></trkpt>
      <trkpt lat="44.043560" lon="-114.633404"><ele>2861.8</ele></trkpt>
      <trkpt lat="44.043356" lon="-114.633336"><ele>2861.8</ele></trkpt>
      <trkpt lat="44.042982" lon="-114.633185"><ele>2864.2</ele></trkpt>
      <trkpt lat="44.042866" lon="-114.633117"><ele>2864.8</ele></trkpt>
      <trkpt lat="44.042777" lon="-114.632991"><ele>2865.2</ele></trkpt>
      <trkpt lat="44.042624" lon="-114.632834"><ele>2866.8</ele></trkpt>
      <trkpt lat="44.042777" lon="-114.632991"><ele>2865.2</ele></trkpt>
      <trkpt lat="44.042866" lon="-114.633117"><ele>2864.8</ele></trkpt>
      <trkpt lat="44.042982" lon="-114.633185"><ele>2864.2</ele></trkpt>
      <trkpt lat="44.043356" lon="-114.633336"><ele>2861.8</ele></trkpt>
      <trkpt lat="44.043560" lon="-114.633404"><ele>2861.8</ele></trkpt>
      <trkpt lat="44.043751" lon="-114.633439"><ele>2861.8</ele></trkpt>
      <trkpt lat="44.043915" lon="-114.633493"><ele>2861.8</ele></trkpt>
      <trkpt lat="44.044029" lon="-114.633493"><ele>2861.5</ele></trkpt>
      <trkpt lat="44.044196" lon="-114.633463"><ele>2861.5</ele></trkpt>
      <trkpt lat="44.044256" lon="-114.633491"><ele>2862.0</ele></trkpt>
      <trkpt lat="44.044404" lon="-114.633612"><ele>2862.8</ele></trkpt>
      <trkpt lat="44.044481" lon="-114.633759"><ele>2863.2</ele></trkpt>
      <trkpt lat="44.044548" lon="-114.633803"><ele>2863.2</ele></trkpt>
      <trkpt lat="44.044743" lon="-114.633855"><ele>2863.5</ele></trkpt>
      <trkpt lat="44.045082" lon="-114.634088"><ele>2862.2</ele></trkpt>
      <trkpt lat="44.045268" lon="-114.634161"><ele>2862.0</ele></trkpt>
      <trkpt lat="44.045441" lon="-114.634247"><ele>2861.5</ele></trkpt>
      <trkpt lat="44.045545" lon="-114.634259"><ele>2861.2</ele></trkpt>
      <trkpt lat="44.045694" lon="-114.634404"><ele>2860.8</ele></trkpt>
      <trkpt lat="44.045855" lon="-114.634477"><ele>2860.2</ele></trkpt>
      <trkpt lat="44.045887" lon="-114.634540"><ele>2859.8</ele></trkpt>
      <trkpt lat="44.046395" lon="-114.634798"><ele>2855.8</ele></trkpt>
      <trkpt lat="44.046541" lon="-114.634884"><ele>2854.8</ele></trkpt>
      <trkpt lat="44.046687" lon="-114.634891"><ele>2854.0</ele></trkpt>
      <trkpt lat="44.046977" lon="-114.634872"><ele>2852.2</ele></trkpt>
      <trkpt lat="44.047231" lon="-114.634792"><ele>2851.0</ele></trkpt>
      <trkpt lat="44.047339" lon="-114.634773"><ele>2850.2</ele></trkpt>
      <trkpt lat="44.047503" lon="-114.634861"><ele>2849.5</ele></trkpt>
      <trkpt lat="44.047788" lon="-114.635202"><ele>2848.0</ele></trkpt>
      <trkpt lat="44.048000" lon="-114.635658"><ele>2845.2</ele></trkpt>
      <trkpt lat="44.048062" lon="-114.635953"><ele>2843.0</ele></trkpt>
      <trkpt lat="44.048097" lon="-114.636294"><ele>2839.0</ele></trkpt>
      <trkpt lat="44.048164" lon="-114.636707"><ele>2834.0</ele></trkpt>
      <trkpt lat="44.048209" lon="-114.637013"><ele>2830.0</ele></trkpt>
      <trkpt lat="44.048236" lon="-114.637249"><ele>2827.0</ele></trkpt>
      <trkpt lat="44.048274" lon="-114.637471"><ele>2823.8</ele></trkpt>
      <trkpt lat="44.048403" lon="-114.637737"><ele>2820.8</ele></trkpt>
      <trkpt lat="44.048523" lon="-114.638077"><ele>2817.2</ele></trkpt>
      <trkpt lat="44.048463" lon="-114.638150"><ele>2815.8</ele></trkpt>
      <trkpt lat="44.048376" lon="-114.638222"><ele>2814.5</ele></trkpt>
      <trkpt lat="44.048324" lon="-114.638316"><ele>2813.2</ele></trkpt>
      <trkpt lat="44.048346" lon="-114.638399"><ele>2812.0</ele></trkpt>
      <trkpt lat="44.048436" lon="-114.638563"><ele>2810.2</ele></trkpt>
      <trkpt lat="44.048531" lon="-114.638815"><ele>2807.0</ele></trkpt>
      <trkpt lat="44.048559" lon="-114.639008"><ele>2804.2</ele></trkpt>
      <trkpt lat="44.048484" lon="-114.639317"><ele>2800.5</ele></trkpt>
      <trkpt lat="44.048363" lon="-114.639459"><ele>2798.5</ele></trkpt>
      <trkpt lat="44.048276" lon="-114.639523"><ele>2797.8</ele></trkpt>
      <trkpt lat="44.048103" lon="-114.639537"><ele>2797.8</ele></trkpt>
      <trkpt lat="44.047869" lon="-114.639528"><ele>2798.2</ele></trkpt>
      <trkpt lat="44.047649" lon="-114.639610"><ele>2797.2</ele></trkpt>
      <trkpt lat="44.047570" lon="-114.640116"><ele>2790.2</ele></trkpt>
      <trkpt lat="44.047392" lon="-114.641008"><ele>2782.0</ele></trkpt>
      <trkpt lat="44.047285" lon="-114.641323"><ele>2783.0</ele></trkpt>
      <trkpt lat="44.047230" lon="-114.641844"><ele>2781.8</ele></trkpt>
      <trkpt lat="44.047342" lon="-114.642158"><ele>2778.0</ele></trkpt>
      <trkpt lat="44.047385" lon="-114.642385"><ele>2777.0</ele></trkpt>
      <trkpt lat="44.047364" lon="-114.642658"><ele>2777.2</ele></trkpt>
      <trkpt lat="44.047326" lon="-114.642927"><ele>2777.8</ele></trkpt>
      <trkpt lat="44.047380" lon="-114.643114"><ele>2776.0</ele></trkpt>
      <trkpt lat="44.047550" lon="-114.643411"><ele>2772.5</ele></trkpt>
      <trkpt lat="44.047662" lon="-114.643546"><ele>2771.2</ele></trkpt>
      <trkpt lat="44.047751" lon="-114.643712"><ele>2770.5</ele></trkpt>
      <trkpt lat="44.047883" lon="-114.643818"><ele>2769.2</ele></trkpt>
      <trkpt lat="44.048054" lon="-114.643787"><ele>2767.0</ele></trkpt>
      <trkpt lat="44.048212" lon="-114.643839"><ele>2765.2</ele></trkpt>
      <trkpt lat="44.048349" lon="-114.643906"><ele>2764.0</ele></trkpt>
      <trkpt lat="44.048447" lon="-114.643879"><ele>2763.5</ele></trkpt>
      <trkpt lat="44.048544" lon="-114.643882"><ele>2763.2</ele></trkpt>
      <trkpt lat="44.048700" lon="-114.643957"><ele>2763.0</ele></trkpt>
      <trkpt lat="44.048879" lon="-114.644172"><ele>2761.5</ele></trkpt>
      <trkpt lat="44.048968" lon="-114.644351"><ele>2761.0</ele></trkpt>
      <trkpt lat="44.049124" lon="-114.644520"><ele>2759.5</ele></trkpt>
      <trkpt lat="44.049236" lon="-114.644660"><ele>2759.0</ele></trkpt>
      <trkpt lat="44.049228" lon="-114.644874"><ele>2758.2</ele></trkpt>
      <trkpt lat="44.049247" lon="-114.645038"><ele>2757.8</ele></trkpt>
      <trkpt lat="44.049323" lon="-114.645183"><ele>2757.5</ele></trkpt>
      <trkpt lat="44.049394" lon="-114.645470"><ele>2756.5</ele></trkpt>
      <trkpt lat="44.049469" lon="-114.645819"><ele>2754.5</ele></trkpt>
      <trkpt lat="44.049581" lon="-114.646089"><ele>2752.0</ele></trkpt>
      <trkpt lat="44.049673" lon="-114.646277"><ele>2749.8</ele></trkpt>
      <trkpt lat="44.049791" lon="-114.646685"><ele>2745.2</ele></trkpt>
      <trkpt lat="44.049828" lon="-114.646937"><ele>2744.2</ele></trkpt>
      <trkpt lat="44.049914" lon="-114.647439"><ele>2741.8</ele></trkpt>
      <trkpt lat="44.050028" lon="-114.647621"><ele>2739.2</ele></trkpt>
      <trkpt lat="44.050067" lon="-114.647814"><ele>2738.0</ele></trkpt>
      <trkpt lat="44.050015" lon="-114.648383"><ele>2733.5</ele></trkpt>
      <trkpt lat="44.049974" lon="-114.648514"><ele>2732.8</ele></trkpt>
      <trkpt lat="44.049891" lon="-114.648627"><ele>2733.8</ele></trkpt>
      <trkpt lat="44.049895" lon="-114.648745"><ele>2732.5</ele></trkpt>
      <trkpt lat="44.049826" lon="-114.648916"><ele>2732.2</ele></trkpt>
      <trkpt lat="44.049781" lon="-114.649048"><ele>2731.8</ele></trkpt>
      <trkpt lat="44.049797" lon="-114.649244"><ele>2730.2</ele></trkpt>
      <trkpt lat="44.049801" lon="-114.649515"><ele>2730.0</ele></trkpt>
      <trkpt lat="44.049791" lon="-114.649777"><ele>2730.2</ele></trkpt>
      <trkpt lat="44.049795" lon="-114.649981"><ele>2730.0</ele></trkpt>
      <trkpt lat="44.049832" lon="-114.650121"><ele>2728.8</ele></trkpt>
      <trkpt lat="44.049685" lon="-114.650351"><ele>2729.2</ele></trkpt>
      <trkpt lat="44.049620" lon="-114.650520"><ele>2728.8</ele></trkpt>
      <trkpt lat="44.049596" lon="-114.650671"><ele>2727.8</ele></trkpt>
      <trkpt lat="44.049512" lon="-114.650724"><ele>2727.8</ele></trkpt>
      <trkpt lat="44.049363" lon="-114.650775"><ele>2728.2</ele></trkpt>
      <trkpt lat="44.049236" lon="-114.650931"><ele>2727.0</ele></trkpt>
      <trkpt lat="44.048922" lon="-114.651357"><ele>2724.8</ele></trkpt>
      <trkpt lat="44.048716" lon="-114.651573"><ele>2723.5</ele></trkpt>
      <trkpt lat="44.048515" lon="-114.651715"><ele>2723.5</ele></trkpt>
      <trkpt lat="44.048194" lon="-114.651894"><ele>2724.2</ele></trkpt>
      <trkpt lat="44.047996" lon="-114.652078"><ele>2722.8</ele></trkpt>
      <trkpt lat="44.047917" lon="-114.652303"><ele>2718.2</ele></trkpt>
      <trkpt lat="44.047839" lon="-114.652627"><ele>2712.5</ele></trkpt>
      <trkpt lat="44.047744" lon="-114.652835"><ele>2710.8</ele></trkpt>
      <trkpt lat="44.047575" lon="-114.653113"><ele>2708.2</ele></trkpt>
      <trkpt lat="44.047570" lon="-114.653379"><ele>2705.0</ele></trkpt>
      <trkpt lat="44.047545" lon="-114.653603"><ele>2702.5</ele></trkpt>
      <trkpt lat="44.047322" lon="-114.654172"><ele>2697.2</ele></trkpt>
      <trkpt lat="44.047106" lon="-114.654753"><ele>2692.5</ele></trkpt>
      <trkpt lat="44.047026" lon="-114.654800"><ele>2692.5</ele></trkpt>
      <trkpt lat="44.046760" lon="-114.654871"><ele>2693.8</ele></trkpt>
      <trkpt lat="44.046690" lon="-114.655022"><ele>2692.2</ele></trkpt>
      <trkpt lat="44.046548" lon="-114.655258"><ele>2690.0</ele></trkpt>
      <trkpt lat="44.046504" lon="-114.655444"><ele>2687.5</ele></trkpt>
      <trkpt lat="44.046364" lon="-114.655684"><ele>2684.5</ele></trkpt>
      <trkpt lat="44.046256" lon="-114.655786"><ele>2683.8</ele></trkpt>
      <trkpt lat="44.046212" lon="-114.655983"><ele>2681.8</ele></trkpt>
      <trkpt lat="44.046081" lon="-114.656203"><ele>2680.2</ele></trkpt>
      <trkpt lat="44.046072" lon="-114.656341"><ele>2678.8</ele></trkpt>
      <trkpt lat="44.046116" lon="-114.656552"><ele>2676.5</ele></trkpt>
      <trkpt lat="44.046180" lon="-114.656772"><ele>2674.5</ele></trkpt>
      <trkpt lat="44.046275" lon="-114.656845"><ele>2674.0</ele></trkpt>
      <trkpt lat="44.046500" lon="-114.656932"><ele>2674.0</ele></trkpt>
      <trkpt lat="44.046542" lon="-114.656964"><ele>2674.0</ele></trkpt>
      <trkpt lat="44.046564" lon="-114.656981"><ele>2674.0</ele></trkpt>
      <trkpt lat="44.046602" lon="-114.657073"><ele>2674.2</ele></trkpt>
      <trkpt lat="44.046595" lon="-114.657127"><ele>2674.2</ele></trkpt>
      <trkpt lat="44.046544" lon="-114.657211"><ele>2674.0</ele></trkpt>
      <trkpt lat="44.046501" lon="-114.657578"><ele>2673.5</ele></trkpt>
      <trkpt lat="44.046558" lon="-114.657629"><ele>2674.0</ele></trkpt>
    </trkseg>
  </trk>
</gpx>
