<?xml version="1.0" encoding="UTF-8"?>
<gpx version="1.1" creator="pathbeaters26" xmlns="http://www.topografix.com/GPX/1/1" xmlns:xsi="http://www.w3.org/2001/XMLSchema-instance" xsi:schemaLocation="http://www.topografix.com/GPX/1/1 http://www.topografix.com/GPX/1/1/gpx.xsd">
  <metadata><name>Buckskin Gulch: Wire Pass → White House</name></metadata>
  <wpt lat="37.019108" lon="-112.024873">
    <ele>1485.0</ele>
    <name>Wire Pass Trailhead</name>
    <desc>Trailhead on House Rock Valley Road; BLM permit</desc>
  </wpt>
  <wpt lat="37.021193" lon="-112.007717">
    <ele>1469.8</ele>
    <name>Wire Pass slot canyon</name>
    <desc>Narrows of Wire Pass above the Buckskin confluence</desc>
  </wpt>
  <wpt lat="37.019903" lon="-112.002780">
    <ele>1453.2</ele>
    <name>Wire Pass / Buckskin Gulch confluence</name>
    <desc>Petroglyph panel; start of the 13-mile slot</desc>
  </wpt>
  <wpt lat="37.001570" lon="-111.865905">
    <ele>1343.0</ele>
    <name>Fri camp · Buckskin / Paria confluence</name>
    <desc>Only legal camp in Buckskin; Paria River</desc>
  </wpt>
  <wpt lat="37.074175" lon="-111.893639">
    <name>White House Spring</name>
    <desc>Spring in the Paria corridor below White House</desc>
  </wpt>
  <wpt lat="37.080600" lon="-111.890546">
    <ele>1320.0</ele>
    <name>White House Trailhead</name>
    <desc>Exit trailhead, Paria Contact Station road</desc>
  </wpt>
  <trk>
    <name>Buckskin Gulch: Wire Pass → White House</name>
    <trkseg>
      <trkpt lat="37.019108" lon="-112.024873"><ele>1485.0</ele></trkpt>
      <trkpt lat="37.019088" lon="-112.024810"><ele>1485.0</ele></trkpt>
      <trkpt lat="37.019072" lon="-112.024715"><ele>1485.0</ele></trkpt>
      <trkpt lat="37.019027" lon="-112.024533"><ele>1485.5</ele></trkpt>
      <trkpt lat="37.019010" lon="-112.024428"><ele>1485.8</ele></trkpt>
      <trkpt lat="37.019018" lon="-112.024329"><ele>1485.8</ele></trkpt>
      <trkpt lat="37.019402" lon="-112.024100"><ele>1486.0</ele></trkpt>
      <trkpt lat="37.019638" lon="-112.023891"><ele>1488.0</ele></trkpt>
      <trkpt lat="37.019766" lon="-112.023738"><ele>1487.5</ele></trkpt>
      <trkpt lat="37.019858" lon="-112.023521"><ele>1486.2</ele></trkpt>
      <trkpt lat="37.019912" lon="-112.023357"><ele>1484.8</ele></trkpt>
      <trkpt lat="37.019935" lon="-112.023039"><ele>1485.2</ele></trkpt>
      <trkpt lat="37.019989" lon="-112.022617"><ele>1485.8</ele></trkpt>
      <trkpt lat="37.020157" lon="-112.021967"><ele>1491.5</ele></trkpt>
      <trkpt lat="37.020388" lon="-112.020754"><ele>1487.2</ele></trkpt>
      <trkpt lat="37.020568" lon="-112.020197"><ele>1485.5</ele></trkpt>
      <trkpt lat="37.020569" lon="-112.020101"><ele>1485.2</ele></trkpt>
      <trkpt lat="37.020558" lon="-112.020008"><ele>1485.2</ele></trkpt>
      <trkpt lat="37.020522" lon="-112.019955"><ele>1485.5</ele></trkpt>
      <trkpt lat="37.020479" lon="-112.019926"><ele>1485.8</ele></trkpt>
      <trkpt lat="37.020377" lon="-112.019888"><ele>1485.8</ele></trkpt>
      <trkpt lat="37.019599" lon="-112.019975"><ele>1484.2</ele></trkpt>
      <trkpt lat="37.019277" lon="-112.020029"><ele>1483.8</ele></trkpt>
      <trkpt lat="37.019122" lon="-112.020028"><ele>1483.2</ele></trkpt>
      <trkpt lat="37.018968" lon="-112.019965"><ele>1482.5</ele></trkpt>
      <trkpt lat="37.018882" lon="-112.019875"><ele>1482.2</ele></trkpt>
      <trkpt lat="37.018838" lon="-112.019785"><ele>1482.0</ele></trkpt>
      <trkpt lat="37.018802" lon="-112.019650"><ele>1481.8</ele></trkpt>
      <trkpt lat="37.018764" lon="-112.019375"><ele>1481.2</ele></trkpt>
      <trkpt lat="37.018764" lon="-112.019146"><ele>1480.8</ele></trkpt>
      <trkpt lat="37.018813" lon="-112.018910"><ele>1480.8</ele></trkpt>
      <trkpt lat="37.018858" lon="-112.018744"><ele>1480.5</ele></trkpt>
      <trkpt lat="37.018933" lon="-112.018593"><ele>1479.8</ele></trkpt>
      <trkpt lat="37.019071" lon="-112.018377"><ele>1478.0</ele></trkpt>
      <trkpt lat="37.019265" lon="-112.018204"><ele>1478.5</ele></trkpt>
      <trkpt lat="37.019630" lon="-112.018086"><ele>1480.2</ele></trkpt>
      <trkpt lat="37.019841" lon="-112.018082"><ele>1480.5</ele></trkpt>
      <trkpt lat="37.020081" lon="-112.018129"><ele>1480.8</ele></trkpt>
      <trkpt lat="37.020418" lon="-112.018172"><ele>1482.5</ele></trkpt>
      <trkpt lat="37.020492" lon="-112.018156"><ele>1483.0</ele></trkpt>
      <trkpt lat="37.020560" lon="-112.018110"><ele>1483.2</ele></trkpt>
      <trkpt lat="37.020629" lon="-112.018023"><ele>1483.0</ele></trkpt>
      <trkpt lat="37.020686" lon="-112.017921"><ele>1482.2</ele></trkpt>
      <trkpt lat="37.020789" lon="-112.017622"><ele>1479.5</ele></trkpt>
      <trkpt lat="37.020972" lon="-112.017318"><ele>1480.0</ele></trkpt>
      <trkpt lat="37.021080" lon="-112.017040"><ele>1480.2</ele></trkpt>
      <trkpt lat="37.021158" lon="-112.016610"><ele>1479.2</ele></trkpt>
      <trkpt lat="37.021268" lon="-112.016402"><ele>1480.8</ele></trkpt>
      <trkpt lat="37.021429" lon="-112.016224"><ele>1480.0</ele></trkpt>
      <trkpt lat="37.021861" lon="-112.015860"><ele>1477.5</ele></trkpt>
      <trkpt lat="37.021981" lon="-112.015744"><ele>1478.8</ele></trkpt>
      <trkpt lat="37.022078" lon="-112.015604"><ele>1479.0</ele></trkpt>
      <trkpt lat="37.022156" lon="-112.015411"><ele>1478.8</ele></trkpt>
      <trkpt lat="37.022214" lon="-112.015199"><ele>1477.8</ele></trkpt>
      <trkpt lat="37.022274" lon="-112.014916"><ele>1476.0</ele></trkpt>
      <trkpt lat="37.022315" lon="-112.014629"><ele>1473.8</ele></trkpt>
      <trkpt lat="37.022289" lon="-112.014373"><ele>1471.5</ele></trkpt>
      <trkpt lat="37.022231" lon="-112.014043"><ele>1469.8</ele></trkpt>
      <trkpt lat="37.022124" lon="-112.013859"><ele>1470.0</ele></trkpt>
      <trkpt lat="37.022011" lon="-112.013754"><ele>1469.8</ele></trkpt>
      <trkpt lat="37.021828" lon="-112.013672"><ele>1469.0</ele></trkpt>
      <trkpt lat="37.021498" lon="-112.013640"><ele>1468.8</ele></trkpt>
      <trkpt lat="37.021203" lon="-112.013671"><ele>1469.0</ele></trkpt>
      <trkpt lat="37.020947" lon="-112.013784"><ele>1469.8</ele></trkpt>
      <trkpt lat="37.020838" lon="-112.013790"><ele>1470.0</ele></trkpt>
      <trkpt lat="37.020729" lon="-112.013746"><ele>1470.8</ele></trkpt>
      <trkpt lat="37.020635" lon="-112.013678"><ele>1471.0</ele></trkpt>
      <trkpt lat="37.020563" lon="-112.013543"><ele>1470.8</ele></trkpt>
      <trkpt lat="37.020540" lon="-112.013322"><ele>1469.5</ele></trkpt>
      <trkpt lat="37.020537" lon="-112.013049"><ele>1470.0</ele></trkpt>
      <trkpt lat="37.020639" lon="-112.012541"><ele>1470.0</ele></trkpt>
      <trkpt lat="37.020739" lon="-112.012274"><ele>1469.0</ele></trkpt>
      <trkpt lat="37.020710" lon="-112.012169"><ele>1468.8</ele></trkpt>
      <trkpt lat="37.020531" lon="-112.011945"><ele>1469.2</ele></trkpt>
      <trkpt lat="37.020466" lon="-112.011511"><ele>1468.5</ele></trkpt>
      <trkpt lat="37.020548" lon="-112.011215"><ele>1466.5</ele></trkpt>
      <trkpt lat="37.020699" lon="-112.010901"><ele>1463.5</ele></trkpt>
      <trkpt lat="37.020816" lon="-112.010588"><ele>1461.8</ele></trkpt>
      <trkpt lat="37.020925" lon="-112.010142"><ele>1461.8</ele></trkpt>
      <trkpt lat="37.020925" lon="-112.009852"><ele>1462.0</ele></trkpt>
      <trkpt lat="37.020840" lon="-112.009376"><ele>1463.8</ele></trkpt>
      <trkpt lat="37.020947" lon="-112.009118"><ele>1465.0</ele></trkpt>
      <trkpt lat="37.021117" lon="-112.008947"><ele>1466.0</ele></trkpt>
      <trkpt lat="37.021171" lon="-112.008709"><ele>1467.8</ele></trkpt>
      <trkpt lat="37.021201" lon="-112.008304"><ele>1470.5</ele></trkpt>
      <trkpt lat="37.021244" lon="-112.008167"><ele>1470.2</ele></trkpt>
      <trkpt lat="37.021247" lon="-112.007830"><ele>1470.0</ele></trkpt>
      <trkpt lat="37.021193" lon="-112.007717"><ele>1469.8</ele></trkpt>
      <trkpt lat="37.021056" lon="-112.007661"><ele>1469.0</ele></trkpt>
      <trkpt lat="37.020957" lon="-112.007584"><ele>1468.2</ele></trkpt>
      <trkpt lat="37.020842" lon="-112.007176"><ele>1466.5</ele></trkpt>
      <trkpt lat="37.020645" lon="-112.006746"><ele>1467.2</ele></trkpt>
      <trkpt lat="37.020491" lon="-112.006552"><ele>1466.5</ele></trkpt>
      <trkpt lat="37.020068" lon="-112.006021"><ele>1455.5</ele></trkpt>
      <trkpt lat="37.019888" lon="-112.005825"><ele>1452.8</ele></trkpt>
      <trkpt lat="37.019800" lon="-112.005485"><ele>1454.2</ele></trkpt>
      <trkpt lat="37.019699" lon="-112.005225"><ele>1454.5</ele></trkpt>
      <trkpt lat="37.019623" lon="-112.005069"><ele>1453.8</ele></trkpt>
      <trkpt lat="37.019604" lon="-112.004959"><ele>1453.8</ele></trkpt>
      <trkpt lat="37.019521" lon="-112.004840"><ele>1455.5</ele></trkpt>
      <trkpt lat="37.019428" lon="-112.004536"><ele>1459.2</ele></trkpt>
      <trkpt lat="37.019395" lon="-112.004300"><ele>1462.5</ele></trkpt>
      <trkpt lat="37.019404" lon="-112.004051"><ele>1463.8</ele></trkpt>
      <trkpt lat="37.019479" lon="-112.003716"><ele>1462.2</ele></trkpt>
      <trkpt lat="37.019547" lon="-112.003532"><ele>1461.0</ele></trkpt>
      <trkpt lat="37.019818" lon="-112.003051"><ele>1455.2</ele></trkpt>
      <trkpt lat="37.019903" lon="-112.002780"><ele>1453.2</ele></trkpt>
      <trkpt lat="37.019154" lon="-112.002554"><ele>1452.0</ele></trkpt>
      <trkpt lat="37.018793" lon="-112.002306"><ele>1458.5</ele></trkpt>
      <trkpt lat="37.018537" lon="-112.002288"><ele>1461.8</ele></trkpt>
      <trkpt lat="37.018055" lon="-112.002016"><ele>1461.2</ele></trkpt>
      <trkpt lat="37.017667" lon="-112.001929"><ele>1460.5</ele></trkpt>
      <trkpt lat="37.017154" lon="-112.002009"><ele>1461.2</ele></trkpt>
      <trkpt lat="37.015945" lon="-112.002052"><ele>1461.5</ele></trkpt>
      <trkpt lat="37.015738" lon="-112.001823"><ele>1459.8</ele></trkpt>
      <trkpt lat="37.015546" lon="-112.001823"><ele>1459.5</ele></trkpt>
      <trkpt lat="37.015044" lon="-112.001972"><ele>1459.0</ele></trkpt>
      <trkpt lat="37.014683" lon="-112.001929"><ele>1458.5</ele></trkpt>
      <trkpt lat="37.014358" lon="-112.001763"><ele>1456.0</ele></trkpt>
      <trkpt lat="37.013965" lon="-112.001450"><ele>1457.2</ele></trkpt>
      <trkpt lat="37.013388" lon="-112.001290"><ele>1459.8</ele></trkpt>
      <trkpt lat="37.013133" lon="-112.000501"><ele>1465.2</ele></trkpt>
      <trkpt lat="37.012958" lon="-111.999559"><ele>1471.2</ele></trkpt>
      <trkpt lat="37.012891" lon="-111.998604"><ele>1473.2</ele></trkpt>
      <trkpt lat="37.012602" lon="-111.997934"><ele>1472.8</ele></trkpt>
      <trkpt lat="37.012232" lon="-111.997801"><ele>1471.0</ele></trkpt>
      <trkpt lat="37.011948" lon="-111.998088"><ele>1469.0</ele></trkpt>
      <trkpt lat="37.011812" lon="-111.998427"><ele>1468.0</ele></trkpt>
      <trkpt lat="37.011347" lon="-111.998553"><ele>1468.5</ele></trkpt>
      <trkpt lat="37.010884" lon="-111.998101"><ele>1465.5</ele></trkpt>
      <trkpt lat="37.010810" lon="-111.997841"><ele>1462.8</ele></trkpt>
      <trkpt lat="37.010419" lon="-111.997365"><ele>1460.2</ele></trkpt>
      <trkpt lat="37.009465" lon="-111.996500"><ele>1453.8</ele></trkpt>
      <trkpt lat="37.009151" lon="-111.996133"><ele>1450.2</ele></trkpt>
      <trkpt lat="37.008835" lon="-111.995984"><ele>1447.2</ele></trkpt>
      <trkpt lat="37.008795" lon="-111.995556"><ele>1449.2</ele></trkpt>
      <trkpt lat="37.008568" lon="-111.995253"><ele>1451.0</ele></trkpt>
      <trkpt lat="37.007934" lon="-111.995165"><ele>1454.5</ele></trkpt>
      <trkpt lat="37.007610" lon="-111.994532"><ele>1465.0</ele></trkpt>
      <trkpt lat="37.009109" lon="-111.989410"><ele>1460.2</ele></trkpt>
      <trkpt lat="37.009542" lon="-111.988531"><ele>1471.0</ele></trkpt>
      <trkpt lat="37.009986" lon="-111.988365"><ele>1467.8</ele></trkpt>
      <trkpt lat="37.010534" lon="-111.988461"><ele>1465.5</ele></trkpt>
      <trkpt lat="37.011006" lon="-111.988906"><ele>1466.5</ele></trkpt>
      <trkpt lat="37.011187" lon="-111.988903"><ele>1465.0</ele></trkpt>
      <trkpt lat="37.011326" lon="-111.988776"><ele>1462.2</ele></trkpt>
      <trkpt lat="37.011596" lon="-111.988194"><ele>1454.2</ele></trkpt>
      <trkpt lat="37.011733" lon="-111.988058"><ele>1455.2</ele></trkpt>
      <trkpt lat="37.012503" lon="-111.987842"><ele>1453.5</ele></trkpt>
      <trkpt lat="37.012841" lon="-111.987359"><ele>1457.2</ele></trkpt>
      <trkpt lat="37.012992" lon="-111.987013"><ele>1461.8</ele></trkpt>
      <trkpt lat="37.012952" lon="-111.986735"><ele>1465.0</ele></trkpt>
      <trkpt lat="37.012774" lon="-111.986284"><ele>1466.0</ele></trkpt>
      <trkpt lat="37.012728" lon="-111.985869"><ele>1465.8</ele></trkpt>
      <trkpt lat="37.012730" lon="-111.985480"><ele>1463.2</ele></trkpt>
      <trkpt lat="37.012971" lon="-111.985179"><ele>1461.0</ele></trkpt>
      <trkpt lat="37.013088" lon="-111.984989"><ele>1460.0</ele></trkpt>
      <trkpt lat="37.013091" lon="-111.984540"><ele>1461.2</ele></trkpt>
      <trkpt lat="37.013054" lon="-111.984395"><ele>1461.5</ele></trkpt>
      <trkpt lat="37.012935" lon="-111.984284"><ele>1461.0</ele></trkpt>
      <trkpt lat="37.012368" lon="-111.984137"><ele>1460.8</ele></trkpt>
      <trkpt lat="37.012182" lon="-111.983993"><ele>1467.0</ele></trkpt>
      <trkpt lat="37.012149" lon="-111.983601"><ele>1471.2</ele></trkpt>
      <trkpt lat="37.012551" lon="-111.981997"><ele>1469.2</ele></trkpt>
      <trkpt lat="37.012748" lon="-111.980492"><ele>1458.2</ele></trkpt>
      <trkpt lat="37.012593" lon="-111.979966"><ele>1457.5</ele></trkpt>
      <trkpt lat="37.012456" lon="-111.979821"><ele>1455.0</ele></trkpt>
      <trkpt lat="37.012078" lon="-111.979663"><ele>1448.0</ele></trkpt>
      <trkpt lat="37.011617" lon="-111.979623"><ele>1441.8</ele></trkpt>
      <trkpt lat="37.011344" lon="-111.979403"><ele>1447.5</ele></trkpt>
      <trkpt lat="37.011238" lon="-111.979034"><ele>1447.2</ele></trkpt>
      <trkpt lat="37.011437" lon="-111.977623"><ele>1450.5</ele></trkpt>
      <trkpt lat="37.011756" lon="-111.976751"><ele>1464.5</ele></trkpt>
      <trkpt lat="37.011839" lon="-111.976645"><ele>1465.8</ele></trkpt>
      <trkpt lat="37.011975" lon="-111.976448"><ele>1465.8</ele></trkpt>
      <trkpt lat="37.012227" lon="-111.976341"><ele>1463.0</ele></trkpt>
      <trkpt lat="37.012562" lon="-111.976343"><ele>1459.0</ele></trkpt>
      <trkpt lat="37.012814" lon="-111.976358"><ele>1458.0</ele></trkpt>
      <trkpt lat="37.013681" lon="-111.976201"><ele>1455.5</ele></trkpt>
      <trkpt lat="37.014789" lon="-111.975712"><ele>1451.0</ele></trkpt>
      <trkpt lat="37.015395" lon="-111.975413"><ele>1451.8</ele></trkpt>
      <trkpt lat="37.015860" lon="-111.975386"><ele>1448.0</ele></trkpt>
      <trkpt lat="37.016184" lon="-111.975063"><ele>1445.5</ele></trkpt>
      <trkpt lat="37.016712" lon="-111.974283"><ele>1439.0</ele></trkpt>
      <trkpt lat="37.016929" lon="-111.973352"><ele>1452.8</ele></trkpt>
      <trkpt lat="37.017383" lon="-111.972273"><ele>1449.2</ele></trkpt>
      <trkpt lat="37.017883" lon="-111.971917"><ele>1446.5</ele></trkpt>
      <trkpt lat="37.018133" lon="-111.971971"><ele>1445.5</ele></trkpt>
      <trkpt lat="37.018380" lon="-111.971911"><ele>1444.0</ele></trkpt>
      <trkpt lat="37.018539" lon="-111.971664"><ele>1440.5</ele></trkpt>
      <trkpt lat="37.018786" lon="-111.971665"><ele>1437.5</ele></trkpt>
      <trkpt lat="37.019023" lon="-111.971678"><ele>1434.8</ele></trkpt>
      <trkpt lat="37.019172" lon="-111.971408"><ele>1436.2</ele></trkpt>
      <trkpt lat="37.019520" lon="-111.971208"><ele>1437.2</ele></trkpt>
      <trkpt lat="37.019669" lon="-111.970849"><ele>1437.8</ele></trkpt>
      <trkpt lat="37.019573" lon="-111.970386"><ele>1441.8</ele></trkpt>
      <trkpt lat="37.019573" lon="-111.969973"><ele>1444.2</ele></trkpt>
      <trkpt lat="37.019865" lon="-111.968928"><ele>1440.2</ele></trkpt>
      <trkpt lat="37.020054" lon="-111.968808"><ele>1437.5</ele></trkpt>
      <trkpt lat="37.020176" lon="-111.968469"><ele>1439.0</ele></trkpt>
      <trkpt lat="37.020524" lon="-111.968392"><ele>1437.2</ele></trkpt>
      <trkpt lat="37.020758" lon="-111.968216"><ele>1436.0</ele></trkpt>
      <trkpt lat="37.021099" lon="-111.967174"><ele>1438.8</ele></trkpt>
      <trkpt lat="37.021165" lon="-111.966089"><ele>1434.8</ele></trkpt>
      <trkpt lat="37.021293" lon="-111.965057"><ele>1427.8</ele></trkpt>
      <trkpt lat="37.020580" lon="-111.964388"><ele>1438.5</ele></trkpt>
      <trkpt lat="37.020965" lon="-111.962409"><ele>1434.5</ele></trkpt>
      <trkpt lat="37.021337" lon="-111.960260"><ele>1438.0</ele></trkpt>
      <trkpt lat="37.021551" lon="-111.959896"><ele>1430.2</ele></trkpt>
      <trkpt lat="37.021521" lon="-111.959655"><ele>1431.5</ele></trkpt>
      <trkpt lat="37.021381" lon="-111.959342"><ele>1434.8</ele></trkpt>
      <trkpt lat="37.021236" lon="-111.958780"><ele>1437.5</ele></trkpt>
      <trkpt lat="37.021216" lon="-111.957966"><ele>1433.8</ele></trkpt>
      <trkpt lat="37.021071" lon="-111.957249"><ele>1430.0</ele></trkpt>
      <trkpt lat="37.021425" lon="-111.955940"><ele>1429.2</ele></trkpt>
      <trkpt lat="37.021675" lon="-111.954029"><ele>1413.2</ele></trkpt>
      <trkpt lat="37.021124" lon="-111.953344"><ele>1430.5</ele></trkpt>
      <trkpt lat="37.021093" lon="-111.953193"><ele>1431.8</ele></trkpt>
      <trkpt lat="37.021107" lon="-111.953111"><ele>1431.5</ele></trkpt>
      <trkpt lat="37.021452" lon="-111.952298"><ele>1424.0</ele></trkpt>
      <trkpt lat="37.021686" lon="-111.950498"><ele>1420.8</ele></trkpt>
      <trkpt lat="37.022377" lon="-111.949905"><ele>1417.0</ele></trkpt>
      <trkpt lat="37.022531" lon="-111.949602"><ele>1417.5</ele></trkpt>
      <trkpt lat="37.022760" lon="-111.949372"><ele>1416.5</ele></trkpt>
      <trkpt lat="37.022938" lon="-111.949036"><ele>1415.2</ele></trkpt>
      <trkpt lat="37.023246" lon="-111.948860"><ele>1411.2</ele></trkpt>
      <trkpt lat="37.023501" lon="-111.948653"><ele>1411.0</ele></trkpt>
      <trkpt lat="37.023777" lon="-111.947645"><ele>1412.8</ele></trkpt>
      <trkpt lat="37.024017" lon="-111.945954"><ele>1407.5</ele></trkpt>
      <trkpt lat="37.024051" lon="-111.945205"><ele>1407.2</ele></trkpt>
      <trkpt lat="37.024233" lon="-111.944755"><ele>1404.0</ele></trkpt>
      <trkpt lat="37.024240" lon="-111.944419"><ele>1405.0</ele></trkpt>
      <trkpt lat="37.024346" lon="-111.944018"><ele>1404.0</ele></trkpt>
      <trkpt lat="37.024629" lon="-111.943835"><ele>1398.0</ele></trkpt>
      <trkpt lat="37.024871" lon="-111.942873"><ele>1389.5</ele></trkpt>
      <trkpt lat="37.025133" lon="-111.942733"><ele>1386.8</ele></trkpt>
      <trkpt lat="37.025179" lon="-111.942189"><ele>1390.5</ele></trkpt>
      <trkpt lat="37.025366" lon="-111.941617"><ele>1393.5</ele></trkpt>
      <trkpt lat="37.025607" lon="-111.941430"><ele>1391.0</ele></trkpt>
      <trkpt lat="37.025748" lon="-111.941069"><ele>1390.0</ele></trkpt>
      <trkpt lat="37.025829" lon="-111.940628"><ele>1389.8</ele></trkpt>
      <trkpt lat="37.026023" lon="-111.939709"><ele>1394.0</ele></trkpt>
      <trkpt lat="37.026469" lon="-111.939636"><ele>1388.0</ele></trkpt>
      <trkpt lat="37.027431" lon="-111.938564"><ele>1383.2</ele></trkpt>
      <trkpt lat="37.027745" lon="-111.937899"><ele>1388.2</ele></trkpt>
      <trkpt lat="37.028128" lon="-111.937172"><ele>1386.2</ele></trkpt>
      <trkpt lat="37.028101" lon="-111.936507"><ele>1386.5</ele></trkpt>
      <trkpt lat="37.028452" lon="-111.936021"><ele>1384.2</ele></trkpt>
      <trkpt lat="37.028569" lon="-111.935156"><ele>1387.5</ele></trkpt>
      <trkpt lat="37.028755" lon="-111.934609"><ele>1388.2</ele></trkpt>
      <trkpt lat="37.028601" lon="-111.934090"><ele>1391.8</ele></trkpt>
      <trkpt lat="37.028845" lon="-111.932246"><ele>1384.0</ele></trkpt>
      <trkpt lat="37.029419" lon="-111.932120"><ele>1379.0</ele></trkpt>
      <trkpt lat="37.029627" lon="-111.931421"><ele>1376.5</ele></trkpt>
      <trkpt lat="37.029898" lon="-111.930935"><ele>1373.2</ele></trkpt>
      <trkpt lat="37.030169" lon="-111.930329"><ele>1375.8</ele></trkpt>
      <trkpt lat="37.030551" lon="-111.929976"><ele>1374.5</ele></trkpt>
      <trkpt lat="37.030674" lon="-111.929370"><ele>1375.0</ele></trkpt>
      <trkpt lat="37.030998" lon="-111.928844"><ele>1376.2</ele></trkpt>
      <trkpt lat="37.031210" lon="-111.928685"><ele>1376.0</ele></trkpt>
      <trkpt lat="37.031460" lon="-111.928578"><ele>1373.2</ele></trkpt>
      <trkpt lat="37.031620" lon="-111.928219"><ele>1369.8</ele></trkpt>
      <trkpt lat="37.031774" lon="-111.927819"><ele>1369.8</ele></trkpt>
      <trkpt lat="37.031869" lon="-111.927446"><ele>1370.5</ele></trkpt>
      <trkpt lat="37.031805" lon="-111.927053"><ele>1368.2</ele></trkpt>
      <trkpt lat="37.031622" lon="-111.926793"><ele>1365.5</ele></trkpt>
      <trkpt lat="37.031310" lon="-111.926585"><ele>1365.5</ele></trkpt>
      <trkpt lat="37.030934" lon="-111.926642"><ele>1366.5</ele></trkpt>
      <trkpt lat="37.030632" lon="-111.926493"><ele>1374.5</ele></trkpt>
      <trkpt lat="37.030620" lon="-111.925841"><ele>1369.5</ele></trkpt>
      <trkpt lat="37.030647" lon="-111.925161"><ele>1363.2</ele></trkpt>
      <trkpt lat="37.030442" lon="-111.924550"><ele>1364.8</ele></trkpt>
      <trkpt lat="37.030494" lon="-111.924234"><ele>1359.0</ele></trkpt>
      <trkpt lat="37.030263" lon="-111.923833"><ele>1361.0</ele></trkpt>
      <trkpt lat="37.030366" lon="-111.923369"><ele>1356.2</ele></trkpt>
      <trkpt lat="37.030727" lon="-111.923237"><ele>1352.5</ele></trkpt>
      <trkpt lat="37.030663" lon="-111.923009"><ele>1354.2</ele></trkpt>
      <trkpt lat="37.030697" lon="-111.922485"><ele>1356.0</ele></trkpt>
      <trkpt lat="37.031026" lon="-111.922089"><ele>1353.5</ele></trkpt>
      <trkpt lat="37.031129" lon="-111.921531"><ele>1356.0</ele></trkpt>
      <trkpt lat="37.030982" lon="-111.921404"><ele>1354.5</ele></trkpt>
      <trkpt lat="37.030753" lon="-111.921362"><ele>1353.0</ele></trkpt>
      <trkpt lat="37.030344" lon="-111.921049"><ele>1357.0</ele></trkpt>
      <trkpt lat="37.030216" lon="-111.920623"><ele>1355.5</ele></trkpt>
      <trkpt lat="37.029812" lon="-111.920130"><ele>1354.0</ele></trkpt>
      <trkpt lat="37.029409" lon="-111.920097"><ele>1359.2</ele></trkpt>
      <trkpt lat="37.029212" lon="-111.919777"><ele>1357.8</ele></trkpt>
      <trkpt lat="37.029265" lon="-111.919344"><ele>1353.0</ele></trkpt>
      <trkpt lat="37.029058" lon="-111.918958"><ele>1354.2</ele></trkpt>
      <trkpt lat="37.028670" lon="-111.918705"><ele>1359.8</ele></trkpt>
      <trkpt lat="37.028261" lon="-111.918579"><ele>1364.2</ele></trkpt>
      <trkpt lat="37.028103" lon="-111.918414"><ele>1370.5</ele></trkpt>
      <trkpt lat="37.028079" lon="-111.918292"><ele>1371.0</ele></trkpt>
      <trkpt lat="37.028633" lon="-111.915643"><ele>1358.2</ele></trkpt>
      <trkpt lat="37.028202" lon="-111.915210"><ele>1359.2</ele></trkpt>
      <trkpt lat="37.027841" lon="-111.914658"><ele>1362.0</ele></trkpt>
      <trkpt lat="37.027399" lon="-111.914497"><ele>1361.0</ele></trkpt>
      <trkpt lat="37.026725" lon="-111.914391"><ele>1358.5</ele></trkpt>
      <trkpt lat="37.026315" lon="-111.913925"><ele>1362.5</ele></trkpt>
      <trkpt lat="37.026400" lon="-111.913406"><ele>1356.8</ele></trkpt>
      <trkpt lat="37.026283" lon="-111.913166"><ele>1358.0</ele></trkpt>
      <trkpt lat="37.025561" lon="-111.913266"><ele>1361.2</ele></trkpt>
      <trkpt lat="37.024178" lon="-111.912390"><ele>1366.0</ele></trkpt>
      <trkpt lat="37.023472" lon="-111.912133"><ele>1367.5</ele></trkpt>
      <trkpt lat="37.022888" lon="-111.911397"><ele>1363.5</ele></trkpt>
      <trkpt lat="37.022498" lon="-111.911463"><ele>1364.5</ele></trkpt>
      <trkpt lat="37.022326" lon="-111.911890"><ele>1371.8</ele></trkpt>
      <trkpt lat="37.021802" lon="-111.911612"><ele>1378.2</ele></trkpt>
      <trkpt lat="37.021514" lon="-111.911076"><ele>1374.8</ele></trkpt>
      <trkpt lat="37.021168" lon="-111.910662"><ele>1371.8</ele></trkpt>
      <trkpt lat="37.020885" lon="-111.910524"><ele>1373.2</ele></trkpt>
      <trkpt lat="37.020528" lon="-111.910681"><ele>1372.2</ele></trkpt>
      <trkpt lat="37.020251" lon="-111.910935"><ele>1377.0</ele></trkpt>
      <trkpt lat="37.019997" lon="-111.910890"><ele>1378.8</ele></trkpt>
      <trkpt lat="37.019549" lon="-111.910464"><ele>1390.0</ele></trkpt>
      <trkpt lat="37.019162" lon="-111.910243"><ele>1394.8</ele></trkpt>
      <trkpt lat="37.018923" lon="-111.909678"><ele>1384.0</ele></trkpt>
      <trkpt lat="37.018834" lon="-111.909223"><ele>1376.5</ele></trkpt>
      <trkpt lat="37.018624" lon="-111.909084"><ele>1376.0</ele></trkpt>
      <trkpt lat="37.018248" lon="-111.909314"><ele>1377.0</ele></trkpt>
      <trkpt lat="37.017780" lon="-111.909277"><ele>1378.0</ele></trkpt>
      <trkpt lat="37.017309" lon="-111.908877"><ele>1379.2</ele></trkpt>
      <trkpt lat="37.017338" lon="-111.908382"><ele>1378.8</ele></trkpt>
      <trkpt lat="37.016946" lon="-111.907785"><ele>1382.8</ele></trkpt>
      <trkpt lat="37.016699" lon="-111.907248"><ele>1381.8</ele></trkpt>
      <trkpt lat="37.016383" lon="-111.907020"><ele>1383.8</ele></trkpt>
      <trkpt lat="37.015838" lon="-111.906742"><ele>1381.0</ele></trkpt>
      <trkpt lat="37.015791" lon="-111.906649"><ele>1379.8</ele></trkpt>
      <trkpt lat="37.015414" lon="-111.906163"><ele>1377.2</ele></trkpt>
      <trkpt lat="37.014870" lon="-111.905994"><ele>1378.0</ele></trkpt>
      <trkpt lat="37.014694" lon="-111.905885"><ele>1383.8</ele></trkpt>
      <trkpt lat="37.014830" lon="-111.904824"><ele>1374.2</ele></trkpt>
      <trkpt lat="37.015009" lon="-111.904056"><ele>1368.2</ele></trkpt>
      <trkpt lat="37.015148" lon="-111.902511"><ele>1369.2</ele></trkpt>
      <trkpt lat="37.014952" lon="-111.902353"><ele>1369.8</ele></trkpt>
      <trkpt lat="37.014764" lon="-111.902065"><ele>1376.0</ele></trkpt>
      <trkpt lat="37.014842" lon="-111.901443"><ele>1374.8</ele></trkpt>
      <trkpt lat="37.015399" lon="-111.901285"><ele>1367.0</ele></trkpt>
      <trkpt lat="37.015572" lon="-111.900632"><ele>1365.5</ele></trkpt>
      <trkpt lat="37.015738" lon="-111.900484"><ele>1360.5</ele></trkpt>
      <trkpt lat="37.015711" lon="-111.899892"><ele>1359.2</ele></trkpt>
      <trkpt lat="37.015552" lon="-111.899659"><ele>1364.8</ele></trkpt>
      <trkpt lat="37.015174" lon="-111.898207"><ele>1367.8</ele></trkpt>
      <trkpt lat="37.013537" lon="-111.896510"><ele>1375.2</ele></trkpt>
      <trkpt lat="37.013500" lon="-111.895804"><ele>1374.8</ele></trkpt>
      <trkpt lat="37.013819" lon="-111.895558"><ele>1370.0</ele></trkpt>
      <trkpt lat="37.014171" lon="-111.895154"><ele>1364.2</ele></trkpt>
      <trkpt lat="37.014430" lon="-111.894273"><ele>1369.2</ele></trkpt>
      <trkpt lat="37.015019" lon="-111.893856"><ele>1364.2</ele></trkpt>
      <trkpt lat="37.015472" lon="-111.893687"><ele>1362.5</ele></trkpt>
      <trkpt lat="37.015937" lon="-111.893248"><ele>1359.8</ele></trkpt>
      <trkpt lat="37.016179" lon="-111.892742"><ele>1359.8</ele></trkpt>
      <trkpt lat="37.016296" lon="-111.892282"><ele>1357.5</ele></trkpt>
      <trkpt lat="37.016333" lon="-111.891830"><ele>1355.0</ele></trkpt>
      <trkpt lat="37.016275" lon="-111.891563"><ele>1354.0</ele></trkpt>
      <trkpt lat="37.016099" lon="-111.891377"><ele>1353.0</ele></trkpt>
      <trkpt lat="37.015792" lon="-111.891324"><ele>1351.2</ele></trkpt>
      <trkpt lat="37.015302" lon="-111.891312"><ele>1362.2</ele></trkpt>
      <trkpt lat="37.015194" lon="-111.891220"><ele>1364.5</ele></trkpt>
      <trkpt lat="37.015286" lon="-111.889696"><ele>1360.2</ele></trkpt>
      <trkpt lat="37.015568" lon="-111.889513"><ele>1355.0</ele></trkpt>
      <trkpt lat="37.015834" lon="-111.889286"><ele>1351.5</ele></trkpt>
      <trkpt lat="37.016259" lon="-111.888724"><ele>1352.0</ele></trkpt>
      <trkpt lat="37.016238" lon="-111.888175"><ele>1352.8</ele></trkpt>
      <trkpt lat="37.016038" lon="-111.887442"><ele>1358.8</ele></trkpt>
      <trkpt lat="37.016155" lon="-111.887086"><ele>1356.8</ele></trkpt>
      <trkpt lat="37.016243" lon="-111.886490"><ele>1353.8</ele></trkpt>
      <trkpt lat="37.016378" lon="-111.885998"><ele>1349.8</ele></trkpt>
      <trkpt lat="37.016255" lon="-111.885378"><ele>1354.8</ele></trkpt>
      <trkpt lat="37.016163" lon="-111.885052"><ele>1357.2</ele></trkpt>
      <trkpt lat="37.016216" lon="-111.884104"><ele>1353.0</ele></trkpt>
      <trkpt lat="37.016376" lon="-111.883581"><ele>1350.5</ele></trkpt>
      <trkpt lat="37.016216" lon="-111.882867"><ele>1355.5</ele></trkpt>
      <trkpt lat="37.016259" lon="-111.882416"><ele>1355.2</ele></trkpt>
      <trkpt lat="37.016540" lon="-111.881874"><ele>1346.2</ele></trkpt>
      <trkpt lat="37.016822" lon="-111.881521"><ele>1344.5</ele></trkpt>
      <trkpt lat="37.016942" lon="-111.881141"><ele>1348.5</ele></trkpt>
      <trkpt lat="37.016843" lon="-111.880256"><ele>1349.8</ele></trkpt>
      <trkpt lat="37.016846" lon="-111.879577"><ele>1345.5</ele></trkpt>
      <trkpt lat="37.016519" lon="-111.879157"><ele>1343.0</ele></trkpt>
      <trkpt lat="37.016232" lon="-111.879024"><ele>1350.2</ele></trkpt>
      <trkpt lat="37.016079" lon="-111.878872"><ele>1352.8</ele></trkpt>
      <trkpt lat="37.016101" lon="-111.878671"><ele>1350.2</ele></trkpt>
      <trkpt lat="37.016256" lon="-111.878452"><ele>1345.8</ele></trkpt>
      <trkpt lat="37.016450" lon="-111.878089"><ele>1343.2</ele></trkpt>
      <trkpt lat="37.016418" lon="-111.877769"><ele>1345.0</ele></trkpt>
      <trkpt lat="37.016216" lon="-111.877443"><ele>1345.2</ele></trkpt>
      <trkpt lat="37.015773" lon="-111.877336"><ele>1344.5</ele></trkpt>
      <trkpt lat="37.015249" lon="-111.877386"><ele>1347.5</ele></trkpt>
      <trkpt lat="37.015032" lon="-111.877493"><ele>1347.8</ele></trkpt>
      <trkpt lat="37.014948" lon="-111.877654"><ele>1346.8</ele></trkpt>
      <trkpt lat="37.014834" lon="-111.878264"><ele>1344.8</ele></trkpt>
      <trkpt lat="37.014637" lon="-111.878663"><ele>1350.5</ele></trkpt>
      <trkpt lat="37.014340" lon="-111.878794"><ele>1352.8</ele></trkpt>
      <trkpt lat="37.014095" lon="-111.878727"><ele>1354.2</ele></trkpt>
      <trkpt lat="37.013885" lon="-111.878406"><ele>1357.2</ele></trkpt>
      <trkpt lat="37.013895" lon="-111.877697"><ele>1350.2</ele></trkpt>
      <trkpt lat="37.013861" lon="-111.877499"><ele>1349.2</ele></trkpt>
      <trkpt lat="37.013714" lon="-111.877252"><ele>1353.0</ele></trkpt>
      <trkpt lat="37.013223" lon="-111.876916"><ele>1360.8</ele></trkpt>
      <trkpt lat="37.013106" lon="-111.876566"><ele>1363.8</ele></trkpt>
      <trkpt lat="37.013256" lon="-111.875976"><ele>1353.5</ele></trkpt>
      <trkpt lat="37.013223" lon="-111.875261"><ele>1352.0</ele></trkpt>
      <trkpt lat="37.013042" lon="-111.874488"><ele>1356.8</ele></trkpt>
      <trkpt lat="37.013040" lon="-111.872144"><ele>1337.8</ele></trkpt>
      <trkpt lat="37.013212" lon="-111.871909"><ele>1330.8</ele></trkpt>
      <trkpt lat="37.013442" lon="-111.871435"><ele>1328.2</ele></trkpt>
      <trkpt lat="37.013390" lon="-111.870930"><ele>1329.0</ele></trkpt>
      <trkpt lat="37.013144" lon="-111.870346"><ele>1336.5</ele></trkpt>
      <trkpt lat="37.012779" lon="-111.870348"><ele>1339.8</ele></trkpt>
      <trkpt lat="37.011993" lon="-111.870589"><ele>1342.2</ele></trkpt>
      <trkpt lat="37.011988" lon="-111.870666"><ele>1341.5</ele></trkpt>
      <trkpt lat="37.011670" lon="-111.871077"><ele>1340.0</ele></trkpt>
      <trkpt lat="37.011320" lon="-111.871255"><ele>1343.8</ele></trkpt>
      <trkpt lat="37.011354" lon="-111.871621"><ele>1343.2</ele></trkpt>
      <trkpt lat="37.011159" lon="-111.871905"><ele>1348.2</ele></trkpt>
      <trkpt lat="37.010965" lon="-111.872583"><ele>1355.0</ele></trkpt>
      <trkpt lat="37.010578" lon="-111.872589"><ele>1358.0</ele></trkpt>
      <trkpt lat="37.010274" lon="-111.872135"><ele>1356.8</ele></trkpt>
      <trkpt lat="37.010020" lon="-111.871611"><ele>1351.2</ele></trkpt>
      <trkpt lat="37.009795" lon="-111.871605"><ele>1351.5</ele></trkpt>
      <trkpt lat="37.009143" lon="-111.872087"><ele>1356.2</ele></trkpt>
      <trkpt lat="37.008840" lon="-111.872137"><ele>1361.0</ele></trkpt>
      <trkpt lat="37.008442" lon="-111.871175"><ele>1356.0</ele></trkpt>
      <trkpt lat="37.008163" lon="-111.870925"><ele>1358.8</ele></trkpt>
      <trkpt lat="37.007846" lon="-111.871122"><ele>1357.8</ele></trkpt>
      <trkpt lat="37.007477" lon="-111.871586"><ele>1352.8</ele></trkpt>
      <trkpt lat="37.007142" lon="-111.871576"><ele>1362.2</ele></trkpt>
      <trkpt lat="37.006670" lon="-111.870653"><ele>1350.2</ele></trkpt>
      <trkpt lat="37.006007" lon="-111.870415"><ele>1359.5</ele></trkpt>
      <trkpt lat="37.006052" lon="-111.869997"><ele>1353.0</ele></trkpt>
      <trkpt lat="37.005518" lon="-111.869572"><ele>1357.5</ele></trkpt>
      <trkpt lat="37.004988" lon="-111.869459"><ele>1358.0</ele></trkpt>
      <trkpt lat="37.004404" lon="-111.869674"><ele>1355.2</ele></trkpt>
      <trkpt lat="37.003332" lon="-111.869463"><ele>1349.5</ele></trkpt>
      <trkpt lat="37.002928" lon="-111.869246"><ele>1358.0</ele></trkpt>
      <trkpt lat="37.002584" lon="-111.868382"><ele>1355.8</ele></trkpt>
      <trkpt lat="37.002041" lon="-111.867670"><ele>1367.8</ele></trkpt>
      <trkpt lat="37.001771" lon="-111.867413"><ele>1366.5</ele></trkpt>
      <trkpt lat="37.001561" lon="-111.867135"><ele>1366.0</ele></trkpt>
      <trkpt lat="37.001443" lon="-111.866690"><ele>1362.8</ele></trkpt>
      <trkpt lat="37.001570" lon="-111.865905"><ele>1343.0</ele></trkpt>
    </trkseg>
    <trkseg>
      <trkpt lat="37.001570" lon="-111.865905"><ele>1343.0</ele></trkpt>
      <trkpt lat="37.001654" lon="-111.865865"><ele>1340.5</ele></trkpt>
      <trkpt lat="37.002333" lon="-111.865281"><ele>1350.0</ele></trkpt>
      <trkpt lat="37.002977" lon="-111.865814"><ele>1339.5</ele></trkpt>
      <trkpt lat="37.003404" lon="-111.865811"><ele>1333.5</ele></trkpt>
      <trkpt lat="37.003814" lon="-111.865533"><ele>1336.5</ele></trkpt>
      <trkpt lat="37.004210" lon="-111.865533"><ele>1336.0</ele></trkpt>
      <trkpt lat="37.004877" lon="-111.865907"><ele>1327.8</ele></trkpt>
      <trkpt lat="37.005669" lon="-111.865298"><ele>1336.5</ele></trkpt>
      <trkpt lat="37.006051" lon="-111.865281"><ele>1333.2</ele></trkpt>
      <trkpt lat="37.006472" lon="-111.865887"><ele>1319.0</ele></trkpt>
      <trkpt lat="37.007222" lon="-111.865913"><ele>1320.8</ele></trkpt>
      <trkpt lat="37.007823" lon="-111.865664"><ele>1328.8</ele></trkpt>
      <trkpt lat="37.008689" lon="-111.866374"><ele>1325.5</ele></trkpt>
      <trkpt lat="37.009231" lon="-111.866152"><ele>1323.5</ele></trkpt>
      <trkpt lat="37.009852" lon="-111.866177"><ele>1328.0</ele></trkpt>
      <trkpt lat="37.010349" lon="-111.866468"><ele>1327.8</ele></trkpt>
      <trkpt lat="37.010723" lon="-111.866512"><ele>1327.5</ele></trkpt>
      <trkpt lat="37.011021" lon="-111.866178"><ele>1329.0</ele></trkpt>
      <trkpt lat="37.011615" lon="-111.865679"><ele>1325.2</ele></trkpt>
      <trkpt lat="37.012458" lon="-111.864274"><ele>1323.0</ele></trkpt>
      <trkpt lat="37.013359" lon="-111.863362"><ele>1325.2</ele></trkpt>
      <trkpt lat="37.013894" lon="-111.862457"><ele>1332.0</ele></trkpt>
      <trkpt lat="37.014194" lon="-111.862288"><ele>1328.0</ele></trkpt>
      <trkpt lat="37.014404" lon="-111.862220"><ele>1329.5</ele></trkpt>
      <trkpt lat="37.014511" lon="-111.862206"><ele>1329.8</ele></trkpt>
      <trkpt lat="37.014736" lon="-111.862326"><ele>1327.2</ele></trkpt>
      <trkpt lat="37.015502" lon="-111.862852"><ele>1333.5</ele></trkpt>
      <trkpt lat="37.015645" lon="-111.862882"><ele>1333.8</ele></trkpt>
      <trkpt lat="37.015755" lon="-111.862883"><ele>1333.5</ele></trkpt>
      <trkpt lat="37.015901" lon="-111.862829"><ele>1332.8</ele></trkpt>
      <trkpt lat="37.016574" lon="-111.862051"><ele>1330.5</ele></trkpt>
      <trkpt lat="37.018504" lon="-111.860716"><ele>1324.5</ele></trkpt>
      <trkpt lat="37.019018" lon="-111.860697"><ele>1326.5</ele></trkpt>
      <trkpt lat="37.019200" lon="-111.860623"><ele>1327.5</ele></trkpt>
      <trkpt lat="37.019867" lon="-111.859881"><ele>1330.5</ele></trkpt>
      <trkpt lat="37.020196" lon="-111.859709"><ele>1330.2</ele></trkpt>
      <trkpt lat="37.022145" lon="-111.859036"><ele>1319.8</ele></trkpt>
      <trkpt lat="37.022401" lon="-111.859069"><ele>1320.2</ele></trkpt>
      <trkpt lat="37.022539" lon="-111.859137"><ele>1319.0</ele></trkpt>
      <trkpt lat="37.023175" lon="-111.860131"><ele>1313.8</ele></trkpt>
      <trkpt lat="37.023930" lon="-111.860716"><ele>1314.0</ele></trkpt>
      <trkpt lat="37.024205" lon="-111.861602"><ele>1306.2</ele></trkpt>
      <trkpt lat="37.024516" lon="-111.863495"><ele>1314.5</ele></trkpt>
      <trkpt lat="37.024870" lon="-111.864174"><ele>1310.2</ele></trkpt>
      <trkpt lat="37.025157" lon="-111.864348"><ele>1307.0</ele></trkpt>
      <trkpt lat="37.025475" lon="-111.864384"><ele>1303.0</ele></trkpt>
      <trkpt lat="37.025787" lon="-111.864230"><ele>1296.2</ele></trkpt>
      <trkpt lat="37.026161" lon="-111.863899"><ele>1303.8</ele></trkpt>
      <trkpt lat="37.026682" lon="-111.863817"><ele>1309.8</ele></trkpt>
      <trkpt lat="37.027491" lon="-111.864089"><ele>1313.5</ele></trkpt>
      <trkpt lat="37.027814" lon="-111.864343"><ele>1313.2</ele></trkpt>
      <trkpt lat="37.028052" lon="-111.864760"><ele>1310.8</ele></trkpt>
      <trkpt lat="37.028141" lon="-111.865618"><ele>1312.0</ele></trkpt>
      <trkpt lat="37.028489" lon="-111.866004"><ele>1308.0</ele></trkpt>
      <trkpt lat="37.028729" lon="-111.866428"><ele>1307.8</ele></trkpt>
      <trkpt lat="37.028825" lon="-111.867166"><ele>1306.8</ele></trkpt>
      <trkpt lat="37.029237" lon="-111.868999"><ele>1305.5</ele></trkpt>
      <trkpt lat="37.029606" lon="-111.869908"><ele>1315.0</ele></trkpt>
      <trkpt lat="37.030308" lon="-111.870515"><ele>1308.8</ele></trkpt>
      <trkpt lat="37.030804" lon="-111.871525"><ele>1329.0</ele></trkpt>
      <trkpt lat="37.030826" lon="-111.871543"><ele>1329.2</ele></trkpt>
      <trkpt lat="37.031091" lon="-111.871756"><ele>1324.0</ele></trkpt>
      <trkpt lat="37.031337" lon="-111.871823"><ele>1315.8</ele></trkpt>
      <trkpt lat="37.031489" lon="-111.871791"><ele>1308.8</ele></trkpt>
      <trkpt lat="37.033675" lon="-111.869112"><ele>1312.0</ele></trkpt>
      <trkpt lat="37.034104" lon="-111.868841"><ele>1309.5</ele></trkpt>
      <trkpt lat="37.034619" lon="-111.868753"><ele>1310.5</ele></trkpt>
      <trkpt lat="37.035750" lon="-111.868979"><ele>1295.8</ele></trkpt>
      <trkpt lat="37.036571" lon="-111.868993"><ele>1286.0</ele></trkpt>
      <trkpt lat="37.037839" lon="-111.868434"><ele>1288.2</ele></trkpt>
      <trkpt lat="37.038263" lon="-111.868407"><ele>1286.8</ele></trkpt>
      <trkpt lat="37.038625" lon="-111.868515"><ele>1285.8</ele></trkpt>
      <trkpt lat="37.040380" lon="-111.869507"><ele>1294.8</ele></trkpt>
      <trkpt lat="37.042715" lon="-111.869773"><ele>1306.5</ele></trkpt>
      <trkpt lat="37.044150" lon="-111.869105"><ele>1286.5</ele></trkpt>
      <trkpt lat="37.045475" lon="-111.869203"><ele>1290.8</ele></trkpt>
      <trkpt lat="37.045702" lon="-111.869279"><ele>1290.0</ele></trkpt>
      <trkpt lat="37.046039" lon="-111.869655"><ele>1290.5</ele></trkpt>
      <trkpt lat="37.046991" lon="-111.871873"><ele>1302.5</ele></trkpt>
      <trkpt lat="37.047482" lon="-111.872613"><ele>1293.0</ele></trkpt>
      <trkpt lat="37.048317" lon="-111.873501"><ele>1292.0</ele></trkpt>
      <trkpt lat="37.048883" lon="-111.875107"><ele>1299.0</ele></trkpt>
      <trkpt lat="37.049637" lon="-111.875885"><ele>1310.0</ele></trkpt>
      <trkpt lat="37.050155" lon="-111.876106"><ele>1318.0</ele></trkpt>
      <trkpt lat="37.050586" lon="-111.875958"><ele>1315.5</ele></trkpt>
      <trkpt lat="37.051017" lon="-111.875749"><ele>1314.5</ele></trkpt>
      <trkpt lat="37.051876" lon="-111.874931"><ele>1313.2</ele></trkpt>
      <trkpt lat="37.052584" lon="-111.874364"><ele>1337.2</ele></trkpt>
      <trkpt lat="37.053395" lon="-111.874222"><ele>1331.8</ele></trkpt>
      <trkpt lat="37.054135" lon="-111.874621"><ele>1308.8</ele></trkpt>
      <trkpt lat="37.054336" lon="-111.875006"><ele>1298.5</ele></trkpt>
      <trkpt lat="37.054442" lon="-111.875590"><ele>1313.0</ele></trkpt>
      <trkpt lat="37.054664" lon="-111.875714"><ele>1312.8</ele></trkpt>
      <trkpt lat="37.055128" lon="-111.875877"><ele>1311.0</ele></trkpt>
      <trkpt lat="37.056116" lon="-111.875559"><ele>1303.2</ele></trkpt>
      <trkpt lat="37.057151" lon="-111.875299"><ele>1298.5</ele></trkpt>
      <trkpt lat="37.058606" lon="-111.875425"><ele>1301.8</ele></trkpt>
      <trkpt lat="37.059136" lon="-111.875731"><ele>1303.0</ele></trkpt>
      <trkpt lat="37.059456" lon="-111.876251"><ele>1308.8</ele></trkpt>
      <trkpt lat="37.059585" lon="-111.876870"><ele>1311.8</ele></trkpt>
      <trkpt lat="37.059554" lon="-111.877580"><ele>1320.0</ele></trkpt>
      <trkpt lat="37.059245" lon="-111.878703"><ele>1326.2</ele></trkpt>
      <trkpt lat="37.059274" lon="-111.878976"><ele>1324.0</ele></trkpt>
      <trkpt lat="37.059490" lon="-111.879179"><ele>1317.5</ele></trkpt>
      <trkpt lat="37.059854" lon="-111.879315"><ele>1310.2</ele></trkpt>
      <trkpt lat="37.060343" lon="-111.879153"><ele>1312.0</ele></trkpt>
      <trkpt lat="37.060587" lon="-111.879152"><ele>1317.5</ele></trkpt>
      <trkpt lat="37.060882" lon="-111.879304"><ele>1322.0</ele></trkpt>
      <trkpt lat="37.061143" lon="-111.879806"><ele>1315.0</ele></trkpt>
      <trkpt lat="37.061590" lon="-111.880411"><ele>1307.2</ele></trkpt>
      <trkpt lat="37.062600" lon="-111.881197"><ele>1316.2</ele></trkpt>
      <trkpt lat="37.062871" lon="-111.881766"><ele>1321.5</ele></trkpt>
      <trkpt lat="37.062888" lon="-111.882278"><ele>1319.5</ele></trkpt>
      <trkpt lat="37.062798" lon="-111.883302"><ele>1321.0</ele></trkpt>
      <trkpt lat="37.062931" lon="-111.884025"><ele>1317.0</ele></trkpt>
      <trkpt lat="37.063233" lon="-111.884522"><ele>1313.0</ele></trkpt>
      <trkpt lat="37.063634" lon="-111.884808"><ele>1311.5</ele></trkpt>
      <trkpt lat="37.063974" lon="-111.884810"><ele>1308.2</ele></trkpt>
      <trkpt lat="37.064307" lon="-111.884615"><ele>1310.0</ele></trkpt>
      <trkpt lat="37.064555" lon="-111.884207"><ele>1314.5</ele></trkpt>
      <trkpt lat="37.064541" lon="-111.883523"><ele>1323.0</ele></trkpt>
      <trkpt lat="37.064586" lon="-111.883261"><ele>1326.2</ele></trkpt>
      <trkpt lat="37.064661" lon="-111.883064"><ele>1329.5</ele></trkpt>
      <trkpt lat="37.064989" lon="-111.882927"><ele>1331.5</ele></trkpt>
      <trkpt lat="37.065172" lon="-111.882928"><ele>1331.0</ele></trkpt>
      <trkpt lat="37.065437" lon="-111.883106"><ele>1324.8</ele></trkpt>
      <trkpt lat="37.065795" lon="-111.883621"><ele>1317.2</ele></trkpt>
      <trkpt lat="37.066107" lon="-111.883918"><ele>1317.5</ele></trkpt>
      <trkpt lat="37.066299" lon="-111.883878"><ele>1316.8</ele></trkpt>
      <trkpt lat="37.066651" lon="-111.883519"><ele>1318.2</ele></trkpt>
      <trkpt lat="37.066885" lon="-111.883131"><ele>1324.0</ele></trkpt>
      <trkpt lat="37.067062" lon="-111.883073"><ele>1325.0</ele></trkpt>
      <trkpt lat="37.067239" lon="-111.883155"><ele>1322.0</ele></trkpt>
      <trkpt lat="37.067415" lon="-111.883445"><ele>1315.8</ele></trkpt>
      <trkpt lat="37.067503" lon="-111.884050"><ele>1313.2</ele></trkpt>
      <trkpt lat="37.067720" lon="-111.884712"><ele>1316.2</ele></trkpt>
      <trkpt lat="37.068273" lon="-111.885534"><ele>1315.2</ele></trkpt>
      <trkpt lat="37.068555" lon="-111.886321"><ele>1319.5</ele></trkpt>
      <trkpt lat="37.068901" lon="-111.886579"><ele>1315.0</ele></trkpt>
      <trkpt lat="37.069366" lon="-111.886648"><ele>1310.0</ele></trkpt>
      <trkpt lat="37.069952" lon="-111.886558"><ele>1314.5</ele></trkpt>
      <trkpt lat="37.070238" lon="-111.886641"><ele>1316.0</ele></trkpt>
      <trkpt lat="37.070434" lon="-111.886837"><ele>1316.8</ele></trkpt>
      <trkpt lat="37.070745" lon="-111.887461"><ele>1309.8</ele></trkpt>
      <trkpt lat="37.071360" lon="-111.888942"><ele>1318.0</ele></trkpt>
      <trkpt lat="37.071720" lon="-111.889544"><ele>1316.2</ele></trkpt>
      <trkpt lat="37.072058" lon="-111.889857"><ele>1315.2</ele></trkpt>
      <trkpt lat="37.072520" lon="-111.889894"><ele>1311.2</ele></trkpt>
      <trkpt lat="37.072899" lon="-111.889891"><ele>1310.0</ele></trkpt>
      <trkpt lat="37.074094" lon="-111.890130"><ele>1310.2</ele></trkpt>
      <trkpt lat="37.074990" lon="-111.889996"><ele>1306.0</ele></trkpt>
      <trkpt lat="37.075257" lon="-111.890003"><ele>1306.0</ele></trkpt>
      <trkpt lat="37.075467" lon="-111.890030"><ele>1306.0</ele></trkpt>
      <trkpt lat="37.076086" lon="-111.890073"><ele>1306.2</ele></trkpt>
      <trkpt lat="37.076784" lon="-111.890101"><ele>1307.5</ele></trkpt>
      <trkpt lat="37.077177" lon="-111.890161"><ele>1309.8</ele></trkpt>
      <trkpt lat="37.077838" lon="-111.890285"><ele>1311.8</ele></trkpt>
      <trkpt lat="37.078004" lon="-111.890433"><ele>1311.0</ele></trkpt>
      <trkpt lat="37.078060" lon="-111.890433"><ele>1311.0</ele></trkpt>
      <trkpt lat="37.078151" lon="-111.890452"><ele>1311.2</ele></trkpt>
      <trkpt lat="37.078222" lon="-111.890533"><ele>1310.8</ele></trkpt>
      <trkpt lat="37.078298" lon="-111.890577"><ele>1310.8</ele></trkpt>
      <trkpt lat="37.078360" lon="-111.890531"><ele>1311.2</ele></trkpt>
      <trkpt lat="37.078476" lon="-111.890530"><ele>1311.8</ele></trkpt>
      <trkpt lat="37.078576" lon="-111.890600"><ele>1311.8</ele></trkpt>
      <trkpt lat="37.078736" lon="-111.890676"><ele>1312.2</ele></trkpt>
      <trkpt lat="37.078971" lon="-111.890684"><ele>1313.2</ele></trkpt>
      <trkpt lat="37.079133" lon="-111.890747"><ele>1314.0</ele></trkpt>
      <trkpt lat="37.079333" lon="-111.890802"><ele>1314.2</ele></trkpt>
      <trkpt lat="37.079702" lon="-111.890931"><ele>1314.0</ele></trkpt>
      <trkpt lat="37.079820" lon="-111.890959"><ele>1314.0</ele></trkpt>
      <trkpt lat="37.080065" lon="-111.890996"><ele>1314.0</ele></trkpt>
      <trkpt lat="37.080233" lon="-111.890981"><ele>1314.0</ele></trkpt>
      <trkpt lat="37.080400" lon="-111.890954"><ele>1314.0</ele></trkpt>
      <trkpt lat="37.080460" lon="-111.890930"><ele>1314.0</ele></trkpt>
      <trkpt lat="37.080498" lon="-111.890894"><ele>1314.0</ele></trkpt>
      <trkpt lat="37.080528" lon="-111.890836"><ele>1314.2</ele></trkpt>
      <trkpt lat="37.080561" lon="-111.890752"><ele>1315.8</ele></trkpt>
      <trkpt lat="37.080580" lon="-111.890675"><ele>1317.2</ele></trkpt>
      <trkpt lat="37.080600" lon="-111.890546"><ele>1320.0</ele></trkpt>
    </trkseg>
  </trk>
</gpx>
