<?xml version="1.0" encoding="UTF-8"?>
<gpx version="1.1" creator="pathbeaters26" xmlns="http://www.topografix.com/GPX/1/1" xmlns:xsi="http://www.w3.org/2001/XMLSchema-instance" xsi:schemaLocation="http://www.topografix.com/GPX/1/1 http://www.topografix.com/GPX/1/1/gpx.xsd">
  <metadata><name>Chamberlain Basin base camp under Castle Peak</name><desc>Thu-Mon plan; one trkseg per day leg (Fri, Sat, Sun, Mon). Track routed with BRouter hiking-mountain over OSM trails; elevations from the BRouter SRTM profile.</desc></metadata>
  <wpt lat="44.046558" lon="-114.657629"><ele>2674.2</ele><name>Fourth of July TH</name></wpt>
  <wpt lat="44.043240" lon="-114.631690"><ele>2856.0</ele><name>Fourth of July Lake</name></wpt>
  <wpt lat="44.031700" lon="-114.621010"><ele>2855.1</ele><name>Sun camp · Washington Lake</name></wpt>
  <wpt lat="44.028750" lon="-114.599150"><ele>2858.9</ele><name>Fri + Sat camp · Chamberlain Basin</name></wpt>
  <wpt lat="44.026680" lon="-114.592760"><ele>2804.9</ele><name>Chamberlain Lakes (middle)</name></wpt>
  <wpt lat="44.024260" lon="-114.588570"><ele>2801.4</ele><name>Chamberlain Lakes (lower)</name></wpt>
  <wpt lat="44.046370" lon="-114.576610"><ele>2872.5</ele><name>Castle Lake</name></wpt>
  <wpt lat="44.013041" lon="-114.602802"><ele>2982.0</ele><name>Chamberlain Divide</name></wpt>
  <trk><name>Chamberlain Basin base camp under Castle Peak</name>
    <trkseg>
      <!-- Fri — over Chamberlain Divide to the basin -->
      <trkpt lat="44.046558" lon="-114.657629"><ele>2674.0</ele></trkpt>
      <trkpt lat="44.046544" lon="-114.657211"><ele>2674.0</ele></trkpt>
      <trkpt lat="44.046602" lon="-114.657073"><ele>2674.2</ele></trkpt>
      <trkpt lat="44.046542" lon="-114.656964"><ele>2674.0</ele></trkpt>
      <trkpt lat="44.046275" lon="-114.656845"><ele>2674.0</ele></trkpt>
      <trkpt lat="44.046116" lon="-114.656552"><ele>2676.5</ele></trkpt>
      <trkpt lat="44.046081" lon="-114.656203"><ele>2680.2</ele></trkpt>
      <trkpt lat="44.046256" lon="-114.655786"><ele>2683.8</ele></trkpt>
      <trkpt lat="44.046504" lon="-114.655444"><ele>2687.5</ele></trkpt>
      <trkpt lat="44.046690" lon="-114.655022"><ele>2692.2</ele></trkpt>
      <trkpt lat="44.047026" lon="-114.654800"><ele>2692.5</ele></trkpt>
      <trkpt lat="44.047322" lon="-114.654172"><ele>2697.2</ele></trkpt>
      <trkpt lat="44.047570" lon="-114.653379"><ele>2705.0</ele></trkpt>
      <trkpt lat="44.047744" lon="-114.652835"><ele>2710.8</ele></trkpt>
      <trkpt lat="44.047917" lon="-114.652303"><ele>2718.2</ele></trkpt>
      <trkpt lat="44.048194" lon="-114.651894"><ele>2724.2</ele></trkpt>
      <trkpt lat="44.048716" lon="-114.651573"><ele>2723.5</ele></trkpt>
      <trkpt lat="44.049236" lon="-114.650931"><ele>2727.0</ele></trkpt>
      <trkpt lat="44.049512" lon="-114.650724"><ele>2727.8</ele></trkpt>
      <trkpt lat="44.049620" lon="-114.650520"><ele>2728.8</ele></trkpt>
      <trkpt lat="44.049832" lon="-114.650121"><ele>2728.8</ele></trkpt>
      <trkpt lat="44.049791" lon="-114.649777"><ele>2730.2</ele></trkpt>
      <trkpt lat="44.049797" lon="-114.649244"><ele>2730.2</ele></trkpt>
      <trkpt lat="44.049826" lon="-114.648916"><ele>2732.2</ele></trkpt>
      <trkpt lat="44.049891" lon="-114.648627"><ele>2733.8</ele></trkpt>
      <trkpt lat="44.050015" lon="-114.648383"><ele>2733.5</ele></trkpt>
      <trkpt lat="44.050028" lon="-114.647621"><ele>2739.2</ele></trkpt>
      <trkpt lat="44.049828" lon="-114.646937"><ele>2744.2</ele></trkpt>
      <trkpt lat="44.049673" lon="-114.646277"><ele>2749.8</ele></trkpt>
      <trkpt lat="44.049469" lon="-114.645819"><ele>2754.5</ele></trkpt>
      <trkpt lat="44.049323" lon="-114.645183"><ele>2757.5</ele></trkpt>
      <trkpt lat="44.049228" lon="-114.644874"><ele>2758.2</ele></trkpt>
      <trkpt lat="44.049124" lon="-114.644520"><ele>2759.5</ele></trkpt>
      <trkpt lat="44.048879" lon="-114.644172"><ele>2761.5</ele></trkpt>
      <trkpt lat="44.048544" lon="-114.643882"><ele>2763.2</ele></trkpt>
      <trkpt lat="44.048349" lon="-114.643906"><ele>2764.0</ele></trkpt>
      <trkpt lat="44.048054" lon="-114.643787"><ele>2767.0</ele></trkpt>
      <trkpt lat="44.047751" lon="-114.643712"><ele>2770.5</ele></trkpt>
      <trkpt lat="44.047550" lon="-114.643411"><ele>2772.5</ele></trkpt>
      <trkpt lat="44.047326" lon="-114.642927"><ele>2777.8</ele></trkpt>
      <trkpt lat="44.047385" lon="-114.642385"><ele>2777.0</ele></trkpt>
      <trkpt lat="44.047230" lon="-114.641844"><ele>2781.8</ele></trkpt>
      <trkpt lat="44.047392" lon="-114.641008"><ele>2782.0</ele></trkpt>
      <trkpt lat="44.047649" lon="-114.639610"><ele>2797.2</ele></trkpt>
      <trkpt lat="44.048103" lon="-114.639537"><ele>2797.8</ele></trkpt>
      <trkpt lat="44.048363" lon="-114.639459"><ele>2798.5</ele></trkpt>
      <trkpt lat="44.048559" lon="-114.639008"><ele>2804.2</ele></trkpt>
      <trkpt lat="44.048436" lon="-114.638563"><ele>2810.2</ele></trkpt>
      <trkpt lat="44.048324" lon="-114.638316"><ele>2813.2</ele></trkpt>
      <trkpt lat="44.048463" lon="-114.638150"><ele>2815.8</ele></trkpt>
      <trkpt lat="44.048403" lon="-114.637737"><ele>2820.8</ele></trkpt>
      <trkpt lat="44.048236" lon="-114.637249"><ele>2827.0</ele></trkpt>
      <trkpt lat="44.048164" lon="-114.636707"><ele>2834.0</ele></trkpt>
      <trkpt lat="44.048062" lon="-114.635953"><ele>2843.0</ele></trkpt>
      <trkpt lat="44.047788" lon="-114.635202"><ele>2848.0</ele></trkpt>
      <trkpt lat="44.047339" lon="-114.634773"><ele>2850.2</ele></trkpt>
      <trkpt lat="44.046977" lon="-114.634872"><ele>2852.2</ele></trkpt>
      <trkpt lat="44.046541" lon="-114.634884"><ele>2854.8</ele></trkpt>
      <trkpt lat="44.045887" lon="-114.634540"><ele>2859.8</ele></trkpt>
      <trkpt lat="44.045694" lon="-114.634404"><ele>2860.8</ele></trkpt>
      <trkpt lat="44.045441" lon="-114.634247"><ele>2861.5</ele></trkpt>
      <trkpt lat="44.045082" lon="-114.634088"><ele>2862.2</ele></trkpt>
      <trkpt lat="44.044548" lon="-114.633803"><ele>2863.2</ele></trkpt>
      <trkpt lat="44.044404" lon="-114.633612"><ele>2862.8</ele></trkpt>
      <trkpt lat="44.044196" lon="-114.633463"><ele>2861.5</ele></trkpt>
      <trkpt lat="44.043915" lon="-114.633493"><ele>2861.8</ele></trkpt>
      <trkpt lat="44.043560" lon="-114.633404"><ele>2861.8</ele></trkpt>
      <trkpt lat="44.042982" lon="-114.633185"><ele>2864.2</ele></trkpt>
      <trkpt lat="44.042777" lon="-114.632991"><ele>2865.2</ele></trkpt>
      <trkpt lat="44.042547" lon="-114.632753"><ele>2866.8</ele></trkpt>
      <trkpt lat="44.041957" lon="-114.632337"><ele>2872.5</ele></trkpt>
      <trkpt lat="44.041394" lon="-114.632183"><ele>2878.0</ele></trkpt>
      <trkpt lat="44.040955" lon="-114.631961"><ele>2881.5</ele></trkpt>
      <trkpt lat="44.040736" lon="-114.631716"><ele>2882.8</ele></trkpt>
      <trkpt lat="44.040545" lon="-114.631253"><ele>2884.2</ele></trkpt>
      <trkpt lat="44.040214" lon="-114.630531"><ele>2888.5</ele></trkpt>
      <trkpt lat="44.039878" lon="-114.630058"><ele>2893.8</ele></trkpt>
      <trkpt lat="44.039377" lon="-114.629334"><ele>2902.8</ele></trkpt>
      <trkpt lat="44.039051" lon="-114.628896"><ele>2909.5</ele></trkpt>
      <trkpt lat="44.038741" lon="-114.628513"><ele>2916.0</ele></trkpt>
      <trkpt lat="44.038293" lon="-114.628211"><ele>2920.5</ele></trkpt>
      <trkpt lat="44.037874" lon="-114.627945"><ele>2923.5</ele></trkpt>
      <trkpt lat="44.037438" lon="-114.627829"><ele>2923.5</ele></trkpt>
      <trkpt lat="44.036642" lon="-114.627279"><ele>2920.8</ele></trkpt>
      <trkpt lat="44.035927" lon="-114.626354"><ele>2920.8</ele></trkpt>
      <trkpt lat="44.035671" lon="-114.625542"><ele>2915.5</ele></trkpt>
      <trkpt lat="44.035593" lon="-114.625263"><ele>2914.0</ele></trkpt>
      <trkpt lat="44.035003" lon="-114.624582"><ele>2902.5</ele></trkpt>
      <trkpt lat="44.034705" lon="-114.624603"><ele>2898.2</ele></trkpt>
      <trkpt lat="44.034419" lon="-114.624865"><ele>2896.2</ele></trkpt>
      <trkpt lat="44.033839" lon="-114.625179"><ele>2897.0</ele></trkpt>
      <trkpt lat="44.033564" lon="-114.625194"><ele>2897.0</ele></trkpt>
      <trkpt lat="44.032879" lon="-114.624663"><ele>2883.5</ele></trkpt>
      <trkpt lat="44.032482" lon="-114.624428"><ele>2877.2</ele></trkpt>
      <trkpt lat="44.032135" lon="-114.624229"><ele>2877.2</ele></trkpt>
      <trkpt lat="44.031908" lon="-114.624051"><ele>2877.5</ele></trkpt>
      <trkpt lat="44.031578" lon="-114.623444"><ele>2869.5</ele></trkpt>
      <trkpt lat="44.031253" lon="-114.623005"><ele>2869.0</ele></trkpt>
      <trkpt lat="44.030549" lon="-114.621671"><ele>2869.0</ele></trkpt>
      <trkpt lat="44.030102" lon="-114.621279"><ele>2870.5</ele></trkpt>
      <trkpt lat="44.029635" lon="-114.620602"><ele>2867.8</ele></trkpt>
      <trkpt lat="44.029327" lon="-114.619950"><ele>2861.0</ele></trkpt>
      <trkpt lat="44.028887" lon="-114.619553"><ele>2855.0</ele></trkpt>
      <trkpt lat="44.028267" lon="-114.618976"><ele>2843.5</ele></trkpt>
      <trkpt lat="44.027764" lon="-114.618866"><ele>2842.8</ele></trkpt>
      <trkpt lat="44.027440" lon="-114.618714"><ele>2840.5</ele></trkpt>
      <trkpt lat="44.027275" lon="-114.618427"><ele>2836.8</ele></trkpt>
      <trkpt lat="44.026840" lon="-114.618427"><ele>2834.5</ele></trkpt>
      <trkpt lat="44.026580" lon="-114.618205"><ele>2831.8</ele></trkpt>
      <trkpt lat="44.026298" lon="-114.617953"><ele>2829.0</ele></trkpt>
      <trkpt lat="44.025873" lon="-114.617983"><ele>2826.2</ele></trkpt>
      <trkpt lat="44.024475" lon="-114.617950"><ele>2798.8</ele></trkpt>
      <trkpt lat="44.023920" lon="-114.617809"><ele>2787.2</ele></trkpt>
      <trkpt lat="44.022982" lon="-114.618240"><ele>2775.2</ele></trkpt>
      <trkpt lat="44.022590" lon="-114.618081"><ele>2773.2</ele></trkpt>
      <trkpt lat="44.021492" lon="-114.617375"><ele>2777.8</ele></trkpt>
      <trkpt lat="44.018970" lon="-114.617421"><ele>2760.0</ele></trkpt>
      <trkpt lat="44.017492" lon="-114.617433"><ele>2748.2</ele></trkpt>
      <trkpt lat="44.016073" lon="-114.616608"><ele>2732.8</ele></trkpt>
      <trkpt lat="44.014486" lon="-114.616214"><ele>2717.8</ele></trkpt>
      <trkpt lat="44.013484" lon="-114.615947"><ele>2709.0</ele></trkpt>
      <trkpt lat="44.012349" lon="-114.615610"><ele>2696.8</ele></trkpt>
      <trkpt lat="44.010181" lon="-114.615171"><ele>2676.5</ele></trkpt>
      <trkpt lat="44.008300" lon="-114.615212"><ele>2663.5</ele></trkpt>
      <trkpt lat="44.006870" lon="-114.615380"><ele>2655.2</ele></trkpt>
      <trkpt lat="44.005997" lon="-114.615736"><ele>2647.5</ele></trkpt>
      <trkpt lat="44.005078" lon="-114.615422"><ele>2646.2</ele></trkpt>
      <trkpt lat="44.004085" lon="-114.614250"><ele>2662.0</ele></trkpt>
      <trkpt lat="44.002926" lon="-114.613371"><ele>2677.2</ele></trkpt>
      <trkpt lat="44.002183" lon="-114.612824"><ele>2685.8</ele></trkpt>
      <trkpt lat="44.001526" lon="-114.611822"><ele>2702.5</ele></trkpt>
      <trkpt lat="44.001471" lon="-114.611326"><ele>2714.5</ele></trkpt>
      <trkpt lat="44.001367" lon="-114.611138"><ele>2717.5</ele></trkpt>
      <trkpt lat="44.001014" lon="-114.611097"><ele>2714.5</ele></trkpt>
      <trkpt lat="44.000985" lon="-114.610836"><ele>2720.5</ele></trkpt>
      <trkpt lat="44.001621" lon="-114.610622"><ele>2731.0</ele></trkpt>
      <trkpt lat="44.001766" lon="-114.610441"><ele>2736.5</ele></trkpt>
      <trkpt lat="44.001948" lon="-114.610764"><ele>2736.2</ele></trkpt>
      <trkpt lat="44.002171" lon="-114.611237"><ele>2732.5</ele></trkpt>
      <trkpt lat="44.002941" lon="-114.611592"><ele>2745.8</ele></trkpt>
      <trkpt lat="44.002790" lon="-114.610734"><ele>2758.8</ele></trkpt>
      <trkpt lat="44.003377" lon="-114.609562"><ele>2781.5</ele></trkpt>
      <trkpt lat="44.003663" lon="-114.608515"><ele>2790.0</ele></trkpt>
      <trkpt lat="44.004115" lon="-114.608871"><ele>2800.5</ele></trkpt>
      <trkpt lat="44.004717" lon="-114.610148"><ele>2811.8</ele></trkpt>
      <trkpt lat="44.005650" lon="-114.610901"><ele>2818.8</ele></trkpt>
      <trkpt lat="44.006268" lon="-114.609980"><ele>2836.2</ele></trkpt>
      <trkpt lat="44.006569" lon="-114.609164"><ele>2850.0</ele></trkpt>
      <trkpt lat="44.006388" lon="-114.608138"><ele>2858.5</ele></trkpt>
      <trkpt lat="44.006012" lon="-114.605355"><ele>2875.8</ele></trkpt>
      <trkpt lat="44.006403" lon="-114.604204"><ele>2888.5</ele></trkpt>
      <trkpt lat="44.006945" lon="-114.604246"><ele>2894.2</ele></trkpt>
      <trkpt lat="44.007953" lon="-114.603995"><ele>2894.0</ele></trkpt>
      <trkpt lat="44.009835" lon="-114.603722"><ele>2914.8</ele></trkpt>
      <trkpt lat="44.010783" lon="-114.603430"><ele>2929.0</ele></trkpt>
      <trkpt lat="44.011717" lon="-114.603032"><ele>2942.0</ele></trkpt>
      <trkpt lat="44.012529" lon="-114.602676"><ele>2960.0</ele></trkpt>
      <trkpt lat="44.012710" lon="-114.603639"><ele>2977.8</ele></trkpt>
      <trkpt lat="44.013177" lon="-114.602090"><ele>2982.0</ele></trkpt>
      <trkpt lat="44.013258" lon="-114.600896"><ele>2978.2</ele></trkpt>
      <trkpt lat="44.013645" lon="-114.601284"><ele>2974.5</ele></trkpt>
      <trkpt lat="44.014858" lon="-114.602790"><ele>2977.0</ele></trkpt>
      <trkpt lat="44.015992" lon="-114.603031"><ele>2955.5</ele></trkpt>
      <trkpt lat="44.017133" lon="-114.602383"><ele>2941.8</ele></trkpt>
      <trkpt lat="44.017974" lon="-114.601440"><ele>2922.2</ele></trkpt>
      <trkpt lat="44.017846" lon="-114.600902"><ele>2908.8</ele></trkpt>
      <trkpt lat="44.017556" lon="-114.599725"><ele>2901.0</ele></trkpt>
      <trkpt lat="44.018871" lon="-114.597067"><ele>2869.2</ele></trkpt>
      <trkpt lat="44.019671" lon="-114.595210"><ele>2843.8</ele></trkpt>
      <trkpt lat="44.020675" lon="-114.594104"><ele>2837.2</ele></trkpt>
      <trkpt lat="44.023292" lon="-114.592288"><ele>2832.2</ele></trkpt>
      <trkpt lat="44.024323" lon="-114.592100"><ele>2821.5</ele></trkpt>
      <trkpt lat="44.025259" lon="-114.591116"><ele>2820.5</ele></trkpt>
      <trkpt lat="44.026456" lon="-114.590522"><ele>2816.0</ele></trkpt>
      <trkpt lat="44.026933" lon="-114.590140"><ele>2814.5</ele></trkpt>
      <trkpt lat="44.027072" lon="-114.589972"><ele>2814.0</ele></trkpt>
      <trkpt lat="44.027215" lon="-114.589781"><ele>2813.5</ele></trkpt>
      <trkpt lat="44.027251" lon="-114.589797"><ele>2813.2</ele></trkpt>
      <trkpt lat="44.027251" lon="-114.589978"><ele>2813.0</ele></trkpt>
      <trkpt lat="44.027323" lon="-114.590208"><ele>2812.8</ele></trkpt>
      <trkpt lat="44.027390" lon="-114.590616"><ele>2812.2</ele></trkpt>
      <trkpt lat="44.027475" lon="-114.590846"><ele>2812.0</ele></trkpt>
      <trkpt lat="44.027495" lon="-114.591010"><ele>2811.5</ele></trkpt>
      <trkpt lat="44.027538" lon="-114.591292"><ele>2811.0</ele></trkpt>
      <trkpt lat="44.027555" lon="-114.591414"><ele>2810.8</ele></trkpt>
      <trkpt lat="44.027593" lon="-114.591551"><ele>2810.8</ele></trkpt>
      <trkpt lat="44.027635" lon="-114.591785"><ele>2810.2</ele></trkpt>
      <trkpt lat="44.027648" lon="-114.591932"><ele>2810.0</ele></trkpt>
      <trkpt lat="44.027644" lon="-114.592173"><ele>2809.5</ele></trkpt>
      <trkpt lat="44.027679" lon="-114.592315"><ele>2809.5</ele></trkpt>
      <trkpt lat="44.027997" lon="-114.592900"><ele>2814.2</ele></trkpt>
      <trkpt lat="44.028188" lon="-114.593172"><ele>2817.5</ele></trkpt>
      <trkpt lat="44.028365" lon="-114.593829"><ele>2822.2</ele></trkpt>
      <trkpt lat="44.028450" lon="-114.593948"><ele>2822.8</ele></trkpt>
      <trkpt lat="44.028519" lon="-114.594074"><ele>2823.0</ele></trkpt>
      <trkpt lat="44.028577" lon="-114.594539"><ele>2824.0</ele></trkpt>
      <trkpt lat="44.028668" lon="-114.594822"><ele>2824.8</ele></trkpt>
      <trkpt lat="44.028850" lon="-114.595297"><ele>2828.2</ele></trkpt>
      <trkpt lat="44.028966" lon="-114.595432"><ele>2829.2</ele></trkpt>
      <trkpt lat="44.029129" lon="-114.595634"><ele>2830.0</ele></trkpt>
      <trkpt lat="44.029320" lon="-114.595879"><ele>2833.5</ele></trkpt>
      <trkpt lat="44.029332" lon="-114.595994"><ele>2836.2</ele></trkpt>
      <trkpt lat="44.029237" lon="-114.596300"><ele>2842.0</ele></trkpt>
      <trkpt lat="44.029085" lon="-114.596744"><ele>2851.0</ele></trkpt>
      <trkpt lat="44.029041" lon="-114.597009"><ele>2857.0</ele></trkpt>
      <trkpt lat="44.029009" lon="-114.597094"><ele>2858.8</ele></trkpt>
      <trkpt lat="44.028902" lon="-114.597350"><ele>2865.0</ele></trkpt>
      <trkpt lat="44.028872" lon="-114.597568"><ele>2869.0</ele></trkpt>
      <trkpt lat="44.028905" lon="-114.597729"><ele>2870.8</ele></trkpt>
      <trkpt lat="44.028909" lon="-114.597928"><ele>2873.2</ele></trkpt>
      <trkpt lat="44.028924" lon="-114.598356"><ele>2877.8</ele></trkpt>
      <trkpt lat="44.028895" lon="-114.598583"><ele>2877.8</ele></trkpt>
      <trkpt lat="44.028936" lon="-114.598738"><ele>2878.0</ele></trkpt>
      <trkpt lat="44.029031" lon="-114.599067"><ele>2878.8</ele></trkpt>
      <trkpt lat="44.029031" lon="-114.599145"><ele>2879.2</ele></trkpt>
    </trkseg>
    <trkseg>
      <!-- Sat — day pack: Chamberlain Lakes and Castle Lake -->
      <trkpt lat="44.029031" lon="-114.599145"><ele>2878.8</ele></trkpt>
      <trkpt lat="44.029015" lon="-114.598948"><ele>2878.5</ele></trkpt>
      <trkpt lat="44.028913" lon="-114.598666"><ele>2877.8</ele></trkpt>
      <trkpt lat="44.028901" lon="-114.598485"><ele>2877.8</ele></trkpt>
      <trkpt lat="44.028927" lon="-114.598131"><ele>2875.5</ele></trkpt>
      <trkpt lat="44.028924" lon="-114.597816"><ele>2871.8</ele></trkpt>
      <trkpt lat="44.028885" lon="-114.597691"><ele>2870.5</ele></trkpt>
      <trkpt lat="44.028877" lon="-114.597477"><ele>2867.8</ele></trkpt>
      <trkpt lat="44.028936" lon="-114.597224"><ele>2862.0</ele></trkpt>
      <trkpt lat="44.029013" lon="-114.597035"><ele>2857.5</ele></trkpt>
      <trkpt lat="44.029097" lon="-114.596864"><ele>2853.5</ele></trkpt>
      <trkpt lat="44.029146" lon="-114.596585"><ele>2847.2</ele></trkpt>
      <trkpt lat="44.029293" lon="-114.596184"><ele>2840.0</ele></trkpt>
      <trkpt lat="44.029341" lon="-114.595911"><ele>2834.2</ele></trkpt>
      <trkpt lat="44.029250" lon="-114.595727"><ele>2831.0</ele></trkpt>
      <trkpt lat="44.029073" lon="-114.595575"><ele>2829.8</ele></trkpt>
      <trkpt lat="44.028905" lon="-114.595336"><ele>2828.5</ele></trkpt>
      <trkpt lat="44.028715" lon="-114.594989"><ele>2825.2</ele></trkpt>
      <trkpt lat="44.028596" lon="-114.594633"><ele>2824.2</ele></trkpt>
      <trkpt lat="44.028548" lon="-114.594443"><ele>2823.8</ele></trkpt>
      <trkpt lat="44.028492" lon="-114.594001"><ele>2823.0</ele></trkpt>
      <trkpt lat="44.028402" lon="-114.593912"><ele>2822.8</ele></trkpt>
      <trkpt lat="44.028308" lon="-114.593597"><ele>2821.0</ele></trkpt>
      <trkpt lat="44.028140" lon="-114.593085"><ele>2816.5</ele></trkpt>
      <trkpt lat="44.027776" lon="-114.592534"><ele>2810.0</ele></trkpt>
      <trkpt lat="44.027655" lon="-114.592232"><ele>2809.5</ele></trkpt>
      <trkpt lat="44.027644" lon="-114.592173"><ele>2809.5</ele></trkpt>
      <trkpt lat="44.027648" lon="-114.591932"><ele>2810.0</ele></trkpt>
      <trkpt lat="44.027635" lon="-114.591785"><ele>2810.2</ele></trkpt>
      <trkpt lat="44.027593" lon="-114.591551"><ele>2810.8</ele></trkpt>
      <trkpt lat="44.027555" lon="-114.591414"><ele>2810.8</ele></trkpt>
      <trkpt lat="44.027538" lon="-114.591292"><ele>2811.0</ele></trkpt>
      <trkpt lat="44.027495" lon="-114.591010"><ele>2811.5</ele></trkpt>
      <trkpt lat="44.027475" lon="-114.590846"><ele>2812.0</ele></trkpt>
      <trkpt lat="44.027390" lon="-114.590616"><ele>2812.2</ele></trkpt>
      <trkpt lat="44.027323" lon="-114.590208"><ele>2812.8</ele></trkpt>
      <trkpt lat="44.027251" lon="-114.589978"><ele>2813.0</ele></trkpt>
      <trkpt lat="44.027251" lon="-114.589797"><ele>2813.2</ele></trkpt>
      <trkpt lat="44.027215" lon="-114.589781"><ele>2813.5</ele></trkpt>
      <trkpt lat="44.027072" lon="-114.589972"><ele>2814.0</ele></trkpt>
      <trkpt lat="44.026933" lon="-114.590140"><ele>2814.5</ele></trkpt>
      <trkpt lat="44.026456" lon="-114.590522"><ele>2816.0</ele></trkpt>
      <trkpt lat="44.025259" lon="-114.591116"><ele>2820.5</ele></trkpt>
      <trkpt lat="44.026456" lon="-114.590522"><ele>2816.0</ele></trkpt>
      <trkpt lat="44.026933" lon="-114.590140"><ele>2814.5</ele></trkpt>
      <trkpt lat="44.027072" lon="-114.589972"><ele>2814.0</ele></trkpt>
      <trkpt lat="44.027215" lon="-114.589781"><ele>2813.5</ele></trkpt>
      <trkpt lat="44.027264" lon="-114.589653"><ele>2813.2</ele></trkpt>
      <trkpt lat="44.027295" lon="-114.589265"><ele>2813.5</ele></trkpt>
      <trkpt lat="44.027305" lon="-114.588990"><ele>2812.5</ele></trkpt>
      <trkpt lat="44.027329" lon="-114.588790"><ele>2811.2</ele></trkpt>
      <trkpt lat="44.027366" lon="-114.588218"><ele>2809.0</ele></trkpt>
      <trkpt lat="44.027369" lon="-114.587881"><ele>2810.8</ele></trkpt>
      <trkpt lat="44.027346" lon="-114.587643"><ele>2811.8</ele></trkpt>
      <trkpt lat="44.027293" lon="-114.587337"><ele>2813.2</ele></trkpt>
      <trkpt lat="44.027225" lon="-114.587155"><ele>2813.8</ele></trkpt>
      <trkpt lat="44.027072" lon="-114.586986"><ele>2813.2</ele></trkpt>
      <trkpt lat="44.026897" lon="-114.586720"><ele>2812.2</ele></trkpt>
      <trkpt lat="44.026807" lon="-114.586477"><ele>2812.5</ele></trkpt>
      <trkpt lat="44.026674" lon="-114.586162"><ele>2813.0</ele></trkpt>
      <trkpt lat="44.026616" lon="-114.585838"><ele>2814.0</ele></trkpt>
      <trkpt lat="44.026519" lon="-114.585688"><ele>2812.8</ele></trkpt>
      <trkpt lat="44.026497" lon="-114.585435"><ele>2813.0</ele></trkpt>
      <trkpt lat="44.026537" lon="-114.585099"><ele>2814.0</ele></trkpt>
      <trkpt lat="44.026557" lon="-114.584719"><ele>2814.2</ele></trkpt>
      <trkpt lat="44.026549" lon="-114.584608"><ele>2814.2</ele></trkpt>
      <trkpt lat="44.026516" lon="-114.584319"><ele>2813.5</ele></trkpt>
      <trkpt lat="44.026433" lon="-114.584031"><ele>2812.5</ele></trkpt>
      <trkpt lat="44.026357" lon="-114.583760"><ele>2812.0</ele></trkpt>
      <trkpt lat="44.026238" lon="-114.583176"><ele>2811.5</ele></trkpt>
      <trkpt lat="44.026231" lon="-114.582831"><ele>2813.5</ele></trkpt>
      <trkpt lat="44.026272" lon="-114.582593"><ele>2815.8</ele></trkpt>
      <trkpt lat="44.026355" lon="-114.582191"><ele>2819.8</ele></trkpt>
      <trkpt lat="44.026359" lon="-114.581270"><ele>2822.5</ele></trkpt>
      <trkpt lat="44.026411" lon="-114.581056"><ele>2824.2</ele></trkpt>
      <trkpt lat="44.026461" lon="-114.580847"><ele>2825.8</ele></trkpt>
      <trkpt lat="44.026480" lon="-114.580627"><ele>2827.2</ele></trkpt>
      <trkpt lat="44.026503" lon="-114.580513"><ele>2828.8</ele></trkpt>
      <trkpt lat="44.026481" lon="-114.580321"><ele>2829.2</ele></trkpt>
      <trkpt lat="44.026520" lon="-114.580178"><ele>2831.2</ele></trkpt>
      <trkpt lat="44.026599" lon="-114.579934"><ele>2834.8</ele></trkpt>
      <trkpt lat="44.026666" lon="-114.579867"><ele>2836.8</ele></trkpt>
      <trkpt lat="44.026811" lon="-114.579791"><ele>2841.2</ele></trkpt>
      <trkpt lat="44.026856" lon="-114.579589"><ele>2843.0</ele></trkpt>
      <trkpt lat="44.027065" lon="-114.579099"><ele>2850.8</ele></trkpt>
      <trkpt lat="44.027177" lon="-114.578629"><ele>2856.0</ele></trkpt>
      <trkpt lat="44.027182" lon="-114.578366"><ele>2856.8</ele></trkpt>
      <trkpt lat="44.027202" lon="-114.578114"><ele>2856.0</ele></trkpt>
      <trkpt lat="44.027266" lon="-114.577896"><ele>2856.8</ele></trkpt>
      <trkpt lat="44.027280" lon="-114.577484"><ele>2854.2</ele></trkpt>
      <trkpt lat="44.027298" lon="-114.577391"><ele>2855.0</ele></trkpt>
      <trkpt lat="44.027340" lon="-114.577328"><ele>2856.8</ele></trkpt>
      <trkpt lat="44.027435" lon="-114.576961"><ele>2861.0</ele></trkpt>
      <trkpt lat="44.027540" lon="-114.576714"><ele>2865.5</ele></trkpt>
      <trkpt lat="44.027658" lon="-114.576507"><ele>2870.2</ele></trkpt>
      <trkpt lat="44.027852" lon="-114.576011"><ele>2875.5</ele></trkpt>
      <trkpt lat="44.028056" lon="-114.575527"><ele>2874.0</ele></trkpt>
      <trkpt lat="44.028289" lon="-114.575307"><ele>2874.2</ele></trkpt>
      <trkpt lat="44.028613" lon="-114.575135"><ele>2871.5</ele></trkpt>
      <trkpt lat="44.029109" lon="-114.574969"><ele>2868.0</ele></trkpt>
      <trkpt lat="44.029211" lon="-114.574809"><ele>2866.2</ele></trkpt>
      <trkpt lat="44.029303" lon="-114.574632"><ele>2865.2</ele></trkpt>
      <trkpt lat="44.029487" lon="-114.574465"><ele>2866.8</ele></trkpt>
      <trkpt lat="44.029635" lon="-114.574404"><ele>2869.8</ele></trkpt>
      <trkpt lat="44.029705" lon="-114.574301"><ele>2869.5</ele></trkpt>
      <trkpt lat="44.029866" lon="-114.574091"><ele>2871.8</ele></trkpt>
      <trkpt lat="44.030023" lon="-114.573990"><ele>2877.0</ele></trkpt>
      <trkpt lat="44.030045" lon="-114.573926"><ele>2878.2</ele></trkpt>
      <trkpt lat="44.030041" lon="-114.573812"><ele>2878.8</ele></trkpt>
      <trkpt lat="44.030097" lon="-114.573643"><ele>2881.2</ele></trkpt>
      <trkpt lat="44.030042" lon="-114.573364"><ele>2881.5</ele></trkpt>
      <trkpt lat="44.029939" lon="-114.573237"><ele>2882.2</ele></trkpt>
      <trkpt lat="44.029849" lon="-114.573182"><ele>2881.8</ele></trkpt>
      <trkpt lat="44.029685" lon="-114.572972"><ele>2883.8</ele></trkpt>
      <trkpt lat="44.029472" lon="-114.572771"><ele>2883.8</ele></trkpt>
      <trkpt lat="44.029273" lon="-114.572585"><ele>2883.5</ele></trkpt>
      <trkpt lat="44.029106" lon="-114.572383"><ele>2884.2</ele></trkpt>
      <trkpt lat="44.028747" lon="-114.572010"><ele>2883.8</ele></trkpt>
      <trkpt lat="44.028668" lon="-114.571857"><ele>2885.5</ele></trkpt>
      <trkpt lat="44.028678" lon="-114.571790"><ele>2887.5</ele></trkpt>
      <trkpt lat="44.028845" lon="-114.571674"><ele>2895.5</ele></trkpt>
      <trkpt lat="44.028901" lon="-114.571500"><ele>2896.5</ele></trkpt>
      <trkpt lat="44.029013" lon="-114.570823"><ele>2896.2</ele></trkpt>
      <trkpt lat="44.030068" lon="-114.569810"><ele>2903.0</ele></trkpt>
      <trkpt lat="44.030557" lon="-114.570258"><ele>2912.0</ele></trkpt>
      <trkpt lat="44.030713" lon="-114.571445"><ele>2932.8</ele></trkpt>
      <trkpt lat="44.030681" lon="-114.571763"><ele>2933.5</ele></trkpt>
      <trkpt lat="44.031764" lon="-114.570765"><ele>2944.0</ele></trkpt>
      <trkpt lat="44.032274" lon="-114.569723"><ele>2951.0</ele></trkpt>
      <trkpt lat="44.032555" lon="-114.568854"><ele>2959.5</ele></trkpt>
      <trkpt lat="44.032752" lon="-114.568463"><ele>2970.8</ele></trkpt>
      <trkpt lat="44.032908" lon="-114.569332"><ele>2971.2</ele></trkpt>
      <trkpt lat="44.033012" lon="-114.569694"><ele>2978.0</ele></trkpt>
      <trkpt lat="44.032347" lon="-114.570750"><ele>2963.8</ele></trkpt>
      <trkpt lat="44.032211" lon="-114.571373"><ele>2965.5</ele></trkpt>
      <trkpt lat="44.032877" lon="-114.570996"><ele>2978.2</ele></trkpt>
      <trkpt lat="44.033668" lon="-114.570938"><ele>2995.0</ele></trkpt>
      <trkpt lat="44.034501" lon="-114.570519"><ele>3015.2</ele></trkpt>
      <trkpt lat="44.035255" lon="-114.570931"><ele>3033.8</ele></trkpt>
      <trkpt lat="44.035369" lon="-114.570964"><ele>3036.5</ele></trkpt>
      <trkpt lat="44.035493" lon="-114.570974"><ele>3038.8</ele></trkpt>
      <trkpt lat="44.035627" lon="-114.570963"><ele>3040.8</ele></trkpt>
      <trkpt lat="44.035699" lon="-114.570942"><ele>3041.8</ele></trkpt>
      <trkpt lat="44.035867" lon="-114.570934"><ele>3043.0</ele></trkpt>
      <trkpt lat="44.035948" lon="-114.570931"><ele>3040.2</ele></trkpt>
      <trkpt lat="44.036072" lon="-114.570765"><ele>3036.2</ele></trkpt>
      <trkpt lat="44.036988" lon="-114.569563"><ele>3026.0</ele></trkpt>
      <trkpt lat="44.036655" lon="-114.570533"><ele>3022.2</ele></trkpt>
      <trkpt lat="44.037685" lon="-114.569708"><ele>2993.0</ele></trkpt>
      <trkpt lat="44.037571" lon="-114.570051"><ele>2989.0</ele></trkpt>
      <trkpt lat="44.037690" lon="-114.570087"><ele>2983.8</ele></trkpt>
      <trkpt lat="44.037983" lon="-114.569804"><ele>2978.8</ele></trkpt>
      <trkpt lat="44.037557" lon="-114.570590"><ele>2975.0</ele></trkpt>
      <trkpt lat="44.037636" lon="-114.571159"><ele>2963.5</ele></trkpt>
      <trkpt lat="44.037698" lon="-114.571240"><ele>2961.0</ele></trkpt>
      <trkpt lat="44.037851" lon="-114.570699"><ele>2964.8</ele></trkpt>
      <trkpt lat="44.038621" lon="-114.569827"><ele>2951.2</ele></trkpt>
      <trkpt lat="44.038588" lon="-114.571398"><ele>2932.0</ele></trkpt>
      <trkpt lat="44.038516" lon="-114.571905"><ele>2925.0</ele></trkpt>
      <trkpt lat="44.039403" lon="-114.570834"><ele>2910.2</ele></trkpt>
      <trkpt lat="44.040183" lon="-114.569924"><ele>2897.5</ele></trkpt>
      <trkpt lat="44.041145" lon="-114.568133"><ele>2884.2</ele></trkpt>
      <trkpt lat="44.041828" lon="-114.567715"><ele>2878.8</ele></trkpt>
      <trkpt lat="44.042731" lon="-114.567012"><ele>2867.5</ele></trkpt>
      <trkpt lat="44.042756" lon="-114.567526"><ele>2863.0</ele></trkpt>
      <trkpt lat="44.043113" lon="-114.566887"><ele>2855.5</ele></trkpt>
      <trkpt lat="44.043100" lon="-114.566345"><ele>2860.8</ele></trkpt>
      <trkpt lat="44.043516" lon="-114.566159"><ele>2849.2</ele></trkpt>
      <trkpt lat="44.043318" lon="-114.566727"><ele>2848.5</ele></trkpt>
      <trkpt lat="44.043602" lon="-114.567443"><ele>2840.2</ele></trkpt>
      <trkpt lat="44.043669" lon="-114.568018"><ele>2832.5</ele></trkpt>
      <trkpt lat="44.043202" lon="-114.569150"><ele>2830.8</ele></trkpt>
      <trkpt lat="44.043202" lon="-114.569150"><ele>2830.8</ele></trkpt>
      <trkpt lat="44.043669" lon="-114.568018"><ele>2832.5</ele></trkpt>
      <trkpt lat="44.043602" lon="-114.567443"><ele>2840.2</ele></trkpt>
      <trkpt lat="44.043318" lon="-114.566727"><ele>2848.5</ele></trkpt>
      <trkpt lat="44.043516" lon="-114.566159"><ele>2849.2</ele></trkpt>
      <trkpt lat="44.043100" lon="-114.566345"><ele>2860.8</ele></trkpt>
      <trkpt lat="44.043113" lon="-114.566887"><ele>2855.5</ele></trkpt>
      <trkpt lat="44.042756" lon="-114.567526"><ele>2863.0</ele></trkpt>
      <trkpt lat="44.042731" lon="-114.567012"><ele>2867.5</ele></trkpt>
      <trkpt lat="44.041828" lon="-114.567715"><ele>2878.8</ele></trkpt>
      <trkpt lat="44.041145" lon="-114.568133"><ele>2884.2</ele></trkpt>
      <trkpt lat="44.040183" lon="-114.569924"><ele>2897.5</ele></trkpt>
      <trkpt lat="44.039403" lon="-114.570834"><ele>2910.2</ele></trkpt>
      <trkpt lat="44.038516" lon="-114.571905"><ele>2925.0</ele></trkpt>
      <trkpt lat="44.038588" lon="-114.571398"><ele>2932.0</ele></trkpt>
      <trkpt lat="44.038621" lon="-114.569827"><ele>2951.2</ele></trkpt>
      <trkpt lat="44.037851" lon="-114.570699"><ele>2964.8</ele></trkpt>
      <trkpt lat="44.037698" lon="-114.571240"><ele>2961.0</ele></trkpt>
      <trkpt lat="44.037636" lon="-114.571159"><ele>2963.5</ele></trkpt>
      <trkpt lat="44.037557" lon="-114.570590"><ele>2975.0</ele></trkpt>
      <trkpt lat="44.037983" lon="-114.569804"><ele>2978.8</ele></trkpt>
      <trkpt lat="44.037690" lon="-114.570087"><ele>2983.8</ele></trkpt>
      <trkpt lat="44.037571" lon="-114.570051"><ele>2989.0</ele></trkpt>
      <trkpt lat="44.037685" lon="-114.569708"><ele>2993.0</ele></trkpt>
      <trkpt lat="44.036655" lon="-114.570533"><ele>3022.2</ele></trkpt>
      <trkpt lat="44.036988" lon="-114.569563"><ele>3026.0</ele></trkpt>
      <trkpt lat="44.036072" lon="-114.570765"><ele>3036.2</ele></trkpt>
      <trkpt lat="44.035948" lon="-114.570931"><ele>3040.2</ele></trkpt>
      <trkpt lat="44.035867" lon="-114.570934"><ele>3043.0</ele></trkpt>
      <trkpt lat="44.035699" lon="-114.570942"><ele>3041.8</ele></trkpt>
      <trkpt lat="44.035627" lon="-114.570963"><ele>3040.8</ele></trkpt>
      <trkpt lat="44.035493" lon="-114.570974"><ele>3038.8</ele></trkpt>
      <trkpt lat="44.035369" lon="-114.570964"><ele>3036.5</ele></trkpt>
      <trkpt lat="44.035255" lon="-114.570931"><ele>3033.8</ele></trkpt>
      <trkpt lat="44.034501" lon="-114.570519"><ele>3015.2</ele></trkpt>
      <trkpt lat="44.033668" lon="-114.570938"><ele>2995.0</ele></trkpt>
      <trkpt lat="44.032877" lon="-114.570996"><ele>2978.2</ele></trkpt>
      <trkpt lat="44.032211" lon="-114.571373"><ele>2965.5</ele></trkpt>
      <trkpt lat="44.032347" lon="-114.570750"><ele>2963.8</ele></trkpt>
      <trkpt lat="44.033012" lon="-114.569694"><ele>2978.0</ele></trkpt>
      <trkpt lat="44.032908" lon="-114.569332"><ele>2971.2</ele></trkpt>
      <trkpt lat="44.032752" lon="-114.568463"><ele>2970.8</ele></trkpt>
      <trkpt lat="44.032555" lon="-114.568854"><ele>2959.5</ele></trkpt>
      <trkpt lat="44.032274" lon="-114.569723"><ele>2951.0</ele></trkpt>
      <trkpt lat="44.031764" lon="-114.570765"><ele>2944.0</ele></trkpt>
      <trkpt lat="44.030681" lon="-114.571763"><ele>2933.5</ele></trkpt>
      <trkpt lat="44.030713" lon="-114.571445"><ele>2932.8</ele></trkpt>
      <trkpt lat="44.030557" lon="-114.570258"><ele>2912.0</ele></trkpt>
      <trkpt lat="44.030068" lon="-114.569810"><ele>2903.0</ele></trkpt>
      <trkpt lat="44.029013" lon="-114.570823"><ele>2896.2</ele></trkpt>
      <trkpt lat="44.028901" lon="-114.571500"><ele>2896.5</ele></trkpt>
      <trkpt lat="44.028845" lon="-114.571674"><ele>2895.5</ele></trkpt>
      <trkpt lat="44.028678" lon="-114.571790"><ele>2887.5</ele></trkpt>
      <trkpt lat="44.028668" lon="-114.571857"><ele>2885.5</ele></trkpt>
      <trkpt lat="44.028747" lon="-114.572010"><ele>2883.8</ele></trkpt>
      <trkpt lat="44.029106" lon="-114.572383"><ele>2884.2</ele></trkpt>
      <trkpt lat="44.029273" lon="-114.572585"><ele>2883.5</ele></trkpt>
      <trkpt lat="44.029472" lon="-114.572771"><ele>2883.8</ele></trkpt>
      <trkpt lat="44.029685" lon="-114.572972"><ele>2883.8</ele></trkpt>
      <trkpt lat="44.029849" lon="-114.573182"><ele>2881.8</ele></trkpt>
      <trkpt lat="44.029939" lon="-114.573237"><ele>2882.2</ele></trkpt>
      <trkpt lat="44.030042" lon="-114.573364"><ele>2881.5</ele></trkpt>
      <trkpt lat="44.030097" lon="-114.573643"><ele>2881.2</ele></trkpt>
      <trkpt lat="44.030041" lon="-114.573812"><ele>2878.8</ele></trkpt>
      <trkpt lat="44.030045" lon="-114.573926"><ele>2878.2</ele></trkpt>
      <trkpt lat="44.030023" lon="-114.573990"><ele>2877.0</ele></trkpt>
      <trkpt lat="44.029866" lon="-114.574091"><ele>2871.8</ele></trkpt>
      <trkpt lat="44.029705" lon="-114.574301"><ele>2869.5</ele></trkpt>
      <trkpt lat="44.029635" lon="-114.574404"><ele>2869.8</ele></trkpt>
      <trkpt lat="44.029487" lon="-114.574465"><ele>2866.8</ele></trkpt>
      <trkpt lat="44.029303" lon="-114.574632"><ele>2865.2</ele></trkpt>
      <trkpt lat="44.029211" lon="-114.574809"><ele>2866.2</ele></trkpt>
      <trkpt lat="44.029109" lon="-114.574969"><ele>2868.0</ele></trkpt>
      <trkpt lat="44.028613" lon="-114.575135"><ele>2871.5</ele></trkpt>
      <trkpt lat="44.028289" lon="-114.575307"><ele>2874.2</ele></trkpt>
      <trkpt lat="44.028056" lon="-114.575527"><ele>2874.0</ele></trkpt>
      <trkpt lat="44.027852" lon="-114.576011"><ele>2875.5</ele></trkpt>
      <trkpt lat="44.027658" lon="-114.576507"><ele>2870.2</ele></trkpt>
      <trkpt lat="44.027540" lon="-114.576714"><ele>2865.5</ele></trkpt>
      <trkpt lat="44.027435" lon="-114.576961"><ele>2861.0</ele></trkpt>
      <trkpt lat="44.027340" lon="-114.577328"><ele>2856.8</ele></trkpt>
      <trkpt lat="44.027298" lon="-114.577391"><ele>2855.0</ele></trkpt>
      <trkpt lat="44.027280" lon="-114.577484"><ele>2854.2</ele></trkpt>
      <trkpt lat="44.027266" lon="-114.577896"><ele>2856.8</ele></trkpt>
      <trkpt lat="44.027202" lon="-114.578114"><ele>2856.0</ele></trkpt>
      <trkpt lat="44.027182" lon="-114.578366"><ele>2856.8</ele></trkpt>
      <trkpt lat="44.027177" lon="-114.578629"><ele>2856.0</ele></trkpt>
      <trkpt lat="44.027065" lon="-114.579099"><ele>2850.8</ele></trkpt>
      <trkpt lat="44.026856" lon="-114.579589"><ele>2843.0</ele></trkpt>
      <trkpt lat="44.026811" lon="-114.579791"><ele>2841.2</ele></trkpt>
      <trkpt lat="44.026666" lon="-114.579867"><ele>2836.8</ele></trkpt>
      <trkpt lat="44.026599" lon="-114.579934"><ele>2834.8</ele></trkpt>
      <trkpt lat="44.026520" lon="-114.580178"><ele>2831.2</ele></trkpt>
      <trkpt lat="44.026481" lon="-114.580321"><ele>2829.2</ele></trkpt>
      <trkpt lat="44.026503" lon="-114.580513"><ele>2828.8</ele></trkpt>
      <trkpt lat="44.026480" lon="-114.580627"><ele>2827.2</ele></trkpt>
      <trkpt lat="44.026461" lon="-114.580847"><ele>2825.8</ele></trkpt>
      <trkpt lat="44.026411" lon="-114.581056"><ele>2824.2</ele></trkpt>
      <trkpt lat="44.026359" lon="-114.581270"><ele>2822.5</ele></trkpt>
      <trkpt lat="44.026355" lon="-114.582191"><ele>2819.8</ele></trkpt>
      <trkpt lat="44.026272" lon="-114.582593"><ele>2815.8</ele></trkpt>
      <trkpt lat="44.026231" lon="-114.582831"><ele>2813.5</ele></trkpt>
      <trkpt lat="44.026238" lon="-114.583176"><ele>2811.5</ele></trkpt>
      <trkpt lat="44.026357" lon="-114.583760"><ele>2812.0</ele></trkpt>
      <trkpt lat="44.026433" lon="-114.584031"><ele>2812.5</ele></trkpt>
      <trkpt lat="44.026516" lon="-114.584319"><ele>2813.5</ele></trkpt>
      <trkpt lat="44.026549" lon="-114.584608"><ele>2814.2</ele></trkpt>
      <trkpt lat="44.026557" lon="-114.584719"><ele>2814.2</ele></trkpt>
      <trkpt lat="44.026537" lon="-114.585099"><ele>2814.0</ele></trkpt>
      <trkpt lat="44.026497" lon="-114.585435"><ele>2813.0</ele></trkpt>
      <trkpt lat="44.026519" lon="-114.585688"><ele>2812.8</ele></trkpt>
      <trkpt lat="44.026616" lon="-114.585838"><ele>2814.0</ele></trkpt>
      <trkpt lat="44.026674" lon="-114.586162"><ele>2813.0</ele></trkpt>
      <trkpt lat="44.026807" lon="-114.586477"><ele>2812.5</ele></trkpt>
      <trkpt lat="44.026897" lon="-114.586720"><ele>2812.2</ele></trkpt>
      <trkpt lat="44.027072" lon="-114.586986"><ele>2813.2</ele></trkpt>
      <trkpt lat="44.027225" lon="-114.587155"><ele>2813.8</ele></trkpt>
      <trkpt lat="44.027293" lon="-114.587337"><ele>2813.2</ele></trkpt>
      <trkpt lat="44.027346" lon="-114.587643"><ele>2811.8</ele></trkpt>
      <trkpt lat="44.027369" lon="-114.587881"><ele>2810.8</ele></trkpt>
      <trkpt lat="44.027366" lon="-114.588218"><ele>2809.0</ele></trkpt>
      <trkpt lat="44.027329" lon="-114.588790"><ele>2811.2</ele></trkpt>
      <trkpt lat="44.027305" lon="-114.588990"><ele>2812.5</ele></trkpt>
      <trkpt lat="44.027295" lon="-114.589265"><ele>2813.5</ele></trkpt>
      <trkpt lat="44.027264" lon="-114.589653"><ele>2813.2</ele></trkpt>
      <trkpt lat="44.027251" lon="-114.589797"><ele>2813.2</ele></trkpt>
      <trkpt lat="44.027251" lon="-114.589978"><ele>2813.0</ele></trkpt>
      <trkpt lat="44.027323" lon="-114.590208"><ele>2812.8</ele></trkpt>
      <trkpt lat="44.027390" lon="-114.590616"><ele>2812.2</ele></trkpt>
      <trkpt lat="44.027475" lon="-114.590846"><ele>2812.0</ele></trkpt>
      <trkpt lat="44.027495" lon="-114.591010"><ele>2811.5</ele></trkpt>
      <trkpt lat="44.027538" lon="-114.591292"><ele>2811.0</ele></trkpt>
      <trkpt lat="44.027555" lon="-114.591414"><ele>2810.8</ele></trkpt>
      <trkpt lat="44.027593" lon="-114.591551"><ele>2810.8</ele></trkpt>
      <trkpt lat="44.027635" lon="-114.591785"><ele>2810.2</ele></trkpt>
      <trkpt lat="44.027648" lon="-114.591932"><ele>2810.0</ele></trkpt>
      <trkpt lat="44.027644" lon="-114.592173"><ele>2809.5</ele></trkpt>
      <trkpt lat="44.027679" lon="-114.592315"><ele>2809.5</ele></trkpt>
      <trkpt lat="44.027997" lon="-114.592900"><ele>2814.2</ele></trkpt>
      <trkpt lat="44.028188" lon="-114.593172"><ele>2817.5</ele></trkpt>
      <trkpt lat="44.028365" lon="-114.593829"><ele>2822.2</ele></trkpt>
      <trkpt lat="44.028450" lon="-114.593948"><ele>2822.8</ele></trkpt>
      <trkpt lat="44.028519" lon="-114.594074"><ele>2823.0</ele></trkpt>
      <trkpt lat="44.028577" lon="-114.594539"><ele>2824.0</ele></trkpt>
      <trkpt lat="44.028668" lon="-114.594822"><ele>2824.8</ele></trkpt>
      <trkpt lat="44.028850" lon="-114.595297"><ele>2828.2</ele></trkpt>
      <trkpt lat="44.028966" lon="-114.595432"><ele>2829.2</ele></trkpt>
      <trkpt lat="44.029129" lon="-114.595634"><ele>2830.0</ele></trkpt>
      <trkpt lat="44.029320" lon="-114.595879"><ele>2833.5</ele></trkpt>
      <trkpt lat="44.029332" lon="-114.595994"><ele>2836.2</ele></trkpt>
      <trkpt lat="44.029237" lon="-114.596300"><ele>2842.0</ele></trkpt>
      <trkpt lat="44.029085" lon="-114.596744"><ele>2851.0</ele></trkpt>
      <trkpt lat="44.029041" lon="-114.597009"><ele>2857.0</ele></trkpt>
      <trkpt lat="44.029009" lon="-114.597094"><ele>2858.8</ele></trkpt>
      <trkpt lat="44.028902" lon="-114.597350"><ele>2865.0</ele></trkpt>
      <trkpt lat="44.028872" lon="-114.597568"><ele>2869.0</ele></trkpt>
      <trkpt lat="44.028905" lon="-114.597729"><ele>2870.8</ele></trkpt>
      <trkpt lat="44.028909" lon="-114.597928"><ele>2873.2</ele></trkpt>
      <trkpt lat="44.028924" lon="-114.598356"><ele>2877.8</ele></trkpt>
      <trkpt lat="44.028895" lon="-114.598583"><ele>2877.8</ele></trkpt>
      <trkpt lat="44.028936" lon="-114.598738"><ele>2878.0</ele></trkpt>
      <trkpt lat="44.029031" lon="-114.599067"><ele>2878.8</ele></trkpt>
      <trkpt lat="44.029031" lon="-114.599145"><ele>2879.2</ele></trkpt>
    </trkseg>
    <trkseg>
      <!-- Sun — back over the divide to Washington Lake -->
      <trkpt lat="44.029031" lon="-114.599145"><ele>2878.8</ele></trkpt>
      <trkpt lat="44.029015" lon="-114.598948"><ele>2878.5</ele></trkpt>
      <trkpt lat="44.028913" lon="-114.598666"><ele>2877.8</ele></trkpt>
      <trkpt lat="44.028901" lon="-114.598485"><ele>2877.8</ele></trkpt>
      <trkpt lat="44.028927" lon="-114.598131"><ele>2875.5</ele></trkpt>
      <trkpt lat="44.028924" lon="-114.597816"><ele>2871.8</ele></trkpt>
      <trkpt lat="44.028885" lon="-114.597691"><ele>2870.5</ele></trkpt>
      <trkpt lat="44.028877" lon="-114.597477"><ele>2867.8</ele></trkpt>
      <trkpt lat="44.028936" lon="-114.597224"><ele>2862.0</ele></trkpt>
      <trkpt lat="44.029013" lon="-114.597035"><ele>2857.5</ele></trkpt>
      <trkpt lat="44.029097" lon="-114.596864"><ele>2853.5</ele></trkpt>
      <trkpt lat="44.029146" lon="-114.596585"><ele>2847.2</ele></trkpt>
      <trkpt lat="44.029293" lon="-114.596184"><ele>2840.0</ele></trkpt>
      <trkpt lat="44.029341" lon="-114.595911"><ele>2834.2</ele></trkpt>
      <trkpt lat="44.029250" lon="-114.595727"><ele>2831.0</ele></trkpt>
      <trkpt lat="44.029073" lon="-114.595575"><ele>2829.8</ele></trkpt>
      <trkpt lat="44.028905" lon="-114.595336"><ele>2828.5</ele></trkpt>
      <trkpt lat="44.028715" lon="-114.594989"><ele>2825.2</ele></trkpt>
      <trkpt lat="44.028596" lon="-114.594633"><ele>2824.2</ele></trkpt>
      <trkpt lat="44.028548" lon="-114.594443"><ele>2823.8</ele></trkpt>
      <trkpt lat="44.028492" lon="-114.594001"><ele>2823.0</ele></trkpt>
      <trkpt lat="44.028402" lon="-114.593912"><ele>2822.8</ele></trkpt>
      <trkpt lat="44.028308" lon="-114.593597"><ele>2821.0</ele></trkpt>
      <trkpt lat="44.028140" lon="-114.593085"><ele>2816.5</ele></trkpt>
      <trkpt lat="44.027776" lon="-114.592534"><ele>2810.0</ele></trkpt>
      <trkpt lat="44.027650" lon="-114.592212"><ele>2809.5</ele></trkpt>
      <trkpt lat="44.027655" lon="-114.592121"><ele>2809.8</ele></trkpt>
      <trkpt lat="44.027631" lon="-114.591865"><ele>2810.0</ele></trkpt>
      <trkpt lat="44.027608" lon="-114.591612"><ele>2810.5</ele></trkpt>
      <trkpt lat="44.027568" lon="-114.591502"><ele>2810.8</ele></trkpt>
      <trkpt lat="44.027537" lon="-114.591360"><ele>2810.8</ele></trkpt>
      <trkpt lat="44.027518" lon="-114.591198"><ele>2811.2</ele></trkpt>
      <trkpt lat="44.027485" lon="-114.590976"><ele>2811.5</ele></trkpt>
      <trkpt lat="44.027438" lon="-114.590716"><ele>2812.0</ele></trkpt>
      <trkpt lat="44.027377" lon="-114.590447"><ele>2812.5</ele></trkpt>
      <trkpt lat="44.027277" lon="-114.590082"><ele>2813.0</ele></trkpt>
      <trkpt lat="44.027245" lon="-114.589942"><ele>2813.2</ele></trkpt>
      <trkpt lat="44.027244" lon="-114.589742"><ele>2813.5</ele></trkpt>
      <trkpt lat="44.027097" lon="-114.589809"><ele>2814.2</ele></trkpt>
      <trkpt lat="44.027055" lon="-114.590037"><ele>2814.0</ele></trkpt>
      <trkpt lat="44.026748" lon="-114.590320"><ele>2815.2</ele></trkpt>
      <trkpt lat="44.025978" lon="-114.590898"><ele>2817.2</ele></trkpt>
      <trkpt lat="44.025051" lon="-114.591622"><ele>2821.5</ele></trkpt>
      <trkpt lat="44.023781" lon="-114.592259"><ele>2826.0</ele></trkpt>
      <trkpt lat="44.021970" lon="-114.594210"><ele>2840.2</ele></trkpt>
      <trkpt lat="44.019895" lon="-114.594614"><ele>2839.8</ele></trkpt>
      <trkpt lat="44.018942" lon="-114.596131"><ele>2856.2</ele></trkpt>
      <trkpt lat="44.018733" lon="-114.598081"><ele>2878.2</ele></trkpt>
      <trkpt lat="44.017418" lon="-114.600363"><ele>2906.0</ele></trkpt>
      <trkpt lat="44.018285" lon="-114.601050"><ele>2912.0</ele></trkpt>
      <trkpt lat="44.017642" lon="-114.601972"><ele>2934.8</ele></trkpt>
      <trkpt lat="44.016905" lon="-114.602414"><ele>2940.0</ele></trkpt>
      <trkpt lat="44.015298" lon="-114.602991"><ele>2970.0</ele></trkpt>
      <trkpt lat="44.014152" lon="-114.601813"><ele>2978.0</ele></trkpt>
      <trkpt lat="44.013410" lon="-114.600941"><ele>2977.0</ele></trkpt>
      <trkpt lat="44.013116" lon="-114.601106"><ele>2976.8</ele></trkpt>
      <trkpt lat="44.013041" lon="-114.602802"><ele>2982.0</ele></trkpt>
      <trkpt lat="44.012258" lon="-114.603890"><ele>2967.0</ele></trkpt>
      <trkpt lat="44.012424" lon="-114.602299"><ele>2956.2</ele></trkpt>
      <trkpt lat="44.011190" lon="-114.603283"><ele>2934.5</ele></trkpt>
      <trkpt lat="44.010196" lon="-114.603513"><ele>2920.0</ele></trkpt>
      <trkpt lat="44.008631" lon="-114.604120"><ele>2902.0</ele></trkpt>
      <trkpt lat="44.007427" lon="-114.604350"><ele>2895.8</ele></trkpt>
      <trkpt lat="44.006644" lon="-114.604288"><ele>2894.0</ele></trkpt>
      <trkpt lat="44.006192" lon="-114.604581"><ele>2883.5</ele></trkpt>
      <trkpt lat="44.006012" lon="-114.607050"><ele>2861.2</ele></trkpt>
      <trkpt lat="44.006328" lon="-114.608641"><ele>2850.8</ele></trkpt>
      <trkpt lat="44.006538" lon="-114.609604"><ele>2843.8</ele></trkpt>
      <trkpt lat="44.005997" lon="-114.610775"><ele>2824.2</ele></trkpt>
      <trkpt lat="44.004822" lon="-114.610608"><ele>2810.8</ele></trkpt>
      <trkpt lat="44.004235" lon="-114.609478"><ele>2803.0</ele></trkpt>
      <trkpt lat="44.003814" lon="-114.608452"><ele>2793.8</ele></trkpt>
      <trkpt lat="44.003678" lon="-114.609101"><ele>2789.8</ele></trkpt>
      <trkpt lat="44.003031" lon="-114.609855"><ele>2771.2</ele></trkpt>
      <trkpt lat="44.002655" lon="-114.610755"><ele>2754.8</ele></trkpt>
      <trkpt lat="44.002414" lon="-114.611529"><ele>2733.2</ele></trkpt>
      <trkpt lat="44.002043" lon="-114.610940"><ele>2735.5</ele></trkpt>
      <trkpt lat="44.001926" lon="-114.610553"><ele>2738.5</ele></trkpt>
      <trkpt lat="44.001635" lon="-114.610566"><ele>2732.0</ele></trkpt>
      <trkpt lat="44.001418" lon="-114.610738"><ele>2726.8</ele></trkpt>
      <trkpt lat="44.000648" lon="-114.610851"><ele>2715.0</ele></trkpt>
      <trkpt lat="44.001151" lon="-114.611176"><ele>2714.2</ele></trkpt>
      <trkpt lat="44.001465" lon="-114.611296"><ele>2715.0</ele></trkpt>
      <trkpt lat="44.001450" lon="-114.611543"><ele>2709.2</ele></trkpt>
      <trkpt lat="44.001863" lon="-114.612422"><ele>2691.5</ele></trkpt>
      <trkpt lat="44.002534" lon="-114.612973"><ele>2687.2</ele></trkpt>
      <trkpt lat="44.003302" lon="-114.613496"><ele>2679.0</ele></trkpt>
      <trkpt lat="44.004943" lon="-114.614857"><ele>2656.2</ele></trkpt>
      <trkpt lat="44.005590" lon="-114.615777"><ele>2644.2</ele></trkpt>
      <trkpt lat="44.006584" lon="-114.615401"><ele>2654.8</ele></trkpt>
      <trkpt lat="44.007758" lon="-114.615484"><ele>2657.0</ele></trkpt>
      <trkpt lat="44.008706" lon="-114.615359"><ele>2665.8</ele></trkpt>
      <trkpt lat="44.011175" lon="-114.615464"><ele>2685.0</ele></trkpt>
      <trkpt lat="44.013033" lon="-114.615540"><ele>2707.2</ele></trkpt>
      <trkpt lat="44.014002" lon="-114.616039"><ele>2714.0</ele></trkpt>
      <trkpt lat="44.014887" lon="-114.616214"><ele>2722.0</ele></trkpt>
      <trkpt lat="44.016616" lon="-114.617166"><ele>2735.8</ele></trkpt>
      <trkpt lat="44.018152" lon="-114.617270"><ele>2755.0</ele></trkpt>
      <trkpt lat="44.020022" lon="-114.617201"><ele>2768.2</ele></trkpt>
      <trkpt lat="44.022101" lon="-114.617514"><ele>2777.8</ele></trkpt>
      <trkpt lat="44.022665" lon="-114.618111"><ele>2773.5</ele></trkpt>
      <trkpt lat="44.023545" lon="-114.618160"><ele>2782.0</ele></trkpt>
      <trkpt lat="44.024296" lon="-114.617867"><ele>2793.5</ele></trkpt>
      <trkpt lat="44.025255" lon="-114.617950"><ele>2816.8</ele></trkpt>
      <trkpt lat="44.026085" lon="-114.618016"><ele>2827.8</ele></trkpt>
      <trkpt lat="44.026464" lon="-114.618035"><ele>2830.5</ele></trkpt>
      <trkpt lat="44.026681" lon="-114.618320"><ele>2833.0</ele></trkpt>
      <trkpt lat="44.027112" lon="-114.618359"><ele>2835.2</ele></trkpt>
      <trkpt lat="44.027346" lon="-114.618537"><ele>2838.2</ele></trkpt>
      <trkpt lat="44.027619" lon="-114.618836"><ele>2842.2</ele></trkpt>
      <trkpt lat="44.028029" lon="-114.618941"><ele>2843.2</ele></trkpt>
      <trkpt lat="44.028530" lon="-114.619203"><ele>2847.2</ele></trkpt>
      <trkpt lat="44.029194" lon="-114.619738"><ele>2858.8</ele></trkpt>
      <trkpt lat="44.029467" lon="-114.620222"><ele>2864.0</ele></trkpt>
      <trkpt lat="44.029942" lon="-114.621133"><ele>2870.2</ele></trkpt>
      <trkpt lat="44.030434" lon="-114.621549"><ele>2869.5</ele></trkpt>
      <trkpt lat="44.030577" lon="-114.621754"><ele>2868.2</ele></trkpt>
    </trkseg>
    <trkseg>
      <!-- Mon — out past Fourth of July Lake -->
      <trkpt lat="44.031253" lon="-114.623005"><ele>2869.0</ele></trkpt>
      <trkpt lat="44.031578" lon="-114.623444"><ele>2869.5</ele></trkpt>
      <trkpt lat="44.031908" lon="-114.624051"><ele>2877.5</ele></trkpt>
      <trkpt lat="44.032135" lon="-114.624229"><ele>2877.2</ele></trkpt>
      <trkpt lat="44.032482" lon="-114.624428"><ele>2877.2</ele></trkpt>
      <trkpt lat="44.032879" lon="-114.624663"><ele>2883.5</ele></trkpt>
      <trkpt lat="44.033564" lon="-114.625194"><ele>2897.0</ele></trkpt>
      <trkpt lat="44.033839" lon="-114.625179"><ele>2897.0</ele></trkpt>
      <trkpt lat="44.034419" lon="-114.624865"><ele>2896.2</ele></trkpt>
      <trkpt lat="44.034705" lon="-114.624603"><ele>2898.2</ele></trkpt>
      <trkpt lat="44.035003" lon="-114.624582"><ele>2902.5</ele></trkpt>
      <trkpt lat="44.035593" lon="-114.625263"><ele>2914.0</ele></trkpt>
      <trkpt lat="44.035671" lon="-114.625542"><ele>2915.5</ele></trkpt>
      <trkpt lat="44.035927" lon="-114.626354"><ele>2920.8</ele></trkpt>
      <trkpt lat="44.036642" lon="-114.627279"><ele>2920.8</ele></trkpt>
      <trkpt lat="44.037438" lon="-114.627829"><ele>2923.5</ele></trkpt>
      <trkpt lat="44.037874" lon="-114.627945"><ele>2923.5</ele></trkpt>
      <trkpt lat="44.038293" lon="-114.628211"><ele>2920.5</ele></trkpt>
      <trkpt lat="44.038741" lon="-114.628513"><ele>2916.0</ele></trkpt>
      <trkpt lat="44.039051" lon="-114.628896"><ele>2909.5</ele></trkpt>
      <trkpt lat="44.039377" lon="-114.629334"><ele>2902.8</ele></trkpt>
      <trkpt lat="44.039878" lon="-114.630058"><ele>2893.8</ele></trkpt>
      <trkpt lat="44.040214" lon="-114.630531"><ele>2888.5</ele></trkpt>
      <trkpt lat="44.040545" lon="-114.631253"><ele>2884.2</ele></trkpt>
      <trkpt lat="44.040736" lon="-114.631716"><ele>2882.8</ele></trkpt>
      <trkpt lat="44.040955" lon="-114.631961"><ele>2881.5</ele></trkpt>
      <trkpt lat="44.041394" lon="-114.632183"><ele>2878.0</ele></trkpt>
      <trkpt lat="44.041957" lon="-114.632337"><ele>2872.5</ele></trkpt>
      <trkpt lat="44.042547" lon="-114.632753"><ele>2866.8</ele></trkpt>
      <trkpt lat="44.042777" lon="-114.632991"><ele>2865.2</ele></trkpt>
      <trkpt lat="44.042982" lon="-114.633185"><ele>2864.2</ele></trkpt>
      <trkpt lat="44.043560" lon="-114.633404"><ele>2861.8</ele></trkpt>
      <trkpt lat="44.043915" lon="-114.633493"><ele>2861.8</ele></trkpt>
      <trkpt lat="44.044196" lon="-114.633463"><ele>2861.5</ele></trkpt>
      <trkpt lat="44.044404" lon="-114.633612"><ele>2862.8</ele></trkpt>
      <trkpt lat="44.044548" lon="-114.633803"><ele>2863.2</ele></trkpt>
      <trkpt lat="44.045082" lon="-114.634088"><ele>2862.2</ele></trkpt>
      <trkpt lat="44.045441" lon="-114.634247"><ele>2861.5</ele></trkpt>
      <trkpt lat="44.045694" lon="-114.634404"><ele>2860.8</ele></trkpt>
      <trkpt lat="44.045887" lon="-114.634540"><ele>2859.8</ele></trkpt>
      <trkpt lat="44.046541" lon="-114.634884"><ele>2854.8</ele></trkpt>
      <trkpt lat="44.046977" lon="-114.634872"><ele>2852.2</ele></trkpt>
      <trkpt lat="44.047339" lon="-114.634773"><ele>2850.2</ele></trkpt>
      <trkpt lat="44.047788" lon="-114.635202"><ele>2848.0</ele></trkpt>
      <trkpt lat="44.048062" lon="-114.635953"><ele>2843.0</ele></trkpt>
      <trkpt lat="44.048164" lon="-114.636707"><ele>2834.0</ele></trkpt>
      <trkpt lat="44.048236" lon="-114.637249"><ele>2827.0</ele></trkpt>
      <trkpt lat="44.048403" lon="-114.637737"><ele>2820.8</ele></trkpt>
      <trkpt lat="44.048463" lon="-114.638150"><ele>2815.8</ele></trkpt>
      <trkpt lat="44.048324" lon="-114.638316"><ele>2813.2</ele></trkpt>
      <trkpt lat="44.048436" lon="-114.638563"><ele>2810.2</ele></trkpt>
      <trkpt lat="44.048559" lon="-114.639008"><ele>2804.2</ele></trkpt>
      <trkpt lat="44.048363" lon="-114.639459"><ele>2798.5</ele></trkpt>
      <trkpt lat="44.048103" lon="-114.639537"><ele>2797.8</ele></trkpt>
      <trkpt lat="44.047649" lon="-114.639610"><ele>2797.2</ele></trkpt>
      <trkpt lat="44.047392" lon="-114.641008"><ele>2782.0</ele></trkpt>
      <trkpt lat="44.047230" lon="-114.641844"><ele>2781.8</ele></trkpt>
      <trkpt lat="44.047385" lon="-114.642385"><ele>2777.0</ele></trkpt>
      <trkpt lat="44.047326" lon="-114.642927"><ele>2777.8</ele></trkpt>
      <trkpt lat="44.047550" lon="-114.643411"><ele>2772.5</ele></trkpt>
      <trkpt lat="44.047751" lon="-114.643712"><ele>2770.5</ele></trkpt>
      <trkpt lat="44.048054" lon="-114.643787"><ele>2767.0</ele></trkpt>
      <trkpt lat="44.048349" lon="-114.643906"><ele>2764.0</ele></trkpt>
      <trkpt lat="44.048544" lon="-114.643882"><ele>2763.2</ele></trkpt>
      <trkpt lat="44.048879" lon="-114.644172"><ele>2761.5</ele></trkpt>
      <trkpt lat="44.049124" lon="-114.644520"><ele>2759.5</ele></trkpt>
      <trkpt lat="44.049228" lon="-114.644874"><ele>2758.2</ele></trkpt>
      <trkpt lat="44.049323" lon="-114.645183"><ele>2757.5</ele></trkpt>
      <trkpt lat="44.049469" lon="-114.645819"><ele>2754.5</ele></trkpt>
      <trkpt lat="44.049673" lon="-114.646277"><ele>2749.8</ele></trkpt>
      <trkpt lat="44.049828" lon="-114.646937"><ele>2744.2</ele></trkpt>
      <trkpt lat="44.050028" lon="-114.647621"><ele>2739.2</ele></trkpt>
      <trkpt lat="44.050015" lon="-114.648383"><ele>2733.5</ele></trkpt>
      <trkpt lat="44.049891" lon="-114.648627"><ele>2733.8</ele></trkpt>
      <trkpt lat="44.049826" lon="-114.648916"><ele>2732.2</ele></trkpt>
      <trkpt lat="44.049797" lon="-114.649244"><ele>2730.2</ele></trkpt>
      <trkpt lat="44.049791" lon="-114.649777"><ele>2730.2</ele></trkpt>
      <trkpt lat="44.049832" lon="-114.650121"><ele>2728.8</ele></trkpt>
      <trkpt lat="44.049620" lon="-114.650520"><ele>2728.8</ele></trkpt>
      <trkpt lat="44.049512" lon="-114.650724"><ele>2727.8</ele></trkpt>
      <trkpt lat="44.049236" lon="-114.650931"><ele>2727.0</ele></trkpt>
      <trkpt lat="44.048716" lon="-114.651573"><ele>2723.5</ele></trkpt>
      <trkpt lat="44.048194" lon="-114.651894"><ele>2724.2</ele></trkpt>
      <trkpt lat="44.047917" lon="-114.652303"><ele>2718.2</ele></trkpt>
      <trkpt lat="44.047744" lon="-114.652835"><ele>2710.8</ele></trkpt>
      <trkpt lat="44.047570" lon="-114.653379"><ele>2705.0</ele></trkpt>
      <trkpt lat="44.047322" lon="-114.654172"><ele>2697.2</ele></trkpt>
      <trkpt lat="44.047026" lon="-114.654800"><ele>2692.5</ele></trkpt>
      <trkpt lat="44.046690" lon="-114.655022"><ele>2692.2</ele></trkpt>
      <trkpt lat="44.046504" lon="-114.655444"><ele>2687.5</ele></trkpt>
      <trkpt lat="44.046256" lon="-114.655786"><ele>2683.8</ele></trkpt>
      <trkpt lat="44.046081" lon="-114.656203"><ele>2680.2</ele></trkpt>
      <trkpt lat="44.046116" lon="-114.656552"><ele>2676.5</ele></trkpt>
      <trkpt lat="44.046275" lon="-114.656845"><ele>2674.0</ele></trkpt>
      <trkpt lat="44.046542" lon="-114.656964"><ele>2674.0</ele></trkpt>
      <trkpt lat="44.046602" lon="-114.657073"><ele>2674.2</ele></trkpt>
      <trkpt lat="44.046544" lon="-114.657211"><ele>2674.0</ele></trkpt>
      <trkpt lat="44.046558" lon="-114.657629"><ele>2674.0</ele></trkpt>
    </trkseg>
  </trk>
</gpx>
