<?xml version="1.0" encoding="UTF-8"?>
<gpx version="1.1" creator="pathbeaters26" xmlns="http://www.topografix.com/GPX/1/1" xmlns:xsi="http://www.w3.org/2001/XMLSchema-instance" xsi:schemaLocation="http://www.topografix.com/GPX/1/1 http://www.topografix.com/GPX/1/1/gpx.xsd">
  <metadata><name>Champion Lakes under Washington Peak</name></metadata>
  <wpt lat="44.039610" lon="-114.750730"><name>Champion Creek TH</name><sym>Trailhead</sym></wpt>
  <wpt lat="44.012570" lon="-114.691760"><name>Lower Champion Lake</name><sym>Waypoint</sym></wpt>
  <wpt lat="44.009570" lon="-114.691140"><name>Middle Champion Lake</name><sym>Waypoint</sym></wpt>
  <wpt lat="44.005580" lon="-114.691480"><name>Champion Lake (third)</name><sym>Waypoint</sym></wpt>
  <wpt lat="44.000050" lon="-114.685710"><name>Upper Champion Lake</name><sym>Waypoint</sym></wpt>
  <wpt lat="44.008520" lon="-114.672570"><name>Washington Peak (10,495 ft)</name><sym>Waypoint</sym></wpt>
  <wpt lat="44.012570" lon="-114.691760"><name>Fri camp · Lower Champion Lake</name><sym>Campground</sym></wpt>
  <wpt lat="44.012570" lon="-114.691760"><name>Sat camp · Lower Champion Lake</name><sym>Campground</sym></wpt>
  <wpt lat="44.012570" lon="-114.691760"><name>Sun camp · Lower Champion Lake</name><sym>Campground</sym></wpt>
  <trk><name>Champion Creek to the Champion Lakes</name>
    <!-- Fri -->
    <trkseg>
      <trkpt lat="44.039609" lon="-114.750731"><ele>2295.2</ele></trkpt>
      <trkpt lat="44.039493" lon="-114.750760"><ele>2296.5</ele></trkpt>
      <trkpt lat="44.039350" lon="-114.750892"><ele>2297.8</ele></trkpt>
      <trkpt lat="44.039165" lon="-114.751141"><ele>2298.5</ele></trkpt>
      <trkpt lat="44.039018" lon="-114.751584"><ele>2303.0</ele></trkpt>
      <trkpt lat="44.038839" lon="-114.752738"><ele>2313.2</ele></trkpt>
      <trkpt lat="44.038850" lon="-114.753316"><ele>2314.5</ele></trkpt>
      <trkpt lat="44.038952" lon="-114.753675"><ele>2311.8</ele></trkpt>
      <trkpt lat="44.038991" lon="-114.754111"><ele>2312.0</ele></trkpt>
      <trkpt lat="44.038799" lon="-114.754663"><ele>2321.2</ele></trkpt>
      <trkpt lat="44.038686" lon="-114.755279"><ele>2328.5</ele></trkpt>
      <trkpt lat="44.038732" lon="-114.755794"><ele>2327.5</ele></trkpt>
      <trkpt lat="44.038825" lon="-114.756005"><ele>2322.0</ele></trkpt>
      <trkpt lat="44.038807" lon="-114.756253"><ele>2323.5</ele></trkpt>
      <trkpt lat="44.038928" lon="-114.756991"><ele>2316.2</ele></trkpt>
      <trkpt lat="44.038901" lon="-114.757422"><ele>2317.0</ele></trkpt>
      <trkpt lat="44.038737" lon="-114.757866"><ele>2321.0</ele></trkpt>
      <trkpt lat="44.038702" lon="-114.758230"><ele>2318.0</ele></trkpt>
      <trkpt lat="44.039105" lon="-114.759319"><ele>2310.8</ele></trkpt>
      <trkpt lat="44.038942" lon="-114.760185"><ele>2315.5</ele></trkpt>
      <trkpt lat="44.038805" lon="-114.760678"><ele>2316.5</ele></trkpt>
      <trkpt lat="44.038704" lon="-114.760963"><ele>2319.5</ele></trkpt>
      <trkpt lat="44.038580" lon="-114.761363"><ele>2326.8</ele></trkpt>
      <trkpt lat="44.038459" lon="-114.761830"><ele>2335.0</ele></trkpt>
      <trkpt lat="44.038410" lon="-114.763128"><ele>2341.5</ele></trkpt>
      <trkpt lat="44.038441" lon="-114.763804"><ele>2337.5</ele></trkpt>
      <trkpt lat="44.038206" lon="-114.763929"><ele>2343.8</ele></trkpt>
      <trkpt lat="44.037955" lon="-114.764219"><ele>2349.0</ele></trkpt>
      <trkpt lat="44.037336" lon="-114.764861"><ele>2361.0</ele></trkpt>
      <trkpt lat="44.037140" lon="-114.765174"><ele>2363.5</ele></trkpt>
      <trkpt lat="44.036795" lon="-114.765492"><ele>2370.8</ele></trkpt>
      <trkpt lat="44.036399" lon="-114.765664"><ele>2384.8</ele></trkpt>
      <trkpt lat="44.036265" lon="-114.766082"><ele>2380.2</ele></trkpt>
      <trkpt lat="44.036142" lon="-114.766202"><ele>2384.0</ele></trkpt>
      <trkpt lat="44.036106" lon="-114.766492"><ele>2379.0</ele></trkpt>
      <trkpt lat="44.035911" lon="-114.766863"><ele>2383.2</ele></trkpt>
      <trkpt lat="44.035342" lon="-114.767346"><ele>2392.5</ele></trkpt>
      <trkpt lat="44.035079" lon="-114.767579"><ele>2396.5</ele></trkpt>
      <trkpt lat="44.034965" lon="-114.767831"><ele>2397.0</ele></trkpt>
      <trkpt lat="44.034791" lon="-114.767916"><ele>2395.5</ele></trkpt>
      <trkpt lat="44.034548" lon="-114.767541"><ele>2397.0</ele></trkpt>
      <trkpt lat="44.034288" lon="-114.767312"><ele>2399.5</ele></trkpt>
      <trkpt lat="44.033936" lon="-114.767284"><ele>2399.5</ele></trkpt>
      <trkpt lat="44.033390" lon="-114.767370"><ele>2397.5</ele></trkpt>
      <trkpt lat="44.032558" lon="-114.767459"><ele>2395.5</ele></trkpt>
      <trkpt lat="44.032095" lon="-114.767483"><ele>2395.8</ele></trkpt>
      <trkpt lat="44.031501" lon="-114.767563"><ele>2396.5</ele></trkpt>
      <trkpt lat="44.031022" lon="-114.767746"><ele>2398.0</ele></trkpt>
      <trkpt lat="44.030312" lon="-114.768334"><ele>2393.5</ele></trkpt>
      <trkpt lat="44.029967" lon="-114.768967"><ele>2388.5</ele></trkpt>
      <trkpt lat="44.029467" lon="-114.769324"><ele>2387.8</ele></trkpt>
      <trkpt lat="44.029078" lon="-114.769792"><ele>2385.5</ele></trkpt>
      <trkpt lat="44.028878" lon="-114.769932"><ele>2386.5</ele></trkpt>
      <trkpt lat="44.028375" lon="-114.770396"><ele>2387.5</ele></trkpt>
      <trkpt lat="44.028063" lon="-114.770912"><ele>2387.2</ele></trkpt>
      <trkpt lat="44.027836" lon="-114.771192"><ele>2389.5</ele></trkpt>
      <trkpt lat="44.027052" lon="-114.771948"><ele>2391.0</ele></trkpt>
      <trkpt lat="44.026551" lon="-114.771917"><ele>2392.5</ele></trkpt>
      <trkpt lat="44.026038" lon="-114.772193"><ele>2392.2</ele></trkpt>
      <trkpt lat="44.025631" lon="-114.772381"><ele>2392.2</ele></trkpt>
      <trkpt lat="44.025132" lon="-114.772458"><ele>2394.5</ele></trkpt>
      <trkpt lat="44.024526" lon="-114.772522"><ele>2394.8</ele></trkpt>
      <trkpt lat="44.024070" lon="-114.772662"><ele>2394.5</ele></trkpt>
      <trkpt lat="44.023595" lon="-114.772713"><ele>2394.8</ele></trkpt>
      <trkpt lat="44.023234" lon="-114.772842"><ele>2393.8</ele></trkpt>
      <trkpt lat="44.023101" lon="-114.773012"><ele>2392.2</ele></trkpt>
      <trkpt lat="44.023020" lon="-114.772850"><ele>2390.5</ele></trkpt>
      <trkpt lat="44.023235" lon="-114.771901"><ele>2387.5</ele></trkpt>
      <trkpt lat="44.023289" lon="-114.771295"><ele>2383.8</ele></trkpt>
      <trkpt lat="44.023219" lon="-114.770654"><ele>2380.5</ele></trkpt>
      <trkpt lat="44.023513" lon="-114.770366"><ele>2385.8</ele></trkpt>
      <trkpt lat="44.023161" lon="-114.770230"><ele>2383.0</ele></trkpt>
      <trkpt lat="44.022966" lon="-114.770515"><ele>2379.2</ele></trkpt>
      <trkpt lat="44.022880" lon="-114.771241"><ele>2375.0</ele></trkpt>
      <trkpt lat="44.022715" lon="-114.771545"><ele>2371.5</ele></trkpt>
      <trkpt lat="44.022489" lon="-114.771702"><ele>2366.2</ele></trkpt>
      <trkpt lat="44.021923" lon="-114.771990"><ele>2355.0</ele></trkpt>
      <trkpt lat="44.021685" lon="-114.772276"><ele>2348.5</ele></trkpt>
      <trkpt lat="44.021582" lon="-114.772904"><ele>2347.0</ele></trkpt>
      <trkpt lat="44.021349" lon="-114.773418"><ele>2342.5</ele></trkpt>
      <trkpt lat="44.021056" lon="-114.773785"><ele>2337.5</ele></trkpt>
      <trkpt lat="44.020725" lon="-114.774045"><ele>2330.0</ele></trkpt>
      <trkpt lat="44.020541" lon="-114.774468"><ele>2328.8</ele></trkpt>
      <trkpt lat="44.020425" lon="-114.774790"><ele>2327.5</ele></trkpt>
      <trkpt lat="44.020162" lon="-114.775196"><ele>2321.2</ele></trkpt>
      <trkpt lat="44.019843" lon="-114.776089"><ele>2314.2</ele></trkpt>
      <trkpt lat="44.019668" lon="-114.776977"><ele>2308.8</ele></trkpt>
      <trkpt lat="44.019617" lon="-114.776939"><ele>2307.0</ele></trkpt>
      <trkpt lat="44.019473" lon="-114.776162"><ele>2303.0</ele></trkpt>
      <trkpt lat="44.019380" lon="-114.775809"><ele>2300.2</ele></trkpt>
      <trkpt lat="44.019403" lon="-114.775481"><ele>2300.5</ele></trkpt>
      <trkpt lat="44.019375" lon="-114.775156"><ele>2299.2</ele></trkpt>
      <trkpt lat="44.018875" lon="-114.774451"><ele>2286.5</ele></trkpt>
      <trkpt lat="44.018826" lon="-114.774156"><ele>2285.0</ele></trkpt>
      <trkpt lat="44.018759" lon="-114.773257"><ele>2284.2</ele></trkpt>
      <trkpt lat="44.018491" lon="-114.772713"><ele>2278.0</ele></trkpt>
      <trkpt lat="44.018469" lon="-114.772318"><ele>2279.5</ele></trkpt>
      <trkpt lat="44.018390" lon="-114.771578"><ele>2279.5</ele></trkpt>
      <trkpt lat="44.018360" lon="-114.770410"><ele>2273.8</ele></trkpt>
      <trkpt lat="44.018555" lon="-114.769413"><ele>2277.0</ele></trkpt>
      <trkpt lat="44.018864" lon="-114.768850"><ele>2285.0</ele></trkpt>
      <trkpt lat="44.019041" lon="-114.768017"><ele>2285.8</ele></trkpt>
      <trkpt lat="44.019110" lon="-114.767378"><ele>2287.0</ele></trkpt>
      <trkpt lat="44.019163" lon="-114.765966"><ele>2292.0</ele></trkpt>
      <trkpt lat="44.019151" lon="-114.765817"><ele>2292.5</ele></trkpt>
      <trkpt lat="44.019105" lon="-114.765731"><ele>2291.2</ele></trkpt>
      <trkpt lat="44.018866" lon="-114.765478"><ele>2285.2</ele></trkpt>
      <trkpt lat="44.018709" lon="-114.765297"><ele>2281.8</ele></trkpt>
      <trkpt lat="44.018561" lon="-114.765090"><ele>2278.5</ele></trkpt>
      <trkpt lat="44.018469" lon="-114.764982"><ele>2276.5</ele></trkpt>
      <trkpt lat="44.018359" lon="-114.764898"><ele>2274.0</ele></trkpt>
      <trkpt lat="44.018277" lon="-114.764864"><ele>2273.2</ele></trkpt>
      <trkpt lat="44.017998" lon="-114.764825"><ele>2272.5</ele></trkpt>
      <trkpt lat="44.017781" lon="-114.764783"><ele>2271.5</ele></trkpt>
      <trkpt lat="44.017690" lon="-114.764724"><ele>2271.0</ele></trkpt>
      <trkpt lat="44.017624" lon="-114.764614"><ele>2270.8</ele></trkpt>
      <trkpt lat="44.017586" lon="-114.764516"><ele>2270.2</ele></trkpt>
      <trkpt lat="44.017555" lon="-114.764280"><ele>2269.5</ele></trkpt>
      <trkpt lat="44.017477" lon="-114.763509"><ele>2269.5</ele></trkpt>
      <trkpt lat="44.017397" lon="-114.763138"><ele>2270.0</ele></trkpt>
      <trkpt lat="44.017139" lon="-114.762362"><ele>2273.2</ele></trkpt>
      <trkpt lat="44.017061" lon="-114.762028"><ele>2275.5</ele></trkpt>
      <trkpt lat="44.016961" lon="-114.761532"><ele>2277.8</ele></trkpt>
      <trkpt lat="44.016853" lon="-114.761087"><ele>2276.5</ele></trkpt>
      <trkpt lat="44.016727" lon="-114.760655"><ele>2275.0</ele></trkpt>
      <trkpt lat="44.016576" lon="-114.760274"><ele>2274.5</ele></trkpt>
      <trkpt lat="44.016518" lon="-114.760065"><ele>2274.2</ele></trkpt>
      <trkpt lat="44.016516" lon="-114.759977"><ele>2274.2</ele></trkpt>
      <trkpt lat="44.016541" lon="-114.759877"><ele>2274.2</ele></trkpt>
      <trkpt lat="44.016656" lon="-114.759772"><ele>2274.8</ele></trkpt>
      <trkpt lat="44.016709" lon="-114.759733"><ele>2275.8</ele></trkpt>
      <trkpt lat="44.016751" lon="-114.759557"><ele>2277.0</ele></trkpt>
      <trkpt lat="44.016740" lon="-114.759432"><ele>2277.0</ele></trkpt>
      <trkpt lat="44.016560" lon="-114.758566"><ele>2279.5</ele></trkpt>
      <trkpt lat="44.016449" lon="-114.758408"><ele>2279.0</ele></trkpt>
      <trkpt lat="44.016375" lon="-114.758273"><ele>2279.0</ele></trkpt>
      <trkpt lat="44.016336" lon="-114.758150"><ele>2279.8</ele></trkpt>
      <trkpt lat="44.016218" lon="-114.757655"><ele>2283.0</ele></trkpt>
      <trkpt lat="44.016151" lon="-114.757434"><ele>2284.2</ele></trkpt>
      <trkpt lat="44.016086" lon="-114.757349"><ele>2283.8</ele></trkpt>
      <trkpt lat="44.015958" lon="-114.757254"><ele>2281.5</ele></trkpt>
      <trkpt lat="44.015542" lon="-114.757145"><ele>2278.2</ele></trkpt>
      <trkpt lat="44.015469" lon="-114.757110"><ele>2278.2</ele></trkpt>
      <trkpt lat="44.015405" lon="-114.757025"><ele>2278.5</ele></trkpt>
      <trkpt lat="44.015173" lon="-114.756672"><ele>2279.5</ele></trkpt>
      <trkpt lat="44.015072" lon="-114.756563"><ele>2280.2</ele></trkpt>
      <trkpt lat="44.014889" lon="-114.756421"><ele>2280.8</ele></trkpt>
      <trkpt lat="44.014806" lon="-114.756336"><ele>2281.0</ele></trkpt>
      <trkpt lat="44.014630" lon="-114.756081"><ele>2281.0</ele></trkpt>
      <trkpt lat="44.014423" lon="-114.755652"><ele>2280.8</ele></trkpt>
      <trkpt lat="44.014270" lon="-114.755196"><ele>2281.5</ele></trkpt>
      <trkpt lat="44.014180" lon="-114.754713"><ele>2283.0</ele></trkpt>
      <trkpt lat="44.014129" lon="-114.754391"><ele>2284.5</ele></trkpt>
      <trkpt lat="44.014099" lon="-114.754267"><ele>2285.0</ele></trkpt>
      <trkpt lat="44.014015" lon="-114.754133"><ele>2285.8</ele></trkpt>
      <trkpt lat="44.013886" lon="-114.753976"><ele>2288.2</ele></trkpt>
      <trkpt lat="44.013648" lon="-114.753748"><ele>2288.2</ele></trkpt>
      <trkpt lat="44.013445" lon="-114.753531"><ele>2285.5</ele></trkpt>
      <trkpt lat="44.013278" lon="-114.753275"><ele>2284.0</ele></trkpt>
      <trkpt lat="44.013036" lon="-114.752860"><ele>2289.8</ele></trkpt>
      <trkpt lat="44.012757" lon="-114.752409"><ele>2291.2</ele></trkpt>
      <trkpt lat="44.012224" lon="-114.751831"><ele>2289.2</ele></trkpt>
      <trkpt lat="44.011867" lon="-114.751532"><ele>2290.2</ele></trkpt>
      <trkpt lat="44.011522" lon="-114.750934"><ele>2289.8</ele></trkpt>
      <trkpt lat="44.011501" lon="-114.750785"><ele>2289.8</ele></trkpt>
      <trkpt lat="44.011395" lon="-114.750465"><ele>2291.0</ele></trkpt>
      <trkpt lat="44.011346" lon="-114.750254"><ele>2291.8</ele></trkpt>
      <trkpt lat="44.011324" lon="-114.750056"><ele>2292.8</ele></trkpt>
      <trkpt lat="44.011301" lon="-114.749795"><ele>2293.5</ele></trkpt>
      <trkpt lat="44.011269" lon="-114.749546"><ele>2294.2</ele></trkpt>
      <trkpt lat="44.011209" lon="-114.749212"><ele>2295.0</ele></trkpt>
      <trkpt lat="44.011202" lon="-114.748888"><ele>2295.8</ele></trkpt>
      <trkpt lat="44.011189" lon="-114.748689"><ele>2296.2</ele></trkpt>
      <trkpt lat="44.011201" lon="-114.748364"><ele>2297.2</ele></trkpt>
      <trkpt lat="44.011239" lon="-114.748025"><ele>2299.2</ele></trkpt>
      <trkpt lat="44.011358" lon="-114.747647"><ele>2302.8</ele></trkpt>
      <trkpt lat="44.011390" lon="-114.747458"><ele>2304.2</ele></trkpt>
      <trkpt lat="44.011395" lon="-114.747246"><ele>2306.5</ele></trkpt>
      <trkpt lat="44.011389" lon="-114.746959"><ele>2309.0</ele></trkpt>
      <trkpt lat="44.011342" lon="-114.746824"><ele>2309.5</ele></trkpt>
      <trkpt lat="44.011285" lon="-114.746701"><ele>2309.2</ele></trkpt>
      <trkpt lat="44.011174" lon="-114.746556"><ele>2309.2</ele></trkpt>
      <trkpt lat="44.011073" lon="-114.746447"><ele>2309.0</ele></trkpt>
      <trkpt lat="44.011008" lon="-114.746350"><ele>2309.0</ele></trkpt>
      <trkpt lat="44.010879" lon="-114.746218"><ele>2308.0</ele></trkpt>
      <trkpt lat="44.010768" lon="-114.746072"><ele>2308.5</ele></trkpt>
      <trkpt lat="44.010692" lon="-114.745863"><ele>2310.5</ele></trkpt>
      <trkpt lat="44.010519" lon="-114.745308"><ele>2313.5</ele></trkpt>
      <trkpt lat="44.010415" lon="-114.744576"><ele>2316.8</ele></trkpt>
      <trkpt lat="44.010391" lon="-114.744290"><ele>2318.0</ele></trkpt>
      <trkpt lat="44.010448" lon="-114.743989"><ele>2320.8</ele></trkpt>
      <trkpt lat="44.010488" lon="-114.743700"><ele>2322.5</ele></trkpt>
      <trkpt lat="44.010537" lon="-114.743449"><ele>2324.5</ele></trkpt>
      <trkpt lat="44.010550" lon="-114.743211"><ele>2325.5</ele></trkpt>
      <trkpt lat="44.010537" lon="-114.743000"><ele>2326.2</ele></trkpt>
      <trkpt lat="44.010506" lon="-114.742789"><ele>2326.2</ele></trkpt>
      <trkpt lat="44.010419" lon="-114.742518"><ele>2325.2</ele></trkpt>
      <trkpt lat="44.010341" lon="-114.742221"><ele>2325.0</ele></trkpt>
      <trkpt lat="44.010245" lon="-114.741926"><ele>2324.2</ele></trkpt>
      <trkpt lat="44.010142" lon="-114.741680"><ele>2323.2</ele></trkpt>
      <trkpt lat="44.010093" lon="-114.741520"><ele>2323.0</ele></trkpt>
      <trkpt lat="44.009998" lon="-114.741261"><ele>2321.8</ele></trkpt>
      <trkpt lat="44.009936" lon="-114.740840"><ele>2323.0</ele></trkpt>
      <trkpt lat="44.009877" lon="-114.740592"><ele>2323.8</ele></trkpt>
      <trkpt lat="44.009836" lon="-114.740357"><ele>2324.8</ele></trkpt>
      <trkpt lat="44.009694" lon="-114.740013"><ele>2324.8</ele></trkpt>
      <trkpt lat="44.009646" lon="-114.739853"><ele>2325.0</ele></trkpt>
      <trkpt lat="44.009669" lon="-114.739615"><ele>2327.0</ele></trkpt>
      <trkpt lat="44.009802" lon="-114.739073"><ele>2332.2</ele></trkpt>
      <trkpt lat="44.009871" lon="-114.738472"><ele>2337.2</ele></trkpt>
      <trkpt lat="44.009927" lon="-114.738095"><ele>2339.8</ele></trkpt>
      <trkpt lat="44.009965" lon="-114.737745"><ele>2341.5</ele></trkpt>
      <trkpt lat="44.010067" lon="-114.737454"><ele>2346.5</ele></trkpt>
      <trkpt lat="44.010125" lon="-114.737190"><ele>2350.8</ele></trkpt>
      <trkpt lat="44.010269" lon="-114.736748"><ele>2360.2</ele></trkpt>
      <trkpt lat="44.010274" lon="-114.736535"><ele>2360.8</ele></trkpt>
      <trkpt lat="44.010260" lon="-114.736311"><ele>2359.8</ele></trkpt>
      <trkpt lat="44.010263" lon="-114.735987"><ele>2359.5</ele></trkpt>
      <trkpt lat="44.010312" lon="-114.735723"><ele>2360.5</ele></trkpt>
      <trkpt lat="44.010392" lon="-114.735221"><ele>2359.2</ele></trkpt>
      <trkpt lat="44.010413" lon="-114.734933"><ele>2357.2</ele></trkpt>
      <trkpt lat="44.010537" lon="-114.734367"><ele>2356.5</ele></trkpt>
      <trkpt lat="44.010589" lon="-114.734290"><ele>2357.0</ele></trkpt>
      <trkpt lat="44.010643" lon="-114.733814"><ele>2357.0</ele></trkpt>
      <trkpt lat="44.010782" lon="-114.733560"><ele>2358.2</ele></trkpt>
      <trkpt lat="44.011035" lon="-114.733163"><ele>2362.5</ele></trkpt>
      <trkpt lat="44.011237" lon="-114.732894"><ele>2367.0</ele></trkpt>
      <trkpt lat="44.011432" lon="-114.732300"><ele>2370.8</ele></trkpt>
      <trkpt lat="44.011541" lon="-114.731859"><ele>2372.2</ele></trkpt>
      <trkpt lat="44.011688" lon="-114.731591"><ele>2374.0</ele></trkpt>
      <trkpt lat="44.011874" lon="-114.731422"><ele>2376.5</ele></trkpt>
      <trkpt lat="44.012065" lon="-114.731091"><ele>2379.0</ele></trkpt>
      <trkpt lat="44.012185" lon="-114.730762"><ele>2380.5</ele></trkpt>
      <trkpt lat="44.012323" lon="-114.730469"><ele>2383.5</ele></trkpt>
      <trkpt lat="44.012544" lon="-114.730249"><ele>2388.2</ele></trkpt>
      <trkpt lat="44.012748" lon="-114.730116"><ele>2390.8</ele></trkpt>
      <trkpt lat="44.012969" lon="-114.729908"><ele>2392.8</ele></trkpt>
      <trkpt lat="44.013228" lon="-114.729312"><ele>2393.5</ele></trkpt>
      <trkpt lat="44.013412" lon="-114.729093"><ele>2396.0</ele></trkpt>
      <trkpt lat="44.013534" lon="-114.728901"><ele>2397.5</ele></trkpt>
      <trkpt lat="44.013643" lon="-114.728473"><ele>2398.8</ele></trkpt>
      <trkpt lat="44.013762" lon="-114.728119"><ele>2400.2</ele></trkpt>
      <trkpt lat="44.013916" lon="-114.727726"><ele>2402.2</ele></trkpt>
      <trkpt lat="44.013833" lon="-114.727168"><ele>2399.5</ele></trkpt>
      <trkpt lat="44.013808" lon="-114.726795"><ele>2398.8</ele></trkpt>
      <trkpt lat="44.013789" lon="-114.726309"><ele>2401.5</ele></trkpt>
      <trkpt lat="44.013739" lon="-114.726086"><ele>2402.2</ele></trkpt>
      <trkpt lat="44.013691" lon="-114.725914"><ele>2403.0</ele></trkpt>
      <trkpt lat="44.013528" lon="-114.725857"><ele>2399.8</ele></trkpt>
      <trkpt lat="44.013343" lon="-114.725590"><ele>2397.5</ele></trkpt>
      <trkpt lat="44.013309" lon="-114.724793"><ele>2402.2</ele></trkpt>
      <trkpt lat="44.013384" lon="-114.724054"><ele>2407.0</ele></trkpt>
      <trkpt lat="44.013604" lon="-114.723347"><ele>2411.5</ele></trkpt>
      <trkpt lat="44.013739" lon="-114.722880"><ele>2416.0</ele></trkpt>
      <trkpt lat="44.013744" lon="-114.722231"><ele>2418.5</ele></trkpt>
      <trkpt lat="44.013732" lon="-114.722082"><ele>2418.8</ele></trkpt>
      <trkpt lat="44.013736" lon="-114.721820"><ele>2419.2</ele></trkpt>
      <trkpt lat="44.013707" lon="-114.721734"><ele>2419.2</ele></trkpt>
      <trkpt lat="44.013682" lon="-114.721398"><ele>2420.2</ele></trkpt>
      <trkpt lat="44.013688" lon="-114.721236"><ele>2421.0</ele></trkpt>
      <trkpt lat="44.013656" lon="-114.720975"><ele>2422.0</ele></trkpt>
      <trkpt lat="44.013661" lon="-114.720812"><ele>2422.8</ele></trkpt>
      <trkpt lat="44.013745" lon="-114.720497"><ele>2424.8</ele></trkpt>
      <trkpt lat="44.013822" lon="-114.720295"><ele>2425.8</ele></trkpt>
      <trkpt lat="44.013891" lon="-114.720130"><ele>2426.5</ele></trkpt>
      <trkpt lat="44.013986" lon="-114.719952"><ele>2427.0</ele></trkpt>
      <trkpt lat="44.014055" lon="-114.719799"><ele>2427.8</ele></trkpt>
      <trkpt lat="44.014099" lon="-114.719274"><ele>2429.8</ele></trkpt>
      <trkpt lat="44.014194" lon="-114.719083"><ele>2431.2</ele></trkpt>
      <trkpt lat="44.014263" lon="-114.718918"><ele>2434.2</ele></trkpt>
      <trkpt lat="44.014368" lon="-114.718764"><ele>2438.2</ele></trkpt>
      <trkpt lat="44.014445" lon="-114.718574"><ele>2441.8</ele></trkpt>
      <trkpt lat="44.014536" lon="-114.718159"><ele>2446.8</ele></trkpt>
      <trkpt lat="44.014568" lon="-114.717971"><ele>2448.5</ele></trkpt>
      <trkpt lat="44.014638" lon="-114.717868"><ele>2450.8</ele></trkpt>
      <trkpt lat="44.014806" lon="-114.717712"><ele>2456.0</ele></trkpt>
      <trkpt lat="44.014885" lon="-114.717597"><ele>2458.5</ele></trkpt>
      <trkpt lat="44.014901" lon="-114.717509"><ele>2459.2</ele></trkpt>
      <trkpt lat="44.014931" lon="-114.717221"><ele>2461.5</ele></trkpt>
      <trkpt lat="44.014964" lon="-114.717045"><ele>2463.2</ele></trkpt>
      <trkpt lat="44.015059" lon="-114.716841"><ele>2466.8</ele></trkpt>
      <trkpt lat="44.015189" lon="-114.716624"><ele>2471.2</ele></trkpt>
      <trkpt lat="44.015214" lon="-114.716486"><ele>2472.2</ele></trkpt>
      <trkpt lat="44.015227" lon="-114.716249"><ele>2473.2</ele></trkpt>
      <trkpt lat="44.015222" lon="-114.716024"><ele>2473.8</ele></trkpt>
      <trkpt lat="44.015145" lon="-114.715753"><ele>2472.2</ele></trkpt>
      <trkpt lat="44.015095" lon="-114.715493"><ele>2470.5</ele></trkpt>
      <trkpt lat="44.015052" lon="-114.715170"><ele>2468.5</ele></trkpt>
      <trkpt lat="44.015108" lon="-114.714819"><ele>2469.8</ele></trkpt>
      <trkpt lat="44.015166" lon="-114.714579"><ele>2471.2</ele></trkpt>
      <trkpt lat="44.015207" lon="-114.714341"><ele>2472.2</ele></trkpt>
      <trkpt lat="44.015257" lon="-114.714152"><ele>2473.0</ele></trkpt>
      <trkpt lat="44.015437" lon="-114.713720"><ele>2473.2</ele></trkpt>
      <trkpt lat="44.015534" lon="-114.713567"><ele>2474.2</ele></trkpt>
      <trkpt lat="44.015658" lon="-114.712934"><ele>2471.5</ele></trkpt>
      <trkpt lat="44.015711" lon="-114.712741"><ele>2470.5</ele></trkpt>
      <trkpt lat="44.015705" lon="-114.712424"><ele>2468.2</ele></trkpt>
      <trkpt lat="44.015666" lon="-114.712188"><ele>2468.0</ele></trkpt>
      <trkpt lat="44.015592" lon="-114.711333"><ele>2468.5</ele></trkpt>
      <trkpt lat="44.015717" lon="-114.711123"><ele>2469.2</ele></trkpt>
      <trkpt lat="44.015774" lon="-114.710890"><ele>2469.8</ele></trkpt>
      <trkpt lat="44.015759" lon="-114.710596"><ele>2470.8</ele></trkpt>
      <trkpt lat="44.015887" lon="-114.710294"><ele>2473.0</ele></trkpt>
      <trkpt lat="44.016304" lon="-114.709750"><ele>2478.0</ele></trkpt>
      <trkpt lat="44.016371" lon="-114.709278"><ele>2480.8</ele></trkpt>
      <trkpt lat="44.016433" lon="-114.709032"><ele>2482.5</ele></trkpt>
      <trkpt lat="44.016555" lon="-114.708684"><ele>2485.2</ele></trkpt>
      <trkpt lat="44.016587" lon="-114.708366"><ele>2487.2</ele></trkpt>
      <trkpt lat="44.017215" lon="-114.707160"><ele>2499.8</ele></trkpt>
      <trkpt lat="44.017258" lon="-114.706914"><ele>2501.8</ele></trkpt>
      <trkpt lat="44.017223" lon="-114.706605"><ele>2503.8</ele></trkpt>
      <trkpt lat="44.017113" lon="-114.706338"><ele>2504.2</ele></trkpt>
      <trkpt lat="44.017086" lon="-114.705970"><ele>2505.5</ele></trkpt>
      <trkpt lat="44.016973" lon="-114.705525"><ele>2506.0</ele></trkpt>
      <trkpt lat="44.017088" lon="-114.705085"><ele>2509.0</ele></trkpt>
      <trkpt lat="44.017054" lon="-114.704829"><ele>2509.8</ele></trkpt>
      <trkpt lat="44.017128" lon="-114.704496"><ele>2512.0</ele></trkpt>
      <trkpt lat="44.017126" lon="-114.704212"><ele>2513.0</ele></trkpt>
      <trkpt lat="44.017069" lon="-114.703747"><ele>2514.8</ele></trkpt>
      <trkpt lat="44.017117" lon="-114.703527"><ele>2516.2</ele></trkpt>
      <trkpt lat="44.017116" lon="-114.703250"><ele>2517.5</ele></trkpt>
      <trkpt lat="44.016994" lon="-114.702852"><ele>2517.8</ele></trkpt>
      <trkpt lat="44.016921" lon="-114.702531"><ele>2518.5</ele></trkpt>
      <trkpt lat="44.016771" lon="-114.702285"><ele>2518.5</ele></trkpt>
      <trkpt lat="44.016705" lon="-114.701852"><ele>2519.5</ele></trkpt>
      <trkpt lat="44.016633" lon="-114.701584"><ele>2520.2</ele></trkpt>
      <trkpt lat="44.016603" lon="-114.701308"><ele>2521.2</ele></trkpt>
      <trkpt lat="44.016633" lon="-114.701122"><ele>2522.0</ele></trkpt>
      <trkpt lat="44.016607" lon="-114.700760"><ele>2523.8</ele></trkpt>
      <trkpt lat="44.016522" lon="-114.700565"><ele>2526.0</ele></trkpt>
      <trkpt lat="44.016421" lon="-114.700291"><ele>2528.5</ele></trkpt>
      <trkpt lat="44.016294" lon="-114.700138"><ele>2528.8</ele></trkpt>
      <trkpt lat="44.015999" lon="-114.699931"><ele>2527.2</ele></trkpt>
      <trkpt lat="44.015684" lon="-114.699686"><ele>2527.5</ele></trkpt>
      <trkpt lat="44.015623" lon="-114.699259"><ele>2530.8</ele></trkpt>
      <trkpt lat="44.015659" lon="-114.698902"><ele>2533.2</ele></trkpt>
      <trkpt lat="44.015792" lon="-114.698645"><ele>2534.5</ele></trkpt>
      <trkpt lat="44.015803" lon="-114.698480"><ele>2535.2</ele></trkpt>
      <trkpt lat="44.015771" lon="-114.698303"><ele>2536.2</ele></trkpt>
      <trkpt lat="44.015842" lon="-114.697832"><ele>2537.2</ele></trkpt>
      <trkpt lat="44.015987" lon="-114.697430"><ele>2540.5</ele></trkpt>
      <trkpt lat="44.016093" lon="-114.697254"><ele>2543.5</ele></trkpt>
      <trkpt lat="44.016206" lon="-114.696972"><ele>2547.2</ele></trkpt>
      <trkpt lat="44.016345" lon="-114.696776"><ele>2549.8</ele></trkpt>
      <trkpt lat="44.016397" lon="-114.696516"><ele>2552.0</ele></trkpt>
      <trkpt lat="44.016259" lon="-114.696284"><ele>2553.2</ele></trkpt>
      <trkpt lat="44.016108" lon="-114.695629"><ele>2557.2</ele></trkpt>
      <trkpt lat="44.016011" lon="-114.695079"><ele>2560.2</ele></trkpt>
      <trkpt lat="44.016094" lon="-114.694712"><ele>2564.2</ele></trkpt>
      <trkpt lat="44.016074" lon="-114.694185"><ele>2571.2</ele></trkpt>
      <trkpt lat="44.016257" lon="-114.694046"><ele>2570.2</ele></trkpt>
      <trkpt lat="44.016459" lon="-114.693701"><ele>2570.8</ele></trkpt>
      <trkpt lat="44.016607" lon="-114.693471"><ele>2570.0</ele></trkpt>
      <trkpt lat="44.016791" lon="-114.693352"><ele>2570.0</ele></trkpt>
      <trkpt lat="44.016825" lon="-114.693166"><ele>2571.5</ele></trkpt>
      <trkpt lat="44.016680" lon="-114.692821"><ele>2574.2</ele></trkpt>
      <trkpt lat="44.016637" lon="-114.692598"><ele>2577.2</ele></trkpt>
      <trkpt lat="44.016370" lon="-114.691889"><ele>2591.5</ele></trkpt>
      <trkpt lat="44.016343" lon="-114.691705"><ele>2593.2</ele></trkpt>
      <trkpt lat="44.016164" lon="-114.691336"><ele>2599.8</ele></trkpt>
      <trkpt lat="44.015971" lon="-114.691231"><ele>2604.2</ele></trkpt>
      <trkpt lat="44.015610" lon="-114.691278"><ele>2610.5</ele></trkpt>
      <trkpt lat="44.015405" lon="-114.691273"><ele>2613.2</ele></trkpt>
      <trkpt lat="44.015111" lon="-114.691357"><ele>2617.8</ele></trkpt>
      <trkpt lat="44.014575" lon="-114.691446"><ele>2622.0</ele></trkpt>
      <trkpt lat="44.014249" lon="-114.691347"><ele>2622.8</ele></trkpt>
      <trkpt lat="44.013995" lon="-114.691244"><ele>2623.0</ele></trkpt>
      <trkpt lat="44.013797" lon="-114.691277"><ele>2624.0</ele></trkpt>
      <trkpt lat="44.013629" lon="-114.691383"><ele>2625.0</ele></trkpt>
      <trkpt lat="44.013214" lon="-114.691786"><ele>2628.0</ele></trkpt>
      <trkpt lat="44.012822" lon="-114.692026"><ele>2628.5</ele></trkpt>
      <trkpt lat="44.012621" lon="-114.692088"><ele>2627.8</ele></trkpt>
    </trkseg>
    <!-- Sat -->
    <trkseg>
      <trkpt lat="44.012621" lon="-114.692088"><ele>2628.0</ele></trkpt>
      <trkpt lat="44.012402" lon="-114.692155"><ele>2627.8</ele></trkpt>
      <trkpt lat="44.012068" lon="-114.692143"><ele>2629.2</ele></trkpt>
      <trkpt lat="44.011895" lon="-114.692012"><ele>2629.5</ele></trkpt>
      <trkpt lat="44.011794" lon="-114.691954"><ele>2629.8</ele></trkpt>
      <trkpt lat="44.011621" lon="-114.691988"><ele>2630.5</ele></trkpt>
      <trkpt lat="44.011365" lon="-114.692004"><ele>2630.5</ele></trkpt>
      <trkpt lat="44.011193" lon="-114.691780"><ele>2630.0</ele></trkpt>
      <trkpt lat="44.011064" lon="-114.691508"><ele>2631.0</ele></trkpt>
      <trkpt lat="44.010965" lon="-114.691333"><ele>2632.0</ele></trkpt>
      <trkpt lat="44.010779" lon="-114.691301"><ele>2631.5</ele></trkpt>
      <trkpt lat="44.010641" lon="-114.691101"><ele>2631.0</ele></trkpt>
      <trkpt lat="44.010595" lon="-114.690912"><ele>2631.2</ele></trkpt>
      <trkpt lat="44.010453" lon="-114.690766"><ele>2630.2</ele></trkpt>
      <trkpt lat="44.010349" lon="-114.690517"><ele>2629.8</ele></trkpt>
      <trkpt lat="44.010223" lon="-114.690213"><ele>2629.8</ele></trkpt>
      <trkpt lat="44.010056" lon="-114.689705"><ele>2629.0</ele></trkpt>
      <trkpt lat="44.009817" lon="-114.689463"><ele>2628.0</ele></trkpt>
      <trkpt lat="44.009584" lon="-114.689261"><ele>2627.5</ele></trkpt>
      <trkpt lat="44.009486" lon="-114.689146"><ele>2627.8</ele></trkpt>
      <trkpt lat="44.009464" lon="-114.688969"><ele>2630.2</ele></trkpt>
      <trkpt lat="44.009410" lon="-114.688912"><ele>2630.8</ele></trkpt>
      <trkpt lat="44.009262" lon="-114.688904"><ele>2630.2</ele></trkpt>
      <trkpt lat="44.008985" lon="-114.688836"><ele>2630.8</ele></trkpt>
      <trkpt lat="44.008604" lon="-114.688870"><ele>2629.5</ele></trkpt>
      <trkpt lat="44.008312" lon="-114.689014"><ele>2627.8</ele></trkpt>
      <trkpt lat="44.007733" lon="-114.689360"><ele>2635.2</ele></trkpt>
      <trkpt lat="44.007190" lon="-114.689646"><ele>2639.5</ele></trkpt>
      <trkpt lat="44.006798" lon="-114.689728"><ele>2642.5</ele></trkpt>
      <trkpt lat="44.006328" lon="-114.689671"><ele>2642.2</ele></trkpt>
      <trkpt lat="44.006128" lon="-114.689562"><ele>2640.5</ele></trkpt>
      <trkpt lat="44.005946" lon="-114.689461"><ele>2640.5</ele></trkpt>
      <trkpt lat="44.005674" lon="-114.688923"><ele>2642.8</ele></trkpt>
      <trkpt lat="44.005371" lon="-114.688623"><ele>2644.8</ele></trkpt>
      <trkpt lat="44.004436" lon="-114.687969"><ele>2645.8</ele></trkpt>
      <trkpt lat="44.004292" lon="-114.687645"><ele>2646.5</ele></trkpt>
      <trkpt lat="44.004114" lon="-114.687309"><ele>2649.2</ele></trkpt>
      <trkpt lat="44.003957" lon="-114.687051"><ele>2651.5</ele></trkpt>
      <trkpt lat="44.003100" lon="-114.685692"><ele>2653.0</ele></trkpt>
      <trkpt lat="44.002839" lon="-114.685484"><ele>2653.8</ele></trkpt>
      <trkpt lat="44.002640" lon="-114.685346"><ele>2653.8</ele></trkpt>
      <trkpt lat="44.002448" lon="-114.685242"><ele>2653.5</ele></trkpt>
      <trkpt lat="44.002331" lon="-114.685134"><ele>2654.2</ele></trkpt>
      <trkpt lat="44.001991" lon="-114.685028"><ele>2656.2</ele></trkpt>
      <trkpt lat="44.001499" lon="-114.684995"><ele>2656.2</ele></trkpt>
      <trkpt lat="44.001184" lon="-114.684699"><ele>2656.0</ele></trkpt>
      <trkpt lat="44.001137" lon="-114.684522"><ele>2657.2</ele></trkpt>
      <trkpt lat="44.000612" lon="-114.684157"><ele>2655.8</ele></trkpt>
      <trkpt lat="44.001137" lon="-114.684522"><ele>2657.2</ele></trkpt>
      <trkpt lat="44.001157" lon="-114.684184"><ele>2660.8</ele></trkpt>
      <trkpt lat="44.001179" lon="-114.683921"><ele>2665.5</ele></trkpt>
      <trkpt lat="44.001144" lon="-114.683549"><ele>2672.0</ele></trkpt>
      <trkpt lat="44.001057" lon="-114.683240"><ele>2676.5</ele></trkpt>
      <trkpt lat="44.001044" lon="-114.683054"><ele>2679.8</ele></trkpt>
      <trkpt lat="44.001071" lon="-114.683028"><ele>2680.5</ele></trkpt>
      <trkpt lat="44.001171" lon="-114.683061"><ele>2681.0</ele></trkpt>
      <trkpt lat="44.001353" lon="-114.683154"><ele>2681.2</ele></trkpt>
      <trkpt lat="44.001433" lon="-114.683151"><ele>2682.2</ele></trkpt>
      <trkpt lat="44.001423" lon="-114.683089"><ele>2683.5</ele></trkpt>
      <trkpt lat="44.001203" lon="-114.682461"><ele>2692.2</ele></trkpt>
      <trkpt lat="44.001106" lon="-114.682103"><ele>2697.0</ele></trkpt>
      <trkpt lat="44.001140" lon="-114.681977"><ele>2699.8</ele></trkpt>
      <trkpt lat="44.001203" lon="-114.681987"><ele>2700.8</ele></trkpt>
      <trkpt lat="44.001248" lon="-114.682010"><ele>2701.2</ele></trkpt>
      <trkpt lat="44.001482" lon="-114.682413"><ele>2697.8</ele></trkpt>
      <trkpt lat="44.001506" lon="-114.682300"><ele>2700.2</ele></trkpt>
      <trkpt lat="44.001504" lon="-114.682212"><ele>2702.0</ele></trkpt>
      <trkpt lat="44.001471" lon="-114.681877"><ele>2707.8</ele></trkpt>
      <trkpt lat="44.001397" lon="-114.681356"><ele>2716.2</ele></trkpt>
      <trkpt lat="44.001236" lon="-114.680829"><ele>2723.8</ele></trkpt>
      <trkpt lat="44.001211" lon="-114.680161"><ele>2737.5</ele></trkpt>
      <trkpt lat="44.000877" lon="-114.679653"><ele>2743.2</ele></trkpt>
      <trkpt lat="44.000653" lon="-114.679167"><ele>2749.8</ele></trkpt>
      <trkpt lat="44.000311" lon="-114.678751"><ele>2756.5</ele></trkpt>
      <trkpt lat="44.000201" lon="-114.678247"><ele>2766.2</ele></trkpt>
      <trkpt lat="44.000053" lon="-114.678035"><ele>2769.0</ele></trkpt>
      <trkpt lat="43.999880" lon="-114.677481"><ele>2776.0</ele></trkpt>
      <trkpt lat="43.999847" lon="-114.677027"><ele>2787.2</ele></trkpt>
      <trkpt lat="43.999811" lon="-114.676870"><ele>2790.2</ele></trkpt>
      <trkpt lat="43.999825" lon="-114.676671"><ele>2796.0</ele></trkpt>
      <trkpt lat="43.999988" lon="-114.676711"><ele>2800.2</ele></trkpt>
      <trkpt lat="44.000199" lon="-114.676742"><ele>2808.5</ele></trkpt>
      <trkpt lat="44.000163" lon="-114.676625"><ele>2810.2</ele></trkpt>
      <trkpt lat="44.000335" lon="-114.676189"><ele>2830.0</ele></trkpt>
      <trkpt lat="44.000117" lon="-114.675775"><ele>2833.0</ele></trkpt>
      <trkpt lat="44.000067" lon="-114.675441"><ele>2843.8</ele></trkpt>
      <trkpt lat="44.000422" lon="-114.675546"><ele>2854.2</ele></trkpt>
      <trkpt lat="44.000565" lon="-114.675553"><ele>2860.0</ele></trkpt>
      <trkpt lat="44.000717" lon="-114.675514"><ele>2867.5</ele></trkpt>
      <trkpt lat="44.000624" lon="-114.675393"><ele>2868.2</ele></trkpt>
      <trkpt lat="44.000422" lon="-114.675295"><ele>2863.5</ele></trkpt>
      <trkpt lat="44.000335" lon="-114.675001"><ele>2871.0</ele></trkpt>
      <trkpt lat="44.000317" lon="-114.674619"><ele>2881.0</ele></trkpt>
      <trkpt lat="44.000273" lon="-114.674522"><ele>2882.0</ele></trkpt>
      <trkpt lat="44.000270" lon="-114.674410"><ele>2885.2</ele></trkpt>
      <trkpt lat="44.000091" lon="-114.674272"><ele>2883.5</ele></trkpt>
      <trkpt lat="44.000038" lon="-114.673801"><ele>2897.0</ele></trkpt>
      <trkpt lat="43.999973" lon="-114.673352"><ele>2909.8</ele></trkpt>
      <trkpt lat="44.000215" lon="-114.673540"><ele>2911.2</ele></trkpt>
      <trkpt lat="44.000094" lon="-114.673009"><ele>2927.8</ele></trkpt>
      <trkpt lat="44.000244" lon="-114.673056"><ele>2930.8</ele></trkpt>
      <trkpt lat="44.000410" lon="-114.673033"><ele>2937.2</ele></trkpt>
      <trkpt lat="44.000142" lon="-114.672730"><ele>2941.0</ele></trkpt>
      <trkpt lat="44.000006" lon="-114.672480"><ele>2947.0</ele></trkpt>
      <trkpt lat="43.999939" lon="-114.672392"><ele>2950.5</ele></trkpt>
      <trkpt lat="43.999897" lon="-114.672235"><ele>2957.8</ele></trkpt>
      <trkpt lat="43.999895" lon="-114.672147"><ele>2962.0</ele></trkpt>
      <trkpt lat="43.999903" lon="-114.672110"><ele>2964.0</ele></trkpt>
      <trkpt lat="43.999921" lon="-114.672084"><ele>2965.5</ele></trkpt>
      <trkpt lat="43.999974" lon="-114.672057"><ele>2967.8</ele></trkpt>
      <trkpt lat="43.999982" lon="-114.671994"><ele>2971.0</ele></trkpt>
      <trkpt lat="43.999981" lon="-114.671945"><ele>2973.5</ele></trkpt>
      <trkpt lat="43.999944" lon="-114.671896"><ele>2975.2</ele></trkpt>
      <trkpt lat="43.999926" lon="-114.671897"><ele>2974.8</ele></trkpt>
      <trkpt lat="43.999717" lon="-114.671793"><ele>2975.8</ele></trkpt>
      <trkpt lat="43.999580" lon="-114.671686"><ele>2978.0</ele></trkpt>
      <trkpt lat="43.999460" lon="-114.671541"><ele>2982.5</ele></trkpt>
      <trkpt lat="43.999313" lon="-114.671397"><ele>2986.8</ele></trkpt>
      <trkpt lat="43.999275" lon="-114.671336"><ele>2989.2</ele></trkpt>
      <trkpt lat="43.999283" lon="-114.671261"><ele>2993.2</ele></trkpt>
      <trkpt lat="43.999460" lon="-114.671129"><ele>3003.5</ele></trkpt>
      <trkpt lat="43.999515" lon="-114.671140"><ele>3004.0</ele></trkpt>
      <trkpt lat="43.999559" lon="-114.671125"><ele>3005.8</ele></trkpt>
      <trkpt lat="43.999568" lon="-114.671088"><ele>3007.8</ele></trkpt>
      <trkpt lat="43.999558" lon="-114.671051"><ele>3009.5</ele></trkpt>
      <trkpt lat="43.999530" lon="-114.671014"><ele>3010.8</ele></trkpt>
      <trkpt lat="43.999384" lon="-114.670908"><ele>3013.2</ele></trkpt>
      <trkpt lat="43.999156" lon="-114.670779"><ele>3014.8</ele></trkpt>
      <trkpt lat="43.999037" lon="-114.670697"><ele>3015.5</ele></trkpt>
      <trkpt lat="43.999009" lon="-114.670648"><ele>3017.0</ele></trkpt>
      <trkpt lat="43.999008" lon="-114.670598"><ele>3018.8</ele></trkpt>
      <trkpt lat="43.999277" lon="-114.670525"><ele>3026.5</ele></trkpt>
      <trkpt lat="43.999491" lon="-114.670430"><ele>3033.2</ele></trkpt>
      <trkpt lat="43.999617" lon="-114.670412"><ele>3035.8</ele></trkpt>
      <trkpt lat="43.999797" lon="-114.670418"><ele>3038.2</ele></trkpt>
      <trkpt lat="43.999870" lon="-114.670490"><ele>3037.0</ele></trkpt>
      <trkpt lat="43.999899" lon="-114.670551"><ele>3035.8</ele></trkpt>
      <trkpt lat="43.999926" lon="-114.670562"><ele>3035.8</ele></trkpt>
      <trkpt lat="44.000016" lon="-114.670546"><ele>3038.0</ele></trkpt>
      <trkpt lat="44.000159" lon="-114.670503"><ele>3043.5</ele></trkpt>
      <trkpt lat="44.000311" lon="-114.670513"><ele>3048.0</ele></trkpt>
      <trkpt lat="44.000442" lon="-114.670474"><ele>3053.0</ele></trkpt>
      <trkpt lat="44.000293" lon="-114.670141"><ele>3057.5</ele></trkpt>
      <trkpt lat="44.000163" lon="-114.669832"><ele>3053.2</ele></trkpt>
      <trkpt lat="44.000302" lon="-114.669834"><ele>3056.5</ele></trkpt>
      <trkpt lat="44.000476" lon="-114.669884"><ele>3062.2</ele></trkpt>
      <trkpt lat="44.000662" lon="-114.670006"><ele>3070.5</ele></trkpt>
      <trkpt lat="44.000903" lon="-114.670099"><ele>3074.5</ele></trkpt>
      <trkpt lat="44.001047" lon="-114.670170"><ele>3076.5</ele></trkpt>
      <trkpt lat="44.001209" lon="-114.670184"><ele>3080.2</ele></trkpt>
      <trkpt lat="44.001317" lon="-114.670210"><ele>3082.5</ele></trkpt>
      <trkpt lat="44.001536" lon="-114.670327"><ele>3086.2</ele></trkpt>
      <trkpt lat="44.001841" lon="-114.670391"><ele>3091.2</ele></trkpt>
      <trkpt lat="44.002003" lon="-114.670461"><ele>3093.8</ele></trkpt>
      <trkpt lat="44.002095" lon="-114.670467"><ele>3095.5</ele></trkpt>
      <trkpt lat="44.002257" lon="-114.670429"><ele>3098.0</ele></trkpt>
      <trkpt lat="44.002403" lon="-114.670461"><ele>3101.0</ele></trkpt>
      <trkpt lat="44.002611" lon="-114.670487"><ele>3102.5</ele></trkpt>
      <trkpt lat="44.002702" lon="-114.670490"><ele>3101.8</ele></trkpt>
      <trkpt lat="44.002877" lon="-114.670539"><ele>3102.2</ele></trkpt>
      <trkpt lat="44.002936" lon="-114.670587"><ele>3103.5</ele></trkpt>
      <trkpt lat="44.003051" lon="-114.670735"><ele>3109.2</ele></trkpt>
      <trkpt lat="44.003353" lon="-114.670993"><ele>3113.2</ele></trkpt>
      <trkpt lat="44.003476" lon="-114.671125"><ele>3109.0</ele></trkpt>
      <trkpt lat="44.003595" lon="-114.671221"><ele>3106.5</ele></trkpt>
      <trkpt lat="44.003730" lon="-114.671370"><ele>3106.2</ele></trkpt>
      <trkpt lat="44.003827" lon="-114.671515"><ele>3108.2</ele></trkpt>
      <trkpt lat="44.003891" lon="-114.671681"><ele>3111.8</ele></trkpt>
      <trkpt lat="44.004064" lon="-114.672047"><ele>3109.8</ele></trkpt>
      <trkpt lat="44.004191" lon="-114.672107"><ele>3110.8</ele></trkpt>
      <trkpt lat="44.004330" lon="-114.672211"><ele>3108.2</ele></trkpt>
      <trkpt lat="44.004429" lon="-114.672228"><ele>3106.8</ele></trkpt>
      <trkpt lat="44.004476" lon="-114.672278"><ele>3106.8</ele></trkpt>
      <trkpt lat="44.004764" lon="-114.672535"><ele>3109.0</ele></trkpt>
      <trkpt lat="44.004873" lon="-114.672611"><ele>3107.8</ele></trkpt>
      <trkpt lat="44.004994" lon="-114.672683"><ele>3107.0</ele></trkpt>
      <trkpt lat="44.005079" lon="-114.672711"><ele>3107.0</ele></trkpt>
      <trkpt lat="44.005117" lon="-114.672679"><ele>3107.5</ele></trkpt>
      <trkpt lat="44.005213" lon="-114.672708"><ele>3107.5</ele></trkpt>
      <trkpt lat="44.005470" lon="-114.672752"><ele>3108.2</ele></trkpt>
      <trkpt lat="44.005832" lon="-114.672785"><ele>3109.8</ele></trkpt>
      <trkpt lat="44.006002" lon="-114.672836"><ele>3112.8</ele></trkpt>
      <trkpt lat="44.006282" lon="-114.672892"><ele>3118.0</ele></trkpt>
      <trkpt lat="44.006738" lon="-114.672946"><ele>3127.8</ele></trkpt>
      <trkpt lat="44.007334" lon="-114.672836"><ele>3150.2</ele></trkpt>
      <trkpt lat="44.007700" lon="-114.672795"><ele>3161.8</ele></trkpt>
      <trkpt lat="44.008039" lon="-114.672729"><ele>3171.2</ele></trkpt>
      <trkpt lat="44.008236" lon="-114.672772"><ele>3176.2</ele></trkpt>
      <trkpt lat="44.008389" lon="-114.672785"><ele>3176.8</ele></trkpt>
      <trkpt lat="44.008236" lon="-114.672772"><ele>3176.2</ele></trkpt>
      <trkpt lat="44.008039" lon="-114.672729"><ele>3171.2</ele></trkpt>
      <trkpt lat="44.007700" lon="-114.672795"><ele>3161.8</ele></trkpt>
      <trkpt lat="44.007334" lon="-114.672836"><ele>3150.2</ele></trkpt>
      <trkpt lat="44.006738" lon="-114.672946"><ele>3127.8</ele></trkpt>
      <trkpt lat="44.006282" lon="-114.672892"><ele>3118.0</ele></trkpt>
      <trkpt lat="44.006002" lon="-114.672836"><ele>3112.8</ele></trkpt>
      <trkpt lat="44.005832" lon="-114.672785"><ele>3109.8</ele></trkpt>
      <trkpt lat="44.005470" lon="-114.672752"><ele>3108.2</ele></trkpt>
      <trkpt lat="44.005213" lon="-114.672708"><ele>3107.5</ele></trkpt>
      <trkpt lat="44.005117" lon="-114.672679"><ele>3107.5</ele></trkpt>
      <trkpt lat="44.005079" lon="-114.672711"><ele>3107.0</ele></trkpt>
      <trkpt lat="44.004994" lon="-114.672683"><ele>3107.0</ele></trkpt>
      <trkpt lat="44.004873" lon="-114.672611"><ele>3107.8</ele></trkpt>
      <trkpt lat="44.004764" lon="-114.672535"><ele>3109.0</ele></trkpt>
      <trkpt lat="44.004476" lon="-114.672278"><ele>3106.8</ele></trkpt>
      <trkpt lat="44.004429" lon="-114.672228"><ele>3106.8</ele></trkpt>
      <trkpt lat="44.004330" lon="-114.672211"><ele>3108.2</ele></trkpt>
      <trkpt lat="44.004191" lon="-114.672107"><ele>3110.8</ele></trkpt>
      <trkpt lat="44.004064" lon="-114.672047"><ele>3109.8</ele></trkpt>
      <trkpt lat="44.003891" lon="-114.671681"><ele>3111.8</ele></trkpt>
      <trkpt lat="44.003827" lon="-114.671515"><ele>3108.2</ele></trkpt>
      <trkpt lat="44.003730" lon="-114.671370"><ele>3106.2</ele></trkpt>
      <trkpt lat="44.003595" lon="-114.671221"><ele>3106.5</ele></trkpt>
      <trkpt lat="44.003476" lon="-114.671125"><ele>3109.0</ele></trkpt>
      <trkpt lat="44.003353" lon="-114.670993"><ele>3113.2</ele></trkpt>
      <trkpt lat="44.003051" lon="-114.670735"><ele>3109.2</ele></trkpt>
      <trkpt lat="44.002936" lon="-114.670587"><ele>3103.5</ele></trkpt>
      <trkpt lat="44.002877" lon="-114.670539"><ele>3102.2</ele></trkpt>
      <trkpt lat="44.002702" lon="-114.670490"><ele>3101.8</ele></trkpt>
      <trkpt lat="44.002611" lon="-114.670487"><ele>3102.5</ele></trkpt>
      <trkpt lat="44.002403" lon="-114.670461"><ele>3101.0</ele></trkpt>
      <trkpt lat="44.002257" lon="-114.670429"><ele>3098.0</ele></trkpt>
      <trkpt lat="44.002095" lon="-114.670467"><ele>3095.5</ele></trkpt>
      <trkpt lat="44.002003" lon="-114.670461"><ele>3093.8</ele></trkpt>
      <trkpt lat="44.001841" lon="-114.670391"><ele>3091.2</ele></trkpt>
      <trkpt lat="44.001536" lon="-114.670327"><ele>3086.2</ele></trkpt>
      <trkpt lat="44.001317" lon="-114.670210"><ele>3082.5</ele></trkpt>
      <trkpt lat="44.001209" lon="-114.670184"><ele>3080.2</ele></trkpt>
      <trkpt lat="44.001047" lon="-114.670170"><ele>3076.5</ele></trkpt>
      <trkpt lat="44.000903" lon="-114.670099"><ele>3074.5</ele></trkpt>
      <trkpt lat="44.000662" lon="-114.670006"><ele>3070.5</ele></trkpt>
      <trkpt lat="44.000476" lon="-114.669884"><ele>3062.2</ele></trkpt>
      <trkpt lat="44.000302" lon="-114.669834"><ele>3056.5</ele></trkpt>
      <trkpt lat="44.000163" lon="-114.669832"><ele>3053.2</ele></trkpt>
      <trkpt lat="44.000293" lon="-114.670141"><ele>3057.5</ele></trkpt>
      <trkpt lat="44.000442" lon="-114.670474"><ele>3053.0</ele></trkpt>
      <trkpt lat="44.000311" lon="-114.670513"><ele>3048.0</ele></trkpt>
      <trkpt lat="44.000159" lon="-114.670503"><ele>3043.5</ele></trkpt>
      <trkpt lat="44.000016" lon="-114.670546"><ele>3038.0</ele></trkpt>
      <trkpt lat="43.999926" lon="-114.670562"><ele>3035.8</ele></trkpt>
      <trkpt lat="43.999899" lon="-114.670551"><ele>3035.8</ele></trkpt>
      <trkpt lat="43.999870" lon="-114.670490"><ele>3037.0</ele></trkpt>
      <trkpt lat="43.999797" lon="-114.670418"><ele>3038.2</ele></trkpt>
      <trkpt lat="43.999617" lon="-114.670412"><ele>3035.8</ele></trkpt>
      <trkpt lat="43.999491" lon="-114.670430"><ele>3033.2</ele></trkpt>
      <trkpt lat="43.999277" lon="-114.670525"><ele>3026.5</ele></trkpt>
      <trkpt lat="43.999008" lon="-114.670598"><ele>3018.8</ele></trkpt>
      <trkpt lat="43.999009" lon="-114.670648"><ele>3017.0</ele></trkpt>
      <trkpt lat="43.999037" lon="-114.670697"><ele>3015.5</ele></trkpt>
      <trkpt lat="43.999156" lon="-114.670779"><ele>3014.8</ele></trkpt>
      <trkpt lat="43.999384" lon="-114.670908"><ele>3013.2</ele></trkpt>
      <trkpt lat="43.999530" lon="-114.671014"><ele>3010.8</ele></trkpt>
      <trkpt lat="43.999558" lon="-114.671051"><ele>3009.5</ele></trkpt>
      <trkpt lat="43.999568" lon="-114.671088"><ele>3007.8</ele></trkpt>
      <trkpt lat="43.999559" lon="-114.671125"><ele>3005.8</ele></trkpt>
      <trkpt lat="43.999515" lon="-114.671140"><ele>3004.0</ele></trkpt>
      <trkpt lat="43.999460" lon="-114.671129"><ele>3003.5</ele></trkpt>
      <trkpt lat="43.999283" lon="-114.671261"><ele>2993.2</ele></trkpt>
      <trkpt lat="43.999275" lon="-114.671336"><ele>2989.2</ele></trkpt>
      <trkpt lat="43.999313" lon="-114.671397"><ele>2986.8</ele></trkpt>
      <trkpt lat="43.999460" lon="-114.671541"><ele>2982.5</ele></trkpt>
      <trkpt lat="43.999580" lon="-114.671686"><ele>2978.0</ele></trkpt>
      <trkpt lat="43.999717" lon="-114.671793"><ele>2975.8</ele></trkpt>
      <trkpt lat="43.999926" lon="-114.671897"><ele>2974.8</ele></trkpt>
      <trkpt lat="43.999944" lon="-114.671896"><ele>2975.2</ele></trkpt>
      <trkpt lat="43.999981" lon="-114.671945"><ele>2973.5</ele></trkpt>
      <trkpt lat="43.999982" lon="-114.671994"><ele>2971.0</ele></trkpt>
      <trkpt lat="43.999974" lon="-114.672057"><ele>2967.8</ele></trkpt>
      <trkpt lat="43.999921" lon="-114.672084"><ele>2965.5</ele></trkpt>
      <trkpt lat="43.999903" lon="-114.672110"><ele>2964.0</ele></trkpt>
      <trkpt lat="43.999895" lon="-114.672147"><ele>2962.0</ele></trkpt>
      <trkpt lat="43.999897" lon="-114.672235"><ele>2957.8</ele></trkpt>
      <trkpt lat="43.999939" lon="-114.672392"><ele>2950.5</ele></trkpt>
      <trkpt lat="44.000006" lon="-114.672480"><ele>2947.0</ele></trkpt>
      <trkpt lat="44.000142" lon="-114.672730"><ele>2941.0</ele></trkpt>
      <trkpt lat="44.000410" lon="-114.673033"><ele>2937.2</ele></trkpt>
      <trkpt lat="44.000244" lon="-114.673056"><ele>2930.8</ele></trkpt>
      <trkpt lat="44.000094" lon="-114.673009"><ele>2927.8</ele></trkpt>
      <trkpt lat="44.000215" lon="-114.673540"><ele>2911.2</ele></trkpt>
      <trkpt lat="43.999973" lon="-114.673352"><ele>2909.8</ele></trkpt>
      <trkpt lat="44.000038" lon="-114.673801"><ele>2897.0</ele></trkpt>
      <trkpt lat="44.000091" lon="-114.674272"><ele>2883.5</ele></trkpt>
      <trkpt lat="44.000270" lon="-114.674410"><ele>2885.2</ele></trkpt>
      <trkpt lat="44.000273" lon="-114.674522"><ele>2882.0</ele></trkpt>
      <trkpt lat="44.000317" lon="-114.674619"><ele>2881.0</ele></trkpt>
      <trkpt lat="44.000335" lon="-114.675001"><ele>2871.0</ele></trkpt>
      <trkpt lat="44.000422" lon="-114.675295"><ele>2863.5</ele></trkpt>
      <trkpt lat="44.000624" lon="-114.675393"><ele>2868.2</ele></trkpt>
      <trkpt lat="44.000717" lon="-114.675514"><ele>2867.5</ele></trkpt>
      <trkpt lat="44.000565" lon="-114.675553"><ele>2860.0</ele></trkpt>
      <trkpt lat="44.000422" lon="-114.675546"><ele>2854.2</ele></trkpt>
      <trkpt lat="44.000067" lon="-114.675441"><ele>2843.8</ele></trkpt>
      <trkpt lat="44.000117" lon="-114.675775"><ele>2833.0</ele></trkpt>
      <trkpt lat="44.000335" lon="-114.676189"><ele>2830.0</ele></trkpt>
      <trkpt lat="44.000163" lon="-114.676625"><ele>2810.2</ele></trkpt>
      <trkpt lat="44.000199" lon="-114.676742"><ele>2808.5</ele></trkpt>
      <trkpt lat="43.999988" lon="-114.676711"><ele>2800.2</ele></trkpt>
      <trkpt lat="43.999825" lon="-114.676671"><ele>2796.0</ele></trkpt>
      <trkpt lat="43.999811" lon="-114.676870"><ele>2790.2</ele></trkpt>
      <trkpt lat="43.999847" lon="-114.677027"><ele>2787.2</ele></trkpt>
      <trkpt lat="43.999880" lon="-114.677481"><ele>2776.0</ele></trkpt>
      <trkpt lat="44.000053" lon="-114.678035"><ele>2769.0</ele></trkpt>
      <trkpt lat="44.000201" lon="-114.678247"><ele>2766.2</ele></trkpt>
      <trkpt lat="44.000311" lon="-114.678751"><ele>2756.5</ele></trkpt>
      <trkpt lat="44.000653" lon="-114.679167"><ele>2749.8</ele></trkpt>
      <trkpt lat="44.000877" lon="-114.679653"><ele>2743.2</ele></trkpt>
      <trkpt lat="44.001211" lon="-114.680161"><ele>2737.5</ele></trkpt>
      <trkpt lat="44.001236" lon="-114.680829"><ele>2723.8</ele></trkpt>
      <trkpt lat="44.001397" lon="-114.681356"><ele>2716.2</ele></trkpt>
      <trkpt lat="44.001471" lon="-114.681877"><ele>2707.8</ele></trkpt>
      <trkpt lat="44.001504" lon="-114.682212"><ele>2702.0</ele></trkpt>
      <trkpt lat="44.001506" lon="-114.682300"><ele>2700.2</ele></trkpt>
      <trkpt lat="44.001482" lon="-114.682413"><ele>2697.8</ele></trkpt>
      <trkpt lat="44.001248" lon="-114.682010"><ele>2701.2</ele></trkpt>
      <trkpt lat="44.001203" lon="-114.681987"><ele>2700.8</ele></trkpt>
      <trkpt lat="44.001140" lon="-114.681977"><ele>2699.8</ele></trkpt>
      <trkpt lat="44.001106" lon="-114.682103"><ele>2697.0</ele></trkpt>
      <trkpt lat="44.001203" lon="-114.682461"><ele>2692.2</ele></trkpt>
      <trkpt lat="44.001423" lon="-114.683089"><ele>2683.5</ele></trkpt>
      <trkpt lat="44.001433" lon="-114.683151"><ele>2682.2</ele></trkpt>
      <trkpt lat="44.001353" lon="-114.683154"><ele>2681.2</ele></trkpt>
      <trkpt lat="44.001171" lon="-114.683061"><ele>2681.0</ele></trkpt>
      <trkpt lat="44.001071" lon="-114.683028"><ele>2680.5</ele></trkpt>
      <trkpt lat="44.001044" lon="-114.683054"><ele>2679.8</ele></trkpt>
      <trkpt lat="44.001057" lon="-114.683240"><ele>2676.5</ele></trkpt>
      <trkpt lat="44.001144" lon="-114.683549"><ele>2672.0</ele></trkpt>
      <trkpt lat="44.001179" lon="-114.683921"><ele>2665.5</ele></trkpt>
      <trkpt lat="44.001157" lon="-114.684184"><ele>2660.8</ele></trkpt>
      <trkpt lat="44.001137" lon="-114.684522"><ele>2657.2</ele></trkpt>
      <trkpt lat="44.000612" lon="-114.684157"><ele>2655.8</ele></trkpt>
      <trkpt lat="44.001137" lon="-114.684522"><ele>2657.2</ele></trkpt>
      <trkpt lat="44.001184" lon="-114.684699"><ele>2656.0</ele></trkpt>
      <trkpt lat="44.001499" lon="-114.684995"><ele>2656.2</ele></trkpt>
      <trkpt lat="44.001991" lon="-114.685028"><ele>2656.2</ele></trkpt>
      <trkpt lat="44.002331" lon="-114.685134"><ele>2654.2</ele></trkpt>
      <trkpt lat="44.002448" lon="-114.685242"><ele>2653.5</ele></trkpt>
      <trkpt lat="44.002640" lon="-114.685346"><ele>2653.8</ele></trkpt>
      <trkpt lat="44.002839" lon="-114.685484"><ele>2653.8</ele></trkpt>
      <trkpt lat="44.003100" lon="-114.685692"><ele>2653.0</ele></trkpt>
      <trkpt lat="44.003957" lon="-114.687051"><ele>2651.5</ele></trkpt>
      <trkpt lat="44.004114" lon="-114.687309"><ele>2649.2</ele></trkpt>
      <trkpt lat="44.004292" lon="-114.687645"><ele>2646.5</ele></trkpt>
      <trkpt lat="44.004436" lon="-114.687969"><ele>2645.8</ele></trkpt>
      <trkpt lat="44.005371" lon="-114.688623"><ele>2644.8</ele></trkpt>
      <trkpt lat="44.005674" lon="-114.688923"><ele>2642.8</ele></trkpt>
      <trkpt lat="44.005946" lon="-114.689461"><ele>2640.5</ele></trkpt>
      <trkpt lat="44.006128" lon="-114.689562"><ele>2642.2</ele></trkpt>
      <trkpt lat="44.006328" lon="-114.689671"><ele>2642.2</ele></trkpt>
      <trkpt lat="44.006798" lon="-114.689728"><ele>2642.5</ele></trkpt>
      <trkpt lat="44.007190" lon="-114.689646"><ele>2639.5</ele></trkpt>
      <trkpt lat="44.007733" lon="-114.689360"><ele>2635.2</ele></trkpt>
      <trkpt lat="44.008312" lon="-114.689014"><ele>2627.8</ele></trkpt>
      <trkpt lat="44.008604" lon="-114.688870"><ele>2629.5</ele></trkpt>
      <trkpt lat="44.008985" lon="-114.688836"><ele>2630.8</ele></trkpt>
      <trkpt lat="44.009262" lon="-114.688904"><ele>2630.2</ele></trkpt>
      <trkpt lat="44.009410" lon="-114.688912"><ele>2630.8</ele></trkpt>
      <trkpt lat="44.009464" lon="-114.688969"><ele>2630.2</ele></trkpt>
      <trkpt lat="44.009486" lon="-114.689146"><ele>2627.8</ele></trkpt>
      <trkpt lat="44.009584" lon="-114.689261"><ele>2627.5</ele></trkpt>
      <trkpt lat="44.009817" lon="-114.689463"><ele>2628.0</ele></trkpt>
      <trkpt lat="44.010056" lon="-114.689705"><ele>2629.0</ele></trkpt>
      <trkpt lat="44.010223" lon="-114.690213"><ele>2629.8</ele></trkpt>
      <trkpt lat="44.010349" lon="-114.690517"><ele>2630.2</ele></trkpt>
      <trkpt lat="44.010453" lon="-114.690766"><ele>2630.2</ele></trkpt>
      <trkpt lat="44.010595" lon="-114.690912"><ele>2631.2</ele></trkpt>
      <trkpt lat="44.010641" lon="-114.691101"><ele>2631.0</ele></trkpt>
      <trkpt lat="44.010779" lon="-114.691301"><ele>2631.5</ele></trkpt>
      <trkpt lat="44.010965" lon="-114.691333"><ele>2632.0</ele></trkpt>
      <trkpt lat="44.011064" lon="-114.691508"><ele>2631.0</ele></trkpt>
      <trkpt lat="44.011193" lon="-114.691780"><ele>2630.0</ele></trkpt>
      <trkpt lat="44.011365" lon="-114.692004"><ele>2630.5</ele></trkpt>
      <trkpt lat="44.011621" lon="-114.691988"><ele>2630.5</ele></trkpt>
      <trkpt lat="44.011794" lon="-114.691954"><ele>2629.8</ele></trkpt>
      <trkpt lat="44.011895" lon="-114.692012"><ele>2629.5</ele></trkpt>
      <trkpt lat="44.012068" lon="-114.692143"><ele>2629.2</ele></trkpt>
      <trkpt lat="44.012402" lon="-114.692155"><ele>2627.8</ele></trkpt>
      <trkpt lat="44.012621" lon="-114.692088"><ele>2628.5</ele></trkpt>
    </trkseg>
    <!-- Sun -->
    <trkseg>
      <trkpt lat="44.012621" lon="-114.692088"><ele>2628.0</ele></trkpt>
      <trkpt lat="44.012402" lon="-114.692155"><ele>2627.8</ele></trkpt>
      <trkpt lat="44.012068" lon="-114.692143"><ele>2629.2</ele></trkpt>
      <trkpt lat="44.011895" lon="-114.692012"><ele>2629.5</ele></trkpt>
      <trkpt lat="44.011794" lon="-114.691954"><ele>2629.8</ele></trkpt>
      <trkpt lat="44.011621" lon="-114.691988"><ele>2630.5</ele></trkpt>
      <trkpt lat="44.011365" lon="-114.692004"><ele>2630.5</ele></trkpt>
      <trkpt lat="44.011193" lon="-114.691780"><ele>2630.0</ele></trkpt>
      <trkpt lat="44.011064" lon="-114.691508"><ele>2631.0</ele></trkpt>
      <trkpt lat="44.010965" lon="-114.691333"><ele>2632.0</ele></trkpt>
      <trkpt lat="44.010779" lon="-114.691301"><ele>2631.5</ele></trkpt>
      <trkpt lat="44.010641" lon="-114.691101"><ele>2631.0</ele></trkpt>
      <trkpt lat="44.010595" lon="-114.690912"><ele>2631.2</ele></trkpt>
      <trkpt lat="44.010453" lon="-114.690766"><ele>2630.2</ele></trkpt>
      <trkpt lat="44.010349" lon="-114.690517"><ele>2629.8</ele></trkpt>
      <trkpt lat="44.010223" lon="-114.690213"><ele>2629.8</ele></trkpt>
      <trkpt lat="44.010056" lon="-114.689705"><ele>2629.0</ele></trkpt>
      <trkpt lat="44.009817" lon="-114.689463"><ele>2628.0</ele></trkpt>
      <trkpt lat="44.009584" lon="-114.689261"><ele>2627.5</ele></trkpt>
      <trkpt lat="44.009486" lon="-114.689146"><ele>2627.8</ele></trkpt>
      <trkpt lat="44.009464" lon="-114.688969"><ele>2630.2</ele></trkpt>
      <trkpt lat="44.009410" lon="-114.688912"><ele>2630.8</ele></trkpt>
      <trkpt lat="44.009262" lon="-114.688904"><ele>2630.2</ele></trkpt>
      <trkpt lat="44.008985" lon="-114.688836"><ele>2630.8</ele></trkpt>
      <trkpt lat="44.008604" lon="-114.688870"><ele>2629.5</ele></trkpt>
      <trkpt lat="44.008312" lon="-114.689014"><ele>2627.8</ele></trkpt>
      <trkpt lat="44.007733" lon="-114.689360"><ele>2635.2</ele></trkpt>
      <trkpt lat="44.007190" lon="-114.689646"><ele>2639.5</ele></trkpt>
      <trkpt lat="44.006798" lon="-114.689728"><ele>2642.5</ele></trkpt>
      <trkpt lat="44.006328" lon="-114.689671"><ele>2642.2</ele></trkpt>
      <trkpt lat="44.006128" lon="-114.689562"><ele>2640.5</ele></trkpt>
      <trkpt lat="44.006328" lon="-114.689671"><ele>2642.2</ele></trkpt>
      <trkpt lat="44.006798" lon="-114.689728"><ele>2642.5</ele></trkpt>
      <trkpt lat="44.007190" lon="-114.689646"><ele>2639.5</ele></trkpt>
      <trkpt lat="44.007733" lon="-114.689360"><ele>2635.2</ele></trkpt>
      <trkpt lat="44.008312" lon="-114.689014"><ele>2627.8</ele></trkpt>
      <trkpt lat="44.008604" lon="-114.688870"><ele>2629.5</ele></trkpt>
      <trkpt lat="44.008985" lon="-114.688836"><ele>2630.8</ele></trkpt>
      <trkpt lat="44.009262" lon="-114.688904"><ele>2630.2</ele></trkpt>
      <trkpt lat="44.009410" lon="-114.688912"><ele>2630.8</ele></trkpt>
      <trkpt lat="44.009464" lon="-114.688969"><ele>2630.2</ele></trkpt>
      <trkpt lat="44.009486" lon="-114.689146"><ele>2627.8</ele></trkpt>
      <trkpt lat="44.009584" lon="-114.689261"><ele>2627.5</ele></trkpt>
      <trkpt lat="44.009817" lon="-114.689463"><ele>2628.0</ele></trkpt>
      <trkpt lat="44.010056" lon="-114.689705"><ele>2629.0</ele></trkpt>
      <trkpt lat="44.010223" lon="-114.690213"><ele>2629.8</ele></trkpt>
      <trkpt lat="44.010349" lon="-114.690517"><ele>2630.2</ele></trkpt>
      <trkpt lat="44.010453" lon="-114.690766"><ele>2630.2</ele></trkpt>
      <trkpt lat="44.010595" lon="-114.690912"><ele>2631.2</ele></trkpt>
      <trkpt lat="44.010641" lon="-114.691101"><ele>2631.0</ele></trkpt>
      <trkpt lat="44.010779" lon="-114.691301"><ele>2631.5</ele></trkpt>
      <trkpt lat="44.010965" lon="-114.691333"><ele>2632.0</ele></trkpt>
      <trkpt lat="44.011064" lon="-114.691508"><ele>2631.0</ele></trkpt>
      <trkpt lat="44.011193" lon="-114.691780"><ele>2630.0</ele></trkpt>
      <trkpt lat="44.011365" lon="-114.692004"><ele>2630.5</ele></trkpt>
      <trkpt lat="44.011621" lon="-114.691988"><ele>2630.5</ele></trkpt>
      <trkpt lat="44.011794" lon="-114.691954"><ele>2629.8</ele></trkpt>
      <trkpt lat="44.011895" lon="-114.692012"><ele>2629.5</ele></trkpt>
      <trkpt lat="44.012068" lon="-114.692143"><ele>2629.2</ele></trkpt>
      <trkpt lat="44.012402" lon="-114.692155"><ele>2627.8</ele></trkpt>
      <trkpt lat="44.012621" lon="-114.692088"><ele>2628.5</ele></trkpt>
    </trkseg>
    <!-- Mon -->
    <trkseg>
      <trkpt lat="44.012621" lon="-114.692088"><ele>2628.0</ele></trkpt>
      <trkpt lat="44.012822" lon="-114.692026"><ele>2628.5</ele></trkpt>
      <trkpt lat="44.013214" lon="-114.691786"><ele>2628.0</ele></trkpt>
      <trkpt lat="44.013629" lon="-114.691383"><ele>2625.0</ele></trkpt>
      <trkpt lat="44.013797" lon="-114.691277"><ele>2624.0</ele></trkpt>
      <trkpt lat="44.013995" lon="-114.691244"><ele>2623.0</ele></trkpt>
      <trkpt lat="44.014249" lon="-114.691347"><ele>2622.8</ele></trkpt>
      <trkpt lat="44.014575" lon="-114.691446"><ele>2622.0</ele></trkpt>
      <trkpt lat="44.015111" lon="-114.691357"><ele>2617.8</ele></trkpt>
      <trkpt lat="44.015405" lon="-114.691273"><ele>2613.2</ele></trkpt>
      <trkpt lat="44.015610" lon="-114.691278"><ele>2610.5</ele></trkpt>
      <trkpt lat="44.015971" lon="-114.691231"><ele>2604.2</ele></trkpt>
      <trkpt lat="44.016164" lon="-114.691336"><ele>2599.8</ele></trkpt>
      <trkpt lat="44.016343" lon="-114.691705"><ele>2593.2</ele></trkpt>
      <trkpt lat="44.016370" lon="-114.691889"><ele>2591.5</ele></trkpt>
      <trkpt lat="44.016637" lon="-114.692598"><ele>2577.2</ele></trkpt>
      <trkpt lat="44.016680" lon="-114.692821"><ele>2574.2</ele></trkpt>
      <trkpt lat="44.016825" lon="-114.693166"><ele>2571.5</ele></trkpt>
      <trkpt lat="44.016791" lon="-114.693352"><ele>2570.0</ele></trkpt>
      <trkpt lat="44.016607" lon="-114.693471"><ele>2570.0</ele></trkpt>
      <trkpt lat="44.016459" lon="-114.693701"><ele>2570.8</ele></trkpt>
      <trkpt lat="44.016257" lon="-114.694046"><ele>2570.2</ele></trkpt>
      <trkpt lat="44.016074" lon="-114.694185"><ele>2571.2</ele></trkpt>
      <trkpt lat="44.016094" lon="-114.694712"><ele>2564.2</ele></trkpt>
      <trkpt lat="44.016011" lon="-114.695079"><ele>2560.2</ele></trkpt>
      <trkpt lat="44.016108" lon="-114.695629"><ele>2557.2</ele></trkpt>
      <trkpt lat="44.016259" lon="-114.696284"><ele>2553.2</ele></trkpt>
      <trkpt lat="44.016397" lon="-114.696516"><ele>2552.0</ele></trkpt>
      <trkpt lat="44.016345" lon="-114.696776"><ele>2549.8</ele></trkpt>
      <trkpt lat="44.016206" lon="-114.696972"><ele>2547.2</ele></trkpt>
      <trkpt lat="44.016093" lon="-114.697254"><ele>2543.5</ele></trkpt>
      <trkpt lat="44.015987" lon="-114.697430"><ele>2540.5</ele></trkpt>
      <trkpt lat="44.015842" lon="-114.697832"><ele>2537.2</ele></trkpt>
      <trkpt lat="44.015771" lon="-114.698303"><ele>2536.2</ele></trkpt>
      <trkpt lat="44.015803" lon="-114.698480"><ele>2535.2</ele></trkpt>
      <trkpt lat="44.015792" lon="-114.698645"><ele>2534.5</ele></trkpt>
      <trkpt lat="44.015659" lon="-114.698902"><ele>2533.2</ele></trkpt>
      <trkpt lat="44.015623" lon="-114.699259"><ele>2530.8</ele></trkpt>
      <trkpt lat="44.015684" lon="-114.699686"><ele>2527.5</ele></trkpt>
      <trkpt lat="44.015999" lon="-114.699931"><ele>2527.2</ele></trkpt>
      <trkpt lat="44.016294" lon="-114.700138"><ele>2528.8</ele></trkpt>
      <trkpt lat="44.016421" lon="-114.700291"><ele>2528.5</ele></trkpt>
      <trkpt lat="44.016522" lon="-114.700565"><ele>2526.0</ele></trkpt>
      <trkpt lat="44.016607" lon="-114.700760"><ele>2523.8</ele></trkpt>
      <trkpt lat="44.016633" lon="-114.701122"><ele>2522.0</ele></trkpt>
      <trkpt lat="44.016603" lon="-114.701308"><ele>2521.2</ele></trkpt>
      <trkpt lat="44.016633" lon="-114.701584"><ele>2520.2</ele></trkpt>
      <trkpt lat="44.016705" lon="-114.701852"><ele>2519.5</ele></trkpt>
      <trkpt lat="44.016771" lon="-114.702285"><ele>2518.5</ele></trkpt>
      <trkpt lat="44.016921" lon="-114.702531"><ele>2518.5</ele></trkpt>
      <trkpt lat="44.016994" lon="-114.702852"><ele>2517.8</ele></trkpt>
      <trkpt lat="44.017116" lon="-114.703250"><ele>2517.5</ele></trkpt>
      <trkpt lat="44.017117" lon="-114.703527"><ele>2516.2</ele></trkpt>
      <trkpt lat="44.017069" lon="-114.703747"><ele>2514.8</ele></trkpt>
      <trkpt lat="44.017126" lon="-114.704212"><ele>2513.0</ele></trkpt>
      <trkpt lat="44.017128" lon="-114.704496"><ele>2512.0</ele></trkpt>
      <trkpt lat="44.017054" lon="-114.704829"><ele>2509.8</ele></trkpt>
      <trkpt lat="44.017088" lon="-114.705085"><ele>2509.0</ele></trkpt>
      <trkpt lat="44.016973" lon="-114.705525"><ele>2506.0</ele></trkpt>
      <trkpt lat="44.017086" lon="-114.705970"><ele>2505.5</ele></trkpt>
      <trkpt lat="44.017113" lon="-114.706338"><ele>2504.2</ele></trkpt>
      <trkpt lat="44.017223" lon="-114.706605"><ele>2503.8</ele></trkpt>
      <trkpt lat="44.017258" lon="-114.706914"><ele>2501.8</ele></trkpt>
      <trkpt lat="44.017215" lon="-114.707160"><ele>2499.8</ele></trkpt>
      <trkpt lat="44.016587" lon="-114.708366"><ele>2487.2</ele></trkpt>
      <trkpt lat="44.016555" lon="-114.708684"><ele>2485.2</ele></trkpt>
      <trkpt lat="44.016433" lon="-114.709032"><ele>2482.5</ele></trkpt>
      <trkpt lat="44.016371" lon="-114.709278"><ele>2480.8</ele></trkpt>
      <trkpt lat="44.016304" lon="-114.709750"><ele>2478.0</ele></trkpt>
      <trkpt lat="44.015887" lon="-114.710294"><ele>2473.0</ele></trkpt>
      <trkpt lat="44.015759" lon="-114.710596"><ele>2470.8</ele></trkpt>
      <trkpt lat="44.015774" lon="-114.710890"><ele>2469.8</ele></trkpt>
      <trkpt lat="44.015717" lon="-114.711123"><ele>2469.2</ele></trkpt>
      <trkpt lat="44.015592" lon="-114.711333"><ele>2468.5</ele></trkpt>
      <trkpt lat="44.015666" lon="-114.712188"><ele>2468.0</ele></trkpt>
      <trkpt lat="44.015705" lon="-114.712424"><ele>2468.2</ele></trkpt>
      <trkpt lat="44.015711" lon="-114.712741"><ele>2470.5</ele></trkpt>
      <trkpt lat="44.015658" lon="-114.712934"><ele>2471.5</ele></trkpt>
      <trkpt lat="44.015534" lon="-114.713567"><ele>2474.2</ele></trkpt>
      <trkpt lat="44.015437" lon="-114.713720"><ele>2473.2</ele></trkpt>
      <trkpt lat="44.015257" lon="-114.714152"><ele>2473.0</ele></trkpt>
      <trkpt lat="44.015207" lon="-114.714341"><ele>2472.2</ele></trkpt>
      <trkpt lat="44.015166" lon="-114.714579"><ele>2471.2</ele></trkpt>
      <trkpt lat="44.015108" lon="-114.714819"><ele>2469.8</ele></trkpt>
      <trkpt lat="44.015052" lon="-114.715170"><ele>2468.5</ele></trkpt>
      <trkpt lat="44.015095" lon="-114.715493"><ele>2470.5</ele></trkpt>
      <trkpt lat="44.015145" lon="-114.715753"><ele>2472.2</ele></trkpt>
      <trkpt lat="44.015222" lon="-114.716024"><ele>2473.8</ele></trkpt>
      <trkpt lat="44.015227" lon="-114.716249"><ele>2473.2</ele></trkpt>
      <trkpt lat="44.015214" lon="-114.716486"><ele>2472.2</ele></trkpt>
      <trkpt lat="44.015189" lon="-114.716624"><ele>2471.2</ele></trkpt>
      <trkpt lat="44.015059" lon="-114.716841"><ele>2466.8</ele></trkpt>
      <trkpt lat="44.014964" lon="-114.717045"><ele>2463.2</ele></trkpt>
      <trkpt lat="44.014931" lon="-114.717221"><ele>2461.5</ele></trkpt>
      <trkpt lat="44.014901" lon="-114.717509"><ele>2459.2</ele></trkpt>
      <trkpt lat="44.014885" lon="-114.717597"><ele>2458.5</ele></trkpt>
      <trkpt lat="44.014806" lon="-114.717712"><ele>2456.0</ele></trkpt>
      <trkpt lat="44.014638" lon="-114.717868"><ele>2450.8</ele></trkpt>
      <trkpt lat="44.014568" lon="-114.717971"><ele>2448.5</ele></trkpt>
      <trkpt lat="44.014536" lon="-114.718159"><ele>2446.8</ele></trkpt>
      <trkpt lat="44.014445" lon="-114.718574"><ele>2441.8</ele></trkpt>
      <trkpt lat="44.014368" lon="-114.718764"><ele>2438.2</ele></trkpt>
      <trkpt lat="44.014263" lon="-114.718918"><ele>2434.2</ele></trkpt>
      <trkpt lat="44.014194" lon="-114.719083"><ele>2431.2</ele></trkpt>
      <trkpt lat="44.014099" lon="-114.719274"><ele>2429.8</ele></trkpt>
      <trkpt lat="44.014055" lon="-114.719799"><ele>2427.8</ele></trkpt>
      <trkpt lat="44.013986" lon="-114.719952"><ele>2427.0</ele></trkpt>
      <trkpt lat="44.013891" lon="-114.720130"><ele>2426.5</ele></trkpt>
      <trkpt lat="44.013822" lon="-114.720295"><ele>2425.8</ele></trkpt>
      <trkpt lat="44.013745" lon="-114.720497"><ele>2424.8</ele></trkpt>
      <trkpt lat="44.013661" lon="-114.720812"><ele>2422.8</ele></trkpt>
      <trkpt lat="44.013656" lon="-114.720975"><ele>2422.0</ele></trkpt>
      <trkpt lat="44.013688" lon="-114.721236"><ele>2421.0</ele></trkpt>
      <trkpt lat="44.013682" lon="-114.721398"><ele>2420.2</ele></trkpt>
      <trkpt lat="44.013707" lon="-114.721734"><ele>2419.2</ele></trkpt>
      <trkpt lat="44.013736" lon="-114.721820"><ele>2419.2</ele></trkpt>
      <trkpt lat="44.013732" lon="-114.722082"><ele>2418.8</ele></trkpt>
      <trkpt lat="44.013744" lon="-114.722231"><ele>2418.5</ele></trkpt>
      <trkpt lat="44.013739" lon="-114.722880"><ele>2416.0</ele></trkpt>
      <trkpt lat="44.013604" lon="-114.723347"><ele>2411.5</ele></trkpt>
      <trkpt lat="44.013384" lon="-114.724054"><ele>2407.0</ele></trkpt>
      <trkpt lat="44.013309" lon="-114.724793"><ele>2402.2</ele></trkpt>
      <trkpt lat="44.013343" lon="-114.725590"><ele>2397.5</ele></trkpt>
      <trkpt lat="44.013528" lon="-114.725857"><ele>2399.8</ele></trkpt>
      <trkpt lat="44.013691" lon="-114.725914"><ele>2403.0</ele></trkpt>
      <trkpt lat="44.013739" lon="-114.726086"><ele>2402.2</ele></trkpt>
      <trkpt lat="44.013789" lon="-114.726309"><ele>2401.5</ele></trkpt>
      <trkpt lat="44.013808" lon="-114.726795"><ele>2398.8</ele></trkpt>
      <trkpt lat="44.013833" lon="-114.727168"><ele>2399.5</ele></trkpt>
      <trkpt lat="44.013916" lon="-114.727726"><ele>2402.2</ele></trkpt>
      <trkpt lat="44.013762" lon="-114.728119"><ele>2400.2</ele></trkpt>
      <trkpt lat="44.013643" lon="-114.728473"><ele>2398.8</ele></trkpt>
      <trkpt lat="44.013534" lon="-114.728901"><ele>2397.5</ele></trkpt>
      <trkpt lat="44.013412" lon="-114.729093"><ele>2396.0</ele></trkpt>
      <trkpt lat="44.013228" lon="-114.729312"><ele>2393.5</ele></trkpt>
      <trkpt lat="44.012969" lon="-114.729908"><ele>2392.8</ele></trkpt>
      <trkpt lat="44.012748" lon="-114.730116"><ele>2390.8</ele></trkpt>
      <trkpt lat="44.012544" lon="-114.730249"><ele>2388.2</ele></trkpt>
      <trkpt lat="44.012323" lon="-114.730469"><ele>2383.5</ele></trkpt>
      <trkpt lat="44.012185" lon="-114.730762"><ele>2380.5</ele></trkpt>
      <trkpt lat="44.012065" lon="-114.731091"><ele>2379.0</ele></trkpt>
      <trkpt lat="44.011874" lon="-114.731422"><ele>2376.5</ele></trkpt>
      <trkpt lat="44.011688" lon="-114.731591"><ele>2374.0</ele></trkpt>
      <trkpt lat="44.011541" lon="-114.731859"><ele>2372.2</ele></trkpt>
      <trkpt lat="44.011432" lon="-114.732300"><ele>2370.8</ele></trkpt>
      <trkpt lat="44.011237" lon="-114.732894"><ele>2367.0</ele></trkpt>
      <trkpt lat="44.011035" lon="-114.733163"><ele>2362.5</ele></trkpt>
      <trkpt lat="44.010782" lon="-114.733560"><ele>2358.2</ele></trkpt>
      <trkpt lat="44.010643" lon="-114.733814"><ele>2357.0</ele></trkpt>
      <trkpt lat="44.010589" lon="-114.734290"><ele>2357.0</ele></trkpt>
      <trkpt lat="44.010537" lon="-114.734367"><ele>2356.5</ele></trkpt>
      <trkpt lat="44.010413" lon="-114.734933"><ele>2357.2</ele></trkpt>
      <trkpt lat="44.010392" lon="-114.735221"><ele>2359.2</ele></trkpt>
      <trkpt lat="44.010312" lon="-114.735723"><ele>2360.5</ele></trkpt>
      <trkpt lat="44.010263" lon="-114.735987"><ele>2359.5</ele></trkpt>
      <trkpt lat="44.010260" lon="-114.736311"><ele>2359.8</ele></trkpt>
      <trkpt lat="44.010274" lon="-114.736535"><ele>2360.8</ele></trkpt>
      <trkpt lat="44.010269" lon="-114.736748"><ele>2360.2</ele></trkpt>
      <trkpt lat="44.010125" lon="-114.737190"><ele>2350.8</ele></trkpt>
      <trkpt lat="44.010067" lon="-114.737454"><ele>2346.5</ele></trkpt>
      <trkpt lat="44.009965" lon="-114.737745"><ele>2341.5</ele></trkpt>
      <trkpt lat="44.009927" lon="-114.738095"><ele>2339.8</ele></trkpt>
      <trkpt lat="44.009871" lon="-114.738472"><ele>2337.2</ele></trkpt>
      <trkpt lat="44.009802" lon="-114.739073"><ele>2332.2</ele></trkpt>
      <trkpt lat="44.009669" lon="-114.739615"><ele>2327.0</ele></trkpt>
      <trkpt lat="44.009646" lon="-114.739853"><ele>2325.0</ele></trkpt>
      <trkpt lat="44.009694" lon="-114.740013"><ele>2324.8</ele></trkpt>
      <trkpt lat="44.009836" lon="-114.740357"><ele>2324.8</ele></trkpt>
      <trkpt lat="44.009877" lon="-114.740592"><ele>2323.8</ele></trkpt>
      <trkpt lat="44.009936" lon="-114.740840"><ele>2323.0</ele></trkpt>
      <trkpt lat="44.009998" lon="-114.741261"><ele>2321.8</ele></trkpt>
      <trkpt lat="44.010093" lon="-114.741520"><ele>2323.0</ele></trkpt>
      <trkpt lat="44.010142" lon="-114.741680"><ele>2323.2</ele></trkpt>
      <trkpt lat="44.010245" lon="-114.741926"><ele>2324.2</ele></trkpt>
      <trkpt lat="44.010341" lon="-114.742221"><ele>2325.0</ele></trkpt>
      <trkpt lat="44.010419" lon="-114.742518"><ele>2325.2</ele></trkpt>
      <trkpt lat="44.010506" lon="-114.742789"><ele>2326.2</ele></trkpt>
      <trkpt lat="44.010537" lon="-114.743000"><ele>2326.2</ele></trkpt>
      <trkpt lat="44.010550" lon="-114.743211"><ele>2325.5</ele></trkpt>
      <trkpt lat="44.010537" lon="-114.743449"><ele>2324.5</ele></trkpt>
      <trkpt lat="44.010488" lon="-114.743700"><ele>2322.5</ele></trkpt>
      <trkpt lat="44.010448" lon="-114.743989"><ele>2320.8</ele></trkpt>
      <trkpt lat="44.010391" lon="-114.744290"><ele>2318.0</ele></trkpt>
      <trkpt lat="44.010415" lon="-114.744576"><ele>2316.8</ele></trkpt>
      <trkpt lat="44.010519" lon="-114.745308"><ele>2313.5</ele></trkpt>
      <trkpt lat="44.010692" lon="-114.745863"><ele>2310.5</ele></trkpt>
      <trkpt lat="44.010768" lon="-114.746072"><ele>2308.5</ele></trkpt>
      <trkpt lat="44.010879" lon="-114.746218"><ele>2308.0</ele></trkpt>
      <trkpt lat="44.011008" lon="-114.746350"><ele>2309.0</ele></trkpt>
      <trkpt lat="44.011073" lon="-114.746447"><ele>2309.0</ele></trkpt>
      <trkpt lat="44.011174" lon="-114.746556"><ele>2309.2</ele></trkpt>
      <trkpt lat="44.011285" lon="-114.746701"><ele>2309.2</ele></trkpt>
      <trkpt lat="44.011342" lon="-114.746824"><ele>2309.5</ele></trkpt>
      <trkpt lat="44.011389" lon="-114.746959"><ele>2309.0</ele></trkpt>
      <trkpt lat="44.011395" lon="-114.747246"><ele>2306.5</ele></trkpt>
      <trkpt lat="44.011390" lon="-114.747458"><ele>2304.2</ele></trkpt>
      <trkpt lat="44.011358" lon="-114.747647"><ele>2302.8</ele></trkpt>
      <trkpt lat="44.011239" lon="-114.748025"><ele>2299.2</ele></trkpt>
      <trkpt lat="44.011201" lon="-114.748364"><ele>2297.2</ele></trkpt>
      <trkpt lat="44.011189" lon="-114.748689"><ele>2296.2</ele></trkpt>
      <trkpt lat="44.011202" lon="-114.748888"><ele>2295.8</ele></trkpt>
      <trkpt lat="44.011209" lon="-114.749212"><ele>2295.0</ele></trkpt>
      <trkpt lat="44.011269" lon="-114.749546"><ele>2294.2</ele></trkpt>
      <trkpt lat="44.011301" lon="-114.749795"><ele>2293.5</ele></trkpt>
      <trkpt lat="44.011324" lon="-114.750056"><ele>2292.8</ele></trkpt>
      <trkpt lat="44.011346" lon="-114.750254"><ele>2291.8</ele></trkpt>
      <trkpt lat="44.011395" lon="-114.750465"><ele>2291.0</ele></trkpt>
      <trkpt lat="44.011501" lon="-114.750785"><ele>2289.8</ele></trkpt>
      <trkpt lat="44.011522" lon="-114.750934"><ele>2289.8</ele></trkpt>
      <trkpt lat="44.011867" lon="-114.751532"><ele>2290.2</ele></trkpt>
      <trkpt lat="44.012224" lon="-114.751831"><ele>2289.2</ele></trkpt>
      <trkpt lat="44.012757" lon="-114.752409"><ele>2291.2</ele></trkpt>
      <trkpt lat="44.013036" lon="-114.752860"><ele>2289.8</ele></trkpt>
      <trkpt lat="44.013278" lon="-114.753275"><ele>2284.0</ele></trkpt>
      <trkpt lat="44.013445" lon="-114.753531"><ele>2285.5</ele></trkpt>
      <trkpt lat="44.013648" lon="-114.753748"><ele>2288.2</ele></trkpt>
      <trkpt lat="44.013886" lon="-114.753976"><ele>2288.2</ele></trkpt>
      <trkpt lat="44.014015" lon="-114.754133"><ele>2285.8</ele></trkpt>
      <trkpt lat="44.014099" lon="-114.754267"><ele>2285.0</ele></trkpt>
      <trkpt lat="44.014129" lon="-114.754391"><ele>2284.5</ele></trkpt>
      <trkpt lat="44.014180" lon="-114.754713"><ele>2283.0</ele></trkpt>
      <trkpt lat="44.014270" lon="-114.755196"><ele>2281.5</ele></trkpt>
      <trkpt lat="44.014423" lon="-114.755652"><ele>2280.8</ele></trkpt>
      <trkpt lat="44.014630" lon="-114.756081"><ele>2281.0</ele></trkpt>
      <trkpt lat="44.014806" lon="-114.756336"><ele>2281.0</ele></trkpt>
      <trkpt lat="44.014889" lon="-114.756421"><ele>2280.8</ele></trkpt>
      <trkpt lat="44.015072" lon="-114.756563"><ele>2280.2</ele></trkpt>
      <trkpt lat="44.015173" lon="-114.756672"><ele>2279.5</ele></trkpt>
      <trkpt lat="44.015405" lon="-114.757025"><ele>2278.5</ele></trkpt>
      <trkpt lat="44.015469" lon="-114.757110"><ele>2278.2</ele></trkpt>
      <trkpt lat="44.015542" lon="-114.757145"><ele>2278.2</ele></trkpt>
      <trkpt lat="44.015958" lon="-114.757254"><ele>2281.5</ele></trkpt>
      <trkpt lat="44.016086" lon="-114.757349"><ele>2283.8</ele></trkpt>
      <trkpt lat="44.016151" lon="-114.757434"><ele>2284.2</ele></trkpt>
      <trkpt lat="44.016218" lon="-114.757655"><ele>2283.0</ele></trkpt>
      <trkpt lat="44.016336" lon="-114.758150"><ele>2279.8</ele></trkpt>
      <trkpt lat="44.016375" lon="-114.758273"><ele>2279.0</ele></trkpt>
      <trkpt lat="44.016449" lon="-114.758408"><ele>2279.0</ele></trkpt>
      <trkpt lat="44.016560" lon="-114.758566"><ele>2279.5</ele></trkpt>
      <trkpt lat="44.016740" lon="-114.759432"><ele>2277.0</ele></trkpt>
      <trkpt lat="44.016751" lon="-114.759557"><ele>2277.0</ele></trkpt>
      <trkpt lat="44.016709" lon="-114.759733"><ele>2275.8</ele></trkpt>
      <trkpt lat="44.016656" lon="-114.759772"><ele>2274.8</ele></trkpt>
      <trkpt lat="44.016541" lon="-114.759877"><ele>2274.2</ele></trkpt>
      <trkpt lat="44.016516" lon="-114.759977"><ele>2274.2</ele></trkpt>
      <trkpt lat="44.016518" lon="-114.760065"><ele>2274.2</ele></trkpt>
      <trkpt lat="44.016576" lon="-114.760274"><ele>2274.5</ele></trkpt>
      <trkpt lat="44.016727" lon="-114.760655"><ele>2275.0</ele></trkpt>
      <trkpt lat="44.016853" lon="-114.761087"><ele>2276.5</ele></trkpt>
      <trkpt lat="44.016961" lon="-114.761532"><ele>2277.8</ele></trkpt>
      <trkpt lat="44.017061" lon="-114.762028"><ele>2275.5</ele></trkpt>
      <trkpt lat="44.017139" lon="-114.762362"><ele>2273.2</ele></trkpt>
      <trkpt lat="44.017397" lon="-114.763138"><ele>2270.0</ele></trkpt>
      <trkpt lat="44.017477" lon="-114.763509"><ele>2269.5</ele></trkpt>
      <trkpt lat="44.017555" lon="-114.764280"><ele>2269.5</ele></trkpt>
      <trkpt lat="44.017586" lon="-114.764516"><ele>2270.2</ele></trkpt>
      <trkpt lat="44.017624" lon="-114.764614"><ele>2270.8</ele></trkpt>
      <trkpt lat="44.017690" lon="-114.764724"><ele>2271.0</ele></trkpt>
      <trkpt lat="44.017781" lon="-114.764783"><ele>2271.5</ele></trkpt>
      <trkpt lat="44.017998" lon="-114.764825"><ele>2272.5</ele></trkpt>
      <trkpt lat="44.018277" lon="-114.764864"><ele>2273.2</ele></trkpt>
      <trkpt lat="44.018359" lon="-114.764898"><ele>2274.0</ele></trkpt>
      <trkpt lat="44.018469" lon="-114.764982"><ele>2276.5</ele></trkpt>
      <trkpt lat="44.018561" lon="-114.765090"><ele>2278.5</ele></trkpt>
      <trkpt lat="44.018709" lon="-114.765297"><ele>2281.8</ele></trkpt>
      <trkpt lat="44.018866" lon="-114.765478"><ele>2285.2</ele></trkpt>
      <trkpt lat="44.019105" lon="-114.765731"><ele>2291.2</ele></trkpt>
      <trkpt lat="44.019151" lon="-114.765817"><ele>2292.5</ele></trkpt>
      <trkpt lat="44.019163" lon="-114.765966"><ele>2292.0</ele></trkpt>
      <trkpt lat="44.019110" lon="-114.767378"><ele>2287.0</ele></trkpt>
      <trkpt lat="44.019041" lon="-114.768017"><ele>2285.8</ele></trkpt>
      <trkpt lat="44.018864" lon="-114.768850"><ele>2285.0</ele></trkpt>
      <trkpt lat="44.018555" lon="-114.769413"><ele>2277.0</ele></trkpt>
      <trkpt lat="44.018360" lon="-114.770410"><ele>2273.8</ele></trkpt>
      <trkpt lat="44.018390" lon="-114.771578"><ele>2279.5</ele></trkpt>
      <trkpt lat="44.018469" lon="-114.772318"><ele>2279.5</ele></trkpt>
      <trkpt lat="44.018491" lon="-114.772713"><ele>2278.0</ele></trkpt>
      <trkpt lat="44.018759" lon="-114.773257"><ele>2284.2</ele></trkpt>
      <trkpt lat="44.018826" lon="-114.774156"><ele>2285.0</ele></trkpt>
      <trkpt lat="44.018875" lon="-114.774451"><ele>2286.5</ele></trkpt>
      <trkpt lat="44.019375" lon="-114.775156"><ele>2299.2</ele></trkpt>
      <trkpt lat="44.019403" lon="-114.775481"><ele>2300.5</ele></trkpt>
      <trkpt lat="44.019380" lon="-114.775809"><ele>2300.2</ele></trkpt>
      <trkpt lat="44.019473" lon="-114.776162"><ele>2303.0</ele></trkpt>
      <trkpt lat="44.019617" lon="-114.776939"><ele>2307.0</ele></trkpt>
      <trkpt lat="44.019668" lon="-114.776977"><ele>2308.8</ele></trkpt>
      <trkpt lat="44.019843" lon="-114.776089"><ele>2314.2</ele></trkpt>
      <trkpt lat="44.020162" lon="-114.775196"><ele>2321.2</ele></trkpt>
      <trkpt lat="44.020425" lon="-114.774790"><ele>2327.5</ele></trkpt>
      <trkpt lat="44.020541" lon="-114.774468"><ele>2328.8</ele></trkpt>
      <trkpt lat="44.020725" lon="-114.774045"><ele>2330.0</ele></trkpt>
      <trkpt lat="44.021056" lon="-114.773785"><ele>2337.5</ele></trkpt>
      <trkpt lat="44.021349" lon="-114.773418"><ele>2342.5</ele></trkpt>
      <trkpt lat="44.021582" lon="-114.772904"><ele>2347.0</ele></trkpt>
      <trkpt lat="44.021685" lon="-114.772276"><ele>2348.5</ele></trkpt>
      <trkpt lat="44.021923" lon="-114.771990"><ele>2355.0</ele></trkpt>
      <trkpt lat="44.022489" lon="-114.771702"><ele>2366.2</ele></trkpt>
      <trkpt lat="44.022715" lon="-114.771545"><ele>2371.5</ele></trkpt>
      <trkpt lat="44.022880" lon="-114.771241"><ele>2375.0</ele></trkpt>
      <trkpt lat="44.022966" lon="-114.770515"><ele>2379.2</ele></trkpt>
      <trkpt lat="44.023161" lon="-114.770230"><ele>2383.0</ele></trkpt>
      <trkpt lat="44.023513" lon="-114.770366"><ele>2385.8</ele></trkpt>
      <trkpt lat="44.023219" lon="-114.770654"><ele>2380.5</ele></trkpt>
      <trkpt lat="44.023289" lon="-114.771295"><ele>2383.8</ele></trkpt>
      <trkpt lat="44.023235" lon="-114.771901"><ele>2387.5</ele></trkpt>
      <trkpt lat="44.023020" lon="-114.772850"><ele>2390.5</ele></trkpt>
      <trkpt lat="44.023101" lon="-114.773012"><ele>2392.2</ele></trkpt>
      <trkpt lat="44.023234" lon="-114.772842"><ele>2393.8</ele></trkpt>
      <trkpt lat="44.023595" lon="-114.772713"><ele>2394.8</ele></trkpt>
      <trkpt lat="44.024070" lon="-114.772662"><ele>2394.5</ele></trkpt>
      <trkpt lat="44.024526" lon="-114.772522"><ele>2394.8</ele></trkpt>
      <trkpt lat="44.025132" lon="-114.772458"><ele>2394.5</ele></trkpt>
      <trkpt lat="44.025631" lon="-114.772381"><ele>2392.2</ele></trkpt>
      <trkpt lat="44.026038" lon="-114.772193"><ele>2392.2</ele></trkpt>
      <trkpt lat="44.026551" lon="-114.771917"><ele>2392.5</ele></trkpt>
      <trkpt lat="44.027052" lon="-114.771948"><ele>2391.0</ele></trkpt>
      <trkpt lat="44.027836" lon="-114.771192"><ele>2389.5</ele></trkpt>
      <trkpt lat="44.028063" lon="-114.770912"><ele>2387.2</ele></trkpt>
      <trkpt lat="44.028375" lon="-114.770396"><ele>2387.5</ele></trkpt>
      <trkpt lat="44.028878" lon="-114.769932"><ele>2386.5</ele></trkpt>
      <trkpt lat="44.029078" lon="-114.769792"><ele>2385.5</ele></trkpt>
      <trkpt lat="44.029467" lon="-114.769324"><ele>2387.8</ele></trkpt>
      <trkpt lat="44.029967" lon="-114.768967"><ele>2388.5</ele></trkpt>
      <trkpt lat="44.030312" lon="-114.768334"><ele>2393.5</ele></trkpt>
      <trkpt lat="44.031022" lon="-114.767746"><ele>2398.0</ele></trkpt>
      <trkpt lat="44.031501" lon="-114.767563"><ele>2396.5</ele></trkpt>
      <trkpt lat="44.032095" lon="-114.767483"><ele>2395.8</ele></trkpt>
      <trkpt lat="44.032558" lon="-114.767459"><ele>2395.5</ele></trkpt>
      <trkpt lat="44.033390" lon="-114.767370"><ele>2397.5</ele></trkpt>
      <trkpt lat="44.033936" lon="-114.767284"><ele>2399.5</ele></trkpt>
      <trkpt lat="44.034288" lon="-114.767312"><ele>2399.5</ele></trkpt>
      <trkpt lat="44.034548" lon="-114.767541"><ele>2397.0</ele></trkpt>
      <trkpt lat="44.034791" lon="-114.767916"><ele>2395.5</ele></trkpt>
      <trkpt lat="44.034965" lon="-114.767831"><ele>2397.0</ele></trkpt>
      <trkpt lat="44.035079" lon="-114.767579"><ele>2396.5</ele></trkpt>
      <trkpt lat="44.035342" lon="-114.767346"><ele>2392.5</ele></trkpt>
      <trkpt lat="44.035911" lon="-114.766863"><ele>2383.2</ele></trkpt>
      <trkpt lat="44.036106" lon="-114.766492"><ele>2379.0</ele></trkpt>
      <trkpt lat="44.036142" lon="-114.766202"><ele>2384.0</ele></trkpt>
      <trkpt lat="44.036265" lon="-114.766082"><ele>2380.2</ele></trkpt>
      <trkpt lat="44.036399" lon="-114.765664"><ele>2384.8</ele></trkpt>
      <trkpt lat="44.036795" lon="-114.765492"><ele>2370.8</ele></trkpt>
      <trkpt lat="44.037140" lon="-114.765174"><ele>2363.5</ele></trkpt>
      <trkpt lat="44.037336" lon="-114.764861"><ele>2361.0</ele></trkpt>
      <trkpt lat="44.037955" lon="-114.764219"><ele>2349.0</ele></trkpt>
      <trkpt lat="44.038206" lon="-114.763929"><ele>2343.8</ele></trkpt>
      <trkpt lat="44.038441" lon="-114.763804"><ele>2337.5</ele></trkpt>
      <trkpt lat="44.038410" lon="-114.763128"><ele>2341.5</ele></trkpt>
      <trkpt lat="44.038459" lon="-114.761830"><ele>2335.0</ele></trkpt>
      <trkpt lat="44.038580" lon="-114.761363"><ele>2326.8</ele></trkpt>
      <trkpt lat="44.038704" lon="-114.760963"><ele>2319.5</ele></trkpt>
      <trkpt lat="44.038805" lon="-114.760678"><ele>2316.5</ele></trkpt>
      <trkpt lat="44.038942" lon="-114.760185"><ele>2315.5</ele></trkpt>
      <trkpt lat="44.039105" lon="-114.759319"><ele>2310.8</ele></trkpt>
      <trkpt lat="44.038702" lon="-114.758230"><ele>2318.0</ele></trkpt>
      <trkpt lat="44.038737" lon="-114.757866"><ele>2321.0</ele></trkpt>
      <trkpt lat="44.038901" lon="-114.757422"><ele>2317.0</ele></trkpt>
      <trkpt lat="44.038928" lon="-114.756991"><ele>2316.2</ele></trkpt>
      <trkpt lat="44.038807" lon="-114.756253"><ele>2323.5</ele></trkpt>
      <trkpt lat="44.038825" lon="-114.756005"><ele>2322.0</ele></trkpt>
      <trkpt lat="44.038732" lon="-114.755794"><ele>2327.5</ele></trkpt>
      <trkpt lat="44.038686" lon="-114.755279"><ele>2328.5</ele></trkpt>
      <trkpt lat="44.038799" lon="-114.754663"><ele>2321.2</ele></trkpt>
      <trkpt lat="44.038991" lon="-114.754111"><ele>2312.0</ele></trkpt>
      <trkpt lat="44.038952" lon="-114.753675"><ele>2311.8</ele></trkpt>
      <trkpt lat="44.038850" lon="-114.753316"><ele>2314.5</ele></trkpt>
      <trkpt lat="44.038839" lon="-114.752738"><ele>2313.2</ele></trkpt>
      <trkpt lat="44.039018" lon="-114.751584"><ele>2303.0</ele></trkpt>
      <trkpt lat="44.039165" lon="-114.751141"><ele>2298.5</ele></trkpt>
      <trkpt lat="44.039350" lon="-114.750892"><ele>2297.8</ele></trkpt>
      <trkpt lat="44.039493" lon="-114.750760"><ele>2296.5</ele></trkpt>
      <trkpt lat="44.039609" lon="-114.750731"><ele>2295.2</ele></trkpt>
    </trkseg>
  </trk>
</gpx>
