<?xml version="1.0" encoding="UTF-8"?>
<gpx version="1.1" creator="pathbeaters26" xmlns="http://www.topografix.com/GPX/1/1" xmlns:xsi="http://www.w3.org/2001/XMLSchema-instance" xsi:schemaLocation="http://www.topografix.com/GPX/1/1 http://www.topografix.com/GPX/1/1/gpx.xsd">
  <metadata>
    <name>Cirque of the Towers → Fremont Trail Loop</name>
    <desc>Routed on OpenStreetMap trails with BRouter (hiking-mountain). Waypoints from OpenStreetMap.</desc>
  </metadata>
  <wpt lat="42.688300" lon="-109.268600">
    <ele>2778.8</ele>
    <name>Big Sandy TH</name>
    <type>Trailhead</type>
  </wpt>
  <wpt lat="42.777320" lon="-109.215540">
    <ele>3111.0</ele>
    <name>Fri camp · Lonesome Lake</name>
    <type>Camp</type>
  </wpt>
  <wpt lat="42.787190" lon="-109.246560">
    <ele>3144.5</ele>
    <name>Sat camp · Shadow Lake</name>
    <type>Camp</type>
  </wpt>
  <wpt lat="42.757790" lon="-109.290900">
    <ele>2986.0</ele>
    <name>Sun camp · Dads Lake</name>
    <type>Camp</type>
  </wpt>
  <wpt lat="42.739390" lon="-109.205150">
    <ele>2954.0</ele>
    <name>Big Sandy Lake</name>
    <type>Waypoint</type>
  </wpt>
  <wpt lat="42.769250" lon="-109.211060">
    <ele>3292.0</ele>
    <name>Jackass Pass</name>
    <type>Waypoint</type>
  </wpt>
  <wpt lat="42.790880" lon="-109.217830">
    <ele>3500.2</ele>
    <name>Texas Pass</name>
    <type>Waypoint</type>
  </wpt>
  <wpt lat="42.774270" lon="-109.295170">
    <ele>3011.0</ele>
    <name>Marms Lake</name>
    <type>Waypoint</type>
  </wpt>
  <wpt lat="42.736520" lon="-109.282760">
    <ele>2988.0</ele>
    <name>Fish Creek Park</name>
    <type>Waypoint</type>
  </wpt>
  <trk>
    <name>Cirque of the Towers → Fremont Trail Loop</name>
    <!-- Fri: Big Sandy Lake, Jackass Pass, camp Lonesome Lake (9.5 mi, 2341 ft up) -->
    <trkseg>
      <trkpt lat="42.688441" lon="-109.269278"><ele>2778.8</ele></trkpt>
      <trkpt lat="42.688408" lon="-109.269291"><ele>2778.8</ele></trkpt>
      <trkpt lat="42.688369" lon="-109.269364"><ele>2778.8</ele></trkpt>
      <trkpt lat="42.688281" lon="-109.269707"><ele>2779.8</ele></trkpt>
      <trkpt lat="42.687792" lon="-109.270205"><ele>2776.8</ele></trkpt>
      <trkpt lat="42.687735" lon="-109.270310"><ele>2776.2</ele></trkpt>
      <trkpt lat="42.687711" lon="-109.270428"><ele>2775.8</ele></trkpt>
      <trkpt lat="42.687735" lon="-109.270721"><ele>2775.5</ele></trkpt>
      <trkpt lat="42.687784" lon="-109.270820"><ele>2776.0</ele></trkpt>
      <trkpt lat="42.687807" lon="-109.270790"><ele>2776.2</ele></trkpt>
      <trkpt lat="42.687948" lon="-109.270695"><ele>2777.8</ele></trkpt>
      <trkpt lat="42.688048" lon="-109.270641"><ele>2778.8</ele></trkpt>
      <trkpt lat="42.688119" lon="-109.270639"><ele>2779.5</ele></trkpt>
      <trkpt lat="42.688187" lon="-109.270688"><ele>2780.2</ele></trkpt>
      <trkpt lat="42.688237" lon="-109.270754"><ele>2780.8</ele></trkpt>
      <trkpt lat="42.688292" lon="-109.270887"><ele>2781.8</ele></trkpt>
      <trkpt lat="42.688371" lon="-109.270793"><ele>2782.0</ele></trkpt>
      <trkpt lat="42.688518" lon="-109.270534"><ele>2782.5</ele></trkpt>
      <trkpt lat="42.688603" lon="-109.270489"><ele>2782.8</ele></trkpt>
      <trkpt lat="42.688771" lon="-109.270531"><ele>2784.0</ele></trkpt>
      <trkpt lat="42.688937" lon="-109.270470"><ele>2784.5</ele></trkpt>
      <trkpt lat="42.689195" lon="-109.270266"><ele>2784.8</ele></trkpt>
      <trkpt lat="42.689507" lon="-109.270122"><ele>2786.0</ele></trkpt>
      <trkpt lat="42.689964" lon="-109.269880"><ele>2788.2</ele></trkpt>
      <trkpt lat="42.690212" lon="-109.269807"><ele>2789.0</ele></trkpt>
      <trkpt lat="42.690541" lon="-109.269786"><ele>2790.0</ele></trkpt>
      <trkpt lat="42.690718" lon="-109.269716"><ele>2790.0</ele></trkpt>
      <trkpt lat="42.691186" lon="-109.269622"><ele>2786.5</ele></trkpt>
      <trkpt lat="42.691905" lon="-109.269120"><ele>2779.5</ele></trkpt>
      <trkpt lat="42.692223" lon="-109.268901"><ele>2778.8</ele></trkpt>
      <trkpt lat="42.692689" lon="-109.268598"><ele>2778.8</ele></trkpt>
      <trkpt lat="42.693306" lon="-109.268313"><ele>2780.8</ele></trkpt>
      <trkpt lat="42.693638" lon="-109.268186"><ele>2782.2</ele></trkpt>
      <trkpt lat="42.693790" lon="-109.268181"><ele>2783.2</ele></trkpt>
      <trkpt lat="42.694277" lon="-109.267933"><ele>2785.5</ele></trkpt>
      <trkpt lat="42.695111" lon="-109.267194"><ele>2788.8</ele></trkpt>
      <trkpt lat="42.695240" lon="-109.267037"><ele>2788.5</ele></trkpt>
      <trkpt lat="42.695327" lon="-109.266955"><ele>2788.5</ele></trkpt>
      <trkpt lat="42.695590" lon="-109.266668"><ele>2787.2</ele></trkpt>
      <trkpt lat="42.695745" lon="-109.266498"><ele>2788.0</ele></trkpt>
      <trkpt lat="42.695921" lon="-109.266288"><ele>2788.8</ele></trkpt>
      <trkpt lat="42.695935" lon="-109.266144"><ele>2788.0</ele></trkpt>
      <trkpt lat="42.695922" lon="-109.266021"><ele>2787.0</ele></trkpt>
      <trkpt lat="42.695909" lon="-109.265780"><ele>2786.2</ele></trkpt>
      <trkpt lat="42.695648" lon="-109.265504"><ele>2787.8</ele></trkpt>
      <trkpt lat="42.695379" lon="-109.265414"><ele>2787.5</ele></trkpt>
      <trkpt lat="42.695107" lon="-109.265175"><ele>2788.2</ele></trkpt>
      <trkpt lat="42.694866" lon="-109.264876"><ele>2790.5</ele></trkpt>
      <trkpt lat="42.694865" lon="-109.264773"><ele>2792.0</ele></trkpt>
      <trkpt lat="42.694851" lon="-109.264722"><ele>2792.5</ele></trkpt>
      <trkpt lat="42.694844" lon="-109.264624"><ele>2793.8</ele></trkpt>
      <trkpt lat="42.694791" lon="-109.264459"><ele>2795.8</ele></trkpt>
      <trkpt lat="42.694793" lon="-109.264360"><ele>2797.0</ele></trkpt>
      <trkpt lat="42.694985" lon="-109.264279"><ele>2799.2</ele></trkpt>
      <trkpt lat="42.695091" lon="-109.264339"><ele>2799.0</ele></trkpt>
      <trkpt lat="42.695155" lon="-109.264220"><ele>2801.5</ele></trkpt>
      <trkpt lat="42.695066" lon="-109.263944"><ele>2803.2</ele></trkpt>
      <trkpt lat="42.694867" lon="-109.263697"><ele>2803.8</ele></trkpt>
      <trkpt lat="42.694729" lon="-109.263201"><ele>2805.2</ele></trkpt>
      <trkpt lat="42.694702" lon="-109.262904"><ele>2805.2</ele></trkpt>
      <trkpt lat="42.694792" lon="-109.262603"><ele>2806.0</ele></trkpt>
      <trkpt lat="42.695034" lon="-109.261965"><ele>2807.5</ele></trkpt>
      <trkpt lat="42.695377" lon="-109.261300"><ele>2811.0</ele></trkpt>
      <trkpt lat="42.695693" lon="-109.261037"><ele>2811.8</ele></trkpt>
      <trkpt lat="42.695868" lon="-109.260653"><ele>2810.0</ele></trkpt>
      <trkpt lat="42.696055" lon="-109.260342"><ele>2809.0</ele></trkpt>
      <trkpt lat="42.696180" lon="-109.260275"><ele>2809.2</ele></trkpt>
      <trkpt lat="42.696226" lon="-109.260223"><ele>2809.2</ele></trkpt>
      <trkpt lat="42.696465" lon="-109.260031"><ele>2809.0</ele></trkpt>
      <trkpt lat="42.696571" lon="-109.259913"><ele>2808.8</ele></trkpt>
      <trkpt lat="42.696586" lon="-109.259815"><ele>2808.2</ele></trkpt>
      <trkpt lat="42.696674" lon="-109.259698"><ele>2808.2</ele></trkpt>
      <trkpt lat="42.696784" lon="-109.259586"><ele>2809.8</ele></trkpt>
      <trkpt lat="42.696951" lon="-109.259312"><ele>2811.0</ele></trkpt>
      <trkpt lat="42.697303" lon="-109.258883"><ele>2815.0</ele></trkpt>
      <trkpt lat="42.697556" lon="-109.258679"><ele>2817.5</ele></trkpt>
      <trkpt lat="42.698060" lon="-109.257885"><ele>2821.5</ele></trkpt>
      <trkpt lat="42.698526" lon="-109.257467"><ele>2822.8</ele></trkpt>
      <trkpt lat="42.698817" lon="-109.257338"><ele>2825.2</ele></trkpt>
      <trkpt lat="42.699267" lon="-109.257016"><ele>2826.5</ele></trkpt>
      <trkpt lat="42.699420" lon="-109.256920"><ele>2826.5</ele></trkpt>
      <trkpt lat="42.699633" lon="-109.256815"><ele>2826.5</ele></trkpt>
      <trkpt lat="42.699905" lon="-109.256697"><ele>2826.0</ele></trkpt>
      <trkpt lat="42.700309" lon="-109.256563"><ele>2828.5</ele></trkpt>
      <trkpt lat="42.700494" lon="-109.256557"><ele>2830.2</ele></trkpt>
      <trkpt lat="42.700670" lon="-109.256512"><ele>2831.5</ele></trkpt>
      <trkpt lat="42.701092" lon="-109.256359"><ele>2833.5</ele></trkpt>
      <trkpt lat="42.701924" lon="-109.255986"><ele>2835.5</ele></trkpt>
      <trkpt lat="42.702659" lon="-109.255619"><ele>2839.2</ele></trkpt>
      <trkpt lat="42.703059" lon="-109.255246"><ele>2840.5</ele></trkpt>
      <trkpt lat="42.703414" lon="-109.254849"><ele>2842.0</ele></trkpt>
      <trkpt lat="42.703927" lon="-109.254194"><ele>2844.2</ele></trkpt>
      <trkpt lat="42.704313" lon="-109.253776"><ele>2845.2</ele></trkpt>
      <trkpt lat="42.704739" lon="-109.253261"><ele>2846.8</ele></trkpt>
      <trkpt lat="42.705007" lon="-109.252982"><ele>2849.0</ele></trkpt>
      <trkpt lat="42.705700" lon="-109.252124"><ele>2851.0</ele></trkpt>
      <trkpt lat="42.705945" lon="-109.251716"><ele>2850.8</ele></trkpt>
      <trkpt lat="42.706315" lon="-109.251416"><ele>2855.0</ele></trkpt>
      <trkpt lat="42.707127" lon="-109.250654"><ele>2859.2</ele></trkpt>
      <trkpt lat="42.707490" lon="-109.250278"><ele>2859.8</ele></trkpt>
      <trkpt lat="42.707585" lon="-109.249935"><ele>2856.2</ele></trkpt>
      <trkpt lat="42.707619" lon="-109.249785"><ele>2855.2</ele></trkpt>
      <trkpt lat="42.707689" lon="-109.249632"><ele>2854.8</ele></trkpt>
      <trkpt lat="42.707928" lon="-109.249244"><ele>2852.8</ele></trkpt>
      <trkpt lat="42.708120" lon="-109.249029"><ele>2853.0</ele></trkpt>
      <trkpt lat="42.708362" lon="-109.248802"><ele>2852.8</ele></trkpt>
      <trkpt lat="42.708712" lon="-109.248390"><ele>2854.8</ele></trkpt>
      <trkpt lat="42.709055" lon="-109.248169"><ele>2858.0</ele></trkpt>
      <trkpt lat="42.709230" lon="-109.247986"><ele>2858.5</ele></trkpt>
      <trkpt lat="42.709592" lon="-109.247683"><ele>2861.8</ele></trkpt>
      <trkpt lat="42.709792" lon="-109.247340"><ele>2861.8</ele></trkpt>
      <trkpt lat="42.709915" lon="-109.247206"><ele>2861.8</ele></trkpt>
      <trkpt lat="42.710047" lon="-109.247009"><ele>2860.5</ele></trkpt>
      <trkpt lat="42.710551" lon="-109.246346"><ele>2861.2</ele></trkpt>
      <trkpt lat="42.711277" lon="-109.245570"><ele>2861.2</ele></trkpt>
      <trkpt lat="42.711773" lon="-109.244915"><ele>2857.5</ele></trkpt>
      <trkpt lat="42.711869" lon="-109.244830"><ele>2857.8</ele></trkpt>
      <trkpt lat="42.712032" lon="-109.244744"><ele>2858.8</ele></trkpt>
      <trkpt lat="42.712266" lon="-109.244559"><ele>2859.2</ele></trkpt>
      <trkpt lat="42.712603" lon="-109.244183"><ele>2858.5</ele></trkpt>
      <trkpt lat="42.712714" lon="-109.244091"><ele>2858.2</ele></trkpt>
      <trkpt lat="42.712993" lon="-109.243936"><ele>2858.0</ele></trkpt>
      <trkpt lat="42.713318" lon="-109.243658"><ele>2857.2</ele></trkpt>
      <trkpt lat="42.714264" lon="-109.242947"><ele>2864.2</ele></trkpt>
      <trkpt lat="42.714482" lon="-109.242651"><ele>2864.5</ele></trkpt>
      <trkpt lat="42.714670" lon="-109.242435"><ele>2865.0</ele></trkpt>
      <trkpt lat="42.714879" lon="-109.242209"><ele>2866.0</ele></trkpt>
      <trkpt lat="42.714986" lon="-109.242055"><ele>2865.5</ele></trkpt>
      <trkpt lat="42.715066" lon="-109.241978"><ele>2865.8</ele></trkpt>
      <trkpt lat="42.715335" lon="-109.241634"><ele>2865.5</ele></trkpt>
      <trkpt lat="42.715492" lon="-109.241529"><ele>2867.0</ele></trkpt>
      <trkpt lat="42.715603" lon="-109.241394"><ele>2867.0</ele></trkpt>
      <trkpt lat="42.715755" lon="-109.241306"><ele>2867.0</ele></trkpt>
      <trkpt lat="42.715937" lon="-109.241139"><ele>2867.5</ele></trkpt>
      <trkpt lat="42.715992" lon="-109.241064"><ele>2867.5</ele></trkpt>
      <trkpt lat="42.716140" lon="-109.240818"><ele>2866.8</ele></trkpt>
      <trkpt lat="42.716231" lon="-109.240687"><ele>2867.5</ele></trkpt>
      <trkpt lat="42.716472" lon="-109.240391"><ele>2868.8</ele></trkpt>
      <trkpt lat="42.716525" lon="-109.240311"><ele>2868.8</ele></trkpt>
      <trkpt lat="42.716616" lon="-109.240117"><ele>2867.8</ele></trkpt>
      <trkpt lat="42.716748" lon="-109.239939"><ele>2868.2</ele></trkpt>
      <trkpt lat="42.716886" lon="-109.239788"><ele>2870.0</ele></trkpt>
      <trkpt lat="42.716964" lon="-109.239597"><ele>2869.5</ele></trkpt>
      <trkpt lat="42.717096" lon="-109.239329"><ele>2869.5</ele></trkpt>
      <trkpt lat="42.717176" lon="-109.239214"><ele>2869.8</ele></trkpt>
      <trkpt lat="42.717476" lon="-109.238916"><ele>2872.8</ele></trkpt>
      <trkpt lat="42.717821" lon="-109.238669"><ele>2876.8</ele></trkpt>
      <trkpt lat="42.717953" lon="-109.238618"><ele>2878.5</ele></trkpt>
      <trkpt lat="42.718025" lon="-109.238546"><ele>2878.8</ele></trkpt>
      <trkpt lat="42.718154" lon="-109.238393"><ele>2878.8</ele></trkpt>
      <trkpt lat="42.718311" lon="-109.238229"><ele>2879.5</ele></trkpt>
      <trkpt lat="42.718631" lon="-109.237872"><ele>2882.5</ele></trkpt>
      <trkpt lat="42.718867" lon="-109.237700"><ele>2885.5</ele></trkpt>
      <trkpt lat="42.719228" lon="-109.237381"><ele>2889.0</ele></trkpt>
      <trkpt lat="42.719439" lon="-109.237300"><ele>2892.0</ele></trkpt>
      <trkpt lat="42.719761" lon="-109.237076"><ele>2895.0</ele></trkpt>
      <trkpt lat="42.719972" lon="-109.236819"><ele>2894.8</ele></trkpt>
      <trkpt lat="42.720084" lon="-109.236659"><ele>2893.8</ele></trkpt>
      <trkpt lat="42.720390" lon="-109.236451"><ele>2896.2</ele></trkpt>
      <trkpt lat="42.720494" lon="-109.236261"><ele>2896.2</ele></trkpt>
      <trkpt lat="42.720672" lon="-109.235887"><ele>2895.5</ele></trkpt>
      <trkpt lat="42.720899" lon="-109.235657"><ele>2895.2</ele></trkpt>
      <trkpt lat="42.721063" lon="-109.235449"><ele>2895.5</ele></trkpt>
      <trkpt lat="42.721277" lon="-109.235196"><ele>2896.0</ele></trkpt>
      <trkpt lat="42.721509" lon="-109.234987"><ele>2897.2</ele></trkpt>
      <trkpt lat="42.721696" lon="-109.234742"><ele>2897.5</ele></trkpt>
      <trkpt lat="42.721843" lon="-109.234469"><ele>2897.5</ele></trkpt>
      <trkpt lat="42.722022" lon="-109.234279"><ele>2898.5</ele></trkpt>
      <trkpt lat="42.722296" lon="-109.234083"><ele>2901.0</ele></trkpt>
      <trkpt lat="42.722371" lon="-109.233877"><ele>2900.8</ele></trkpt>
      <trkpt lat="42.722579" lon="-109.233728"><ele>2902.5</ele></trkpt>
      <trkpt lat="42.722757" lon="-109.233541"><ele>2904.5</ele></trkpt>
      <trkpt lat="42.722811" lon="-109.233445"><ele>2905.0</ele></trkpt>
      <trkpt lat="42.722905" lon="-109.233181"><ele>2906.5</ele></trkpt>
      <trkpt lat="42.723112" lon="-109.232837"><ele>2909.5</ele></trkpt>
      <trkpt lat="42.723276" lon="-109.232612"><ele>2910.8</ele></trkpt>
      <trkpt lat="42.723334" lon="-109.232412"><ele>2910.8</ele></trkpt>
      <trkpt lat="42.723585" lon="-109.232226"><ele>2915.0</ele></trkpt>
      <trkpt lat="42.723719" lon="-109.232065"><ele>2916.0</ele></trkpt>
      <trkpt lat="42.723897" lon="-109.231737"><ele>2914.5</ele></trkpt>
      <trkpt lat="42.723987" lon="-109.231622"><ele>2914.2</ele></trkpt>
      <trkpt lat="42.724488" lon="-109.231168"><ele>2918.5</ele></trkpt>
      <trkpt lat="42.724605" lon="-109.231082"><ele>2919.5</ele></trkpt>
      <trkpt lat="42.724694" lon="-109.230986"><ele>2919.8</ele></trkpt>
      <trkpt lat="42.724826" lon="-109.230876"><ele>2920.0</ele></trkpt>
      <trkpt lat="42.724945" lon="-109.230749"><ele>2920.5</ele></trkpt>
      <trkpt lat="42.725031" lon="-109.230690"><ele>2921.8</ele></trkpt>
      <trkpt lat="42.725344" lon="-109.230392"><ele>2926.2</ele></trkpt>
      <trkpt lat="42.725483" lon="-109.230237"><ele>2927.0</ele></trkpt>
      <trkpt lat="42.725571" lon="-109.229942"><ele>2924.8</ele></trkpt>
      <trkpt lat="42.725683" lon="-109.229780"><ele>2926.0</ele></trkpt>
      <trkpt lat="42.725785" lon="-109.229599"><ele>2926.5</ele></trkpt>
      <trkpt lat="42.725925" lon="-109.229460"><ele>2928.2</ele></trkpt>
      <trkpt lat="42.725930" lon="-109.229268"><ele>2927.5</ele></trkpt>
      <trkpt lat="42.725846" lon="-109.229174"><ele>2925.2</ele></trkpt>
      <trkpt lat="42.725863" lon="-109.229071"><ele>2926.2</ele></trkpt>
      <trkpt lat="42.726007" lon="-109.228715"><ele>2931.2</ele></trkpt>
      <trkpt lat="42.726080" lon="-109.228408"><ele>2934.0</ele></trkpt>
      <trkpt lat="42.726238" lon="-109.228160"><ele>2936.2</ele></trkpt>
      <trkpt lat="42.726402" lon="-109.227717"><ele>2937.5</ele></trkpt>
      <trkpt lat="42.726436" lon="-109.227575"><ele>2937.5</ele></trkpt>
      <trkpt lat="42.726448" lon="-109.227431"><ele>2937.0</ele></trkpt>
      <trkpt lat="42.726537" lon="-109.227143"><ele>2936.2</ele></trkpt>
      <trkpt lat="42.726760" lon="-109.226792"><ele>2937.5</ele></trkpt>
      <trkpt lat="42.726800" lon="-109.226677"><ele>2937.8</ele></trkpt>
      <trkpt lat="42.726888" lon="-109.226342"><ele>2935.2</ele></trkpt>
      <trkpt lat="42.726958" lon="-109.226215"><ele>2934.8</ele></trkpt>
      <trkpt lat="42.727091" lon="-109.226014"><ele>2934.0</ele></trkpt>
      <trkpt lat="42.727228" lon="-109.225658"><ele>2932.2</ele></trkpt>
      <trkpt lat="42.727408" lon="-109.225394"><ele>2932.8</ele></trkpt>
      <trkpt lat="42.727806" lon="-109.224783"><ele>2934.2</ele></trkpt>
      <trkpt lat="42.727903" lon="-109.224614"><ele>2934.8</ele></trkpt>
      <trkpt lat="42.728308" lon="-109.224136"><ele>2937.0</ele></trkpt>
      <trkpt lat="42.728416" lon="-109.224056"><ele>2939.8</ele></trkpt>
      <trkpt lat="42.728655" lon="-109.223990"><ele>2945.0</ele></trkpt>
      <trkpt lat="42.728790" lon="-109.223804"><ele>2947.8</ele></trkpt>
      <trkpt lat="42.728901" lon="-109.223666"><ele>2949.5</ele></trkpt>
      <trkpt lat="42.728963" lon="-109.223408"><ele>2949.8</ele></trkpt>
      <trkpt lat="42.729097" lon="-109.223042"><ele>2951.5</ele></trkpt>
      <trkpt lat="42.729153" lon="-109.222932"><ele>2951.8</ele></trkpt>
      <trkpt lat="42.729408" lon="-109.222624"><ele>2956.0</ele></trkpt>
      <trkpt lat="42.729717" lon="-109.222339"><ele>2960.0</ele></trkpt>
      <trkpt lat="42.730399" lon="-109.220844"><ele>2967.2</ele></trkpt>
      <trkpt lat="42.730492" lon="-109.220681"><ele>2967.5</ele></trkpt>
      <trkpt lat="42.730523" lon="-109.220554"><ele>2967.5</ele></trkpt>
      <trkpt lat="42.730509" lon="-109.220400"><ele>2966.5</ele></trkpt>
      <trkpt lat="42.730524" lon="-109.220283"><ele>2966.0</ele></trkpt>
      <trkpt lat="42.730595" lon="-109.220091"><ele>2966.2</ele></trkpt>
      <trkpt lat="42.730851" lon="-109.219704"><ele>2967.0</ele></trkpt>
      <trkpt lat="42.730990" lon="-109.219525"><ele>2967.5</ele></trkpt>
      <trkpt lat="42.731104" lon="-109.219284"><ele>2967.0</ele></trkpt>
      <trkpt lat="42.731185" lon="-109.219158"><ele>2967.0</ele></trkpt>
      <trkpt lat="42.731274" lon="-109.219043"><ele>2967.2</ele></trkpt>
      <trkpt lat="42.731403" lon="-109.218937"><ele>2968.0</ele></trkpt>
      <trkpt lat="42.731578" lon="-109.218748"><ele>2968.2</ele></trkpt>
      <trkpt lat="42.731925" lon="-109.218316"><ele>2968.8</ele></trkpt>
      <trkpt lat="42.732199" lon="-109.217851"><ele>2971.2</ele></trkpt>
      <trkpt lat="42.732467" lon="-109.217501"><ele>2971.5</ele></trkpt>
      <trkpt lat="42.732637" lon="-109.217191"><ele>2973.5</ele></trkpt>
      <trkpt lat="42.733125" lon="-109.216513"><ele>2973.5</ele></trkpt>
      <trkpt lat="42.733200" lon="-109.216347"><ele>2972.8</ele></trkpt>
      <trkpt lat="42.733371" lon="-109.216119"><ele>2972.2</ele></trkpt>
      <trkpt lat="42.733446" lon="-109.215959"><ele>2972.8</ele></trkpt>
      <trkpt lat="42.733567" lon="-109.215585"><ele>2973.0</ele></trkpt>
      <trkpt lat="42.733605" lon="-109.215526"><ele>2973.2</ele></trkpt>
      <trkpt lat="42.733682" lon="-109.215487"><ele>2974.2</ele></trkpt>
      <trkpt lat="42.733766" lon="-109.215481"><ele>2975.2</ele></trkpt>
      <trkpt lat="42.733825" lon="-109.215444"><ele>2975.8</ele></trkpt>
      <trkpt lat="42.733861" lon="-109.215381"><ele>2975.8</ele></trkpt>
      <trkpt lat="42.733939" lon="-109.215025"><ele>2973.8</ele></trkpt>
      <trkpt lat="42.734147" lon="-109.214587"><ele>2975.2</ele></trkpt>
      <trkpt lat="42.734296" lon="-109.214406"><ele>2976.8</ele></trkpt>
      <trkpt lat="42.734401" lon="-109.214322"><ele>2977.5</ele></trkpt>
      <trkpt lat="42.734558" lon="-109.214273"><ele>2978.5</ele></trkpt>
      <trkpt lat="42.734641" lon="-109.214185"><ele>2978.8</ele></trkpt>
      <trkpt lat="42.734812" lon="-109.213687"><ele>2980.0</ele></trkpt>
      <trkpt lat="42.734870" lon="-109.213283"><ele>2980.2</ele></trkpt>
      <trkpt lat="42.734911" lon="-109.213113"><ele>2980.2</ele></trkpt>
      <trkpt lat="42.734950" lon="-109.213035"><ele>2980.5</ele></trkpt>
      <trkpt lat="42.735050" lon="-109.212885"><ele>2980.8</ele></trkpt>
      <trkpt lat="42.735190" lon="-109.212625"><ele>2981.8</ele></trkpt>
      <trkpt lat="42.735345" lon="-109.212458"><ele>2982.0</ele></trkpt>
      <trkpt lat="42.735530" lon="-109.212202"><ele>2981.0</ele></trkpt>
      <trkpt lat="42.735649" lon="-109.212127"><ele>2980.2</ele></trkpt>
      <trkpt lat="42.735689" lon="-109.211743"><ele>2977.0</ele></trkpt>
      <trkpt lat="42.735689" lon="-109.211670"><ele>2976.2</ele></trkpt>
      <trkpt lat="42.735733" lon="-109.211362"><ele>2973.8</ele></trkpt>
      <trkpt lat="42.735819" lon="-109.211150"><ele>2971.2</ele></trkpt>
      <trkpt lat="42.735849" lon="-109.211073"><ele>2970.8</ele></trkpt>
      <trkpt lat="42.735833" lon="-109.210866"><ele>2969.0</ele></trkpt>
      <trkpt lat="42.735784" lon="-109.210397"><ele>2967.2</ele></trkpt>
      <trkpt lat="42.735802" lon="-109.209973"><ele>2965.0</ele></trkpt>
      <trkpt lat="42.735879" lon="-109.209592"><ele>2963.8</ele></trkpt>
      <trkpt lat="42.735898" lon="-109.209501"><ele>2963.5</ele></trkpt>
      <trkpt lat="42.735928" lon="-109.209238"><ele>2962.8</ele></trkpt>
      <trkpt lat="42.735916" lon="-109.209080"><ele>2963.0</ele></trkpt>
      <trkpt lat="42.735924" lon="-109.208723"><ele>2964.5</ele></trkpt>
      <trkpt lat="42.736026" lon="-109.208608"><ele>2964.0</ele></trkpt>
      <trkpt lat="42.736330" lon="-109.208447"><ele>2962.0</ele></trkpt>
      <trkpt lat="42.736600" lon="-109.207843"><ele>2965.0</ele></trkpt>
      <trkpt lat="42.736791" lon="-109.207269"><ele>2969.2</ele></trkpt>
      <trkpt lat="42.737064" lon="-109.206953"><ele>2966.8</ele></trkpt>
      <trkpt lat="42.737279" lon="-109.206690"><ele>2963.5</ele></trkpt>
      <trkpt lat="42.737651" lon="-109.206400"><ele>2966.2</ele></trkpt>
      <trkpt lat="42.737870" lon="-109.206119"><ele>2969.0</ele></trkpt>
      <trkpt lat="42.738012" lon="-109.205891"><ele>2969.0</ele></trkpt>
      <trkpt lat="42.738111" lon="-109.205630"><ele>2967.0</ele></trkpt>
      <trkpt lat="42.738150" lon="-109.205244"><ele>2966.5</ele></trkpt>
      <trkpt lat="42.738136" lon="-109.205000"><ele>2967.8</ele></trkpt>
      <trkpt lat="42.738044" lon="-109.204649"><ele>2975.2</ele></trkpt>
      <trkpt lat="42.738045" lon="-109.204439"><ele>2977.5</ele></trkpt>
      <trkpt lat="42.738112" lon="-109.204305"><ele>2976.8</ele></trkpt>
      <trkpt lat="42.738276" lon="-109.204195"><ele>2973.0</ele></trkpt>
      <trkpt lat="42.738400" lon="-109.204139"><ele>2971.8</ele></trkpt>
      <trkpt lat="42.738443" lon="-109.204056"><ele>2972.2</ele></trkpt>
      <trkpt lat="42.738532" lon="-109.203637"><ele>2976.0</ele></trkpt>
      <trkpt lat="42.738579" lon="-109.203372"><ele>2978.5</ele></trkpt>
      <trkpt lat="42.738650" lon="-109.203136"><ele>2980.0</ele></trkpt>
      <trkpt lat="42.738688" lon="-109.202862"><ele>2981.5</ele></trkpt>
      <trkpt lat="42.738717" lon="-109.202358"><ele>2983.5</ele></trkpt>
      <trkpt lat="42.738765" lon="-109.202036"><ele>2983.0</ele></trkpt>
      <trkpt lat="42.738820" lon="-109.201792"><ele>2982.5</ele></trkpt>
      <trkpt lat="42.738859" lon="-109.201688"><ele>2982.0</ele></trkpt>
      <trkpt lat="42.738843" lon="-109.201508"><ele>2980.8</ele></trkpt>
      <trkpt lat="42.738786" lon="-109.201135"><ele>2977.8</ele></trkpt>
      <trkpt lat="42.738806" lon="-109.200840"><ele>2974.8</ele></trkpt>
      <trkpt lat="42.738812" lon="-109.200636"><ele>2973.0</ele></trkpt>
      <trkpt lat="42.738745" lon="-109.200507"><ele>2972.8</ele></trkpt>
      <trkpt lat="42.738700" lon="-109.200333"><ele>2971.8</ele></trkpt>
      <trkpt lat="42.738489" lon="-109.199923"><ele>2971.0</ele></trkpt>
      <trkpt lat="42.738481" lon="-109.199778"><ele>2970.5</ele></trkpt>
      <trkpt lat="42.738491" lon="-109.199703"><ele>2970.2</ele></trkpt>
      <trkpt lat="42.738525" lon="-109.199648"><ele>2970.0</ele></trkpt>
      <trkpt lat="42.738569" lon="-109.199542"><ele>2969.5</ele></trkpt>
      <trkpt lat="42.738581" lon="-109.199284"><ele>2968.8</ele></trkpt>
      <trkpt lat="42.738581" lon="-109.199035"><ele>2970.0</ele></trkpt>
      <trkpt lat="42.738657" lon="-109.198867"><ele>2971.5</ele></trkpt>
      <trkpt lat="42.739196" lon="-109.198820"><ele>2971.8</ele></trkpt>
      <trkpt lat="42.739875" lon="-109.198867"><ele>2971.2</ele></trkpt>
      <trkpt lat="42.740465" lon="-109.198941"><ele>2974.5</ele></trkpt>
      <trkpt lat="42.740686" lon="-109.199096"><ele>2973.8</ele></trkpt>
      <trkpt lat="42.740908" lon="-109.199359"><ele>2972.0</ele></trkpt>
      <trkpt lat="42.740998" lon="-109.199438"><ele>2972.0</ele></trkpt>
      <trkpt lat="42.741569" lon="-109.200189"><ele>2966.8</ele></trkpt>
      <trkpt lat="42.741630" lon="-109.200237"><ele>2967.0</ele></trkpt>
      <trkpt lat="42.741767" lon="-109.200281"><ele>2967.0</ele></trkpt>
      <trkpt lat="42.741865" lon="-109.200208"><ele>2968.0</ele></trkpt>
      <trkpt lat="42.741926" lon="-109.200118"><ele>2969.0</ele></trkpt>
      <trkpt lat="42.741972" lon="-109.200078"><ele>2969.5</ele></trkpt>
      <trkpt lat="42.741995" lon="-109.200032"><ele>2970.0</ele></trkpt>
      <trkpt lat="42.742204" lon="-109.200113"><ele>2969.5</ele></trkpt>
      <trkpt lat="42.742418" lon="-109.200019"><ele>2970.5</ele></trkpt>
      <trkpt lat="42.742521" lon="-109.200056"><ele>2970.5</ele></trkpt>
      <trkpt lat="42.742509" lon="-109.200206"><ele>2969.0</ele></trkpt>
      <trkpt lat="42.742511" lon="-109.200346"><ele>2967.5</ele></trkpt>
      <trkpt lat="42.742585" lon="-109.200457"><ele>2966.8</ele></trkpt>
      <trkpt lat="42.742703" lon="-109.200492"><ele>2967.0</ele></trkpt>
      <trkpt lat="42.743069" lon="-109.200507"><ele>2968.5</ele></trkpt>
      <trkpt lat="42.743100" lon="-109.200515"><ele>2968.8</ele></trkpt>
      <trkpt lat="42.743336" lon="-109.200567"><ele>2969.5</ele></trkpt>
      <trkpt lat="42.743376" lon="-109.200771"><ele>2969.5</ele></trkpt>
      <trkpt lat="42.743440" lon="-109.200972"><ele>2970.0</ele></trkpt>
      <trkpt lat="42.743480" lon="-109.201365"><ele>2968.0</ele></trkpt>
      <trkpt lat="42.743466" lon="-109.201530"><ele>2966.5</ele></trkpt>
      <trkpt lat="42.743465" lon="-109.201741"><ele>2965.2</ele></trkpt>
      <trkpt lat="42.743457" lon="-109.201932"><ele>2964.8</ele></trkpt>
      <trkpt lat="42.743488" lon="-109.202138"><ele>2965.0</ele></trkpt>
      <trkpt lat="42.743483" lon="-109.202259"><ele>2964.8</ele></trkpt>
      <trkpt lat="42.743316" lon="-109.202715"><ele>2962.5</ele></trkpt>
      <trkpt lat="42.743289" lon="-109.202931"><ele>2963.2</ele></trkpt>
      <trkpt lat="42.743233" lon="-109.203952"><ele>2967.5</ele></trkpt>
      <trkpt lat="42.743047" lon="-109.204727"><ele>2967.0</ele></trkpt>
      <trkpt lat="42.743026" lon="-109.205053"><ele>2967.0</ele></trkpt>
      <trkpt lat="42.743038" lon="-109.205159"><ele>2967.2</ele></trkpt>
      <trkpt lat="42.743064" lon="-109.205234"><ele>2967.5</ele></trkpt>
      <trkpt lat="42.743121" lon="-109.205306"><ele>2968.2</ele></trkpt>
      <trkpt lat="42.743230" lon="-109.205319"><ele>2970.0</ele></trkpt>
      <trkpt lat="42.743321" lon="-109.205279"><ele>2971.2</ele></trkpt>
      <trkpt lat="42.743392" lon="-109.205317"><ele>2973.5</ele></trkpt>
      <trkpt lat="42.743452" lon="-109.205434"><ele>2975.5</ele></trkpt>
      <trkpt lat="42.743460" lon="-109.205395"><ele>2975.8</ele></trkpt>
      <trkpt lat="42.743616" lon="-109.204793"><ele>2981.5</ele></trkpt>
      <trkpt lat="42.743701" lon="-109.204612"><ele>2984.2</ele></trkpt>
      <trkpt lat="42.743736" lon="-109.204502"><ele>2985.5</ele></trkpt>
      <trkpt lat="42.743891" lon="-109.204344"><ele>2991.2</ele></trkpt>
      <trkpt lat="42.743926" lon="-109.204474"><ele>2992.5</ele></trkpt>
      <trkpt lat="42.743941" lon="-109.204710"><ele>2993.0</ele></trkpt>
      <trkpt lat="42.744109" lon="-109.205042"><ele>2998.8</ele></trkpt>
      <trkpt lat="42.744170" lon="-109.204957"><ele>3001.0</ele></trkpt>
      <trkpt lat="42.744230" lon="-109.204780"><ele>3004.2</ele></trkpt>
      <trkpt lat="42.744294" lon="-109.204871"><ele>3007.2</ele></trkpt>
      <trkpt lat="42.744334" lon="-109.204984"><ele>3009.2</ele></trkpt>
      <trkpt lat="42.744381" lon="-109.204922"><ele>3011.5</ele></trkpt>
      <trkpt lat="42.744431" lon="-109.204771"><ele>3014.0</ele></trkpt>
      <trkpt lat="42.744493" lon="-109.204998"><ele>3017.2</ele></trkpt>
      <trkpt lat="42.744668" lon="-109.205224"><ele>3026.0</ele></trkpt>
      <trkpt lat="42.744838" lon="-109.205512"><ele>3034.2</ele></trkpt>
      <trkpt lat="42.744872" lon="-109.205693"><ele>3035.8</ele></trkpt>
      <trkpt lat="42.744923" lon="-109.205752"><ele>3038.2</ele></trkpt>
      <trkpt lat="42.745005" lon="-109.205766"><ele>3042.0</ele></trkpt>
      <trkpt lat="42.745074" lon="-109.205738"><ele>3044.5</ele></trkpt>
      <trkpt lat="42.745442" lon="-109.205520"><ele>3056.8</ele></trkpt>
      <trkpt lat="42.745503" lon="-109.205437"><ele>3058.5</ele></trkpt>
      <trkpt lat="42.745564" lon="-109.205276"><ele>3059.8</ele></trkpt>
      <trkpt lat="42.745628" lon="-109.205181"><ele>3061.2</ele></trkpt>
      <trkpt lat="42.745691" lon="-109.205135"><ele>3062.8</ele></trkpt>
      <trkpt lat="42.745838" lon="-109.205078"><ele>3066.5</ele></trkpt>
      <trkpt lat="42.746124" lon="-109.205059"><ele>3070.0</ele></trkpt>
      <trkpt lat="42.746219" lon="-109.205030"><ele>3070.8</ele></trkpt>
      <trkpt lat="42.746348" lon="-109.204947"><ele>3070.8</ele></trkpt>
      <trkpt lat="42.746441" lon="-109.204919"><ele>3071.2</ele></trkpt>
      <trkpt lat="42.746510" lon="-109.204932"><ele>3072.2</ele></trkpt>
      <trkpt lat="42.746745" lon="-109.205058"><ele>3076.2</ele></trkpt>
      <trkpt lat="42.747122" lon="-109.205138"><ele>3075.8</ele></trkpt>
      <trkpt lat="42.747233" lon="-109.205217"><ele>3076.8</ele></trkpt>
      <trkpt lat="42.747453" lon="-109.205430"><ele>3079.8</ele></trkpt>
      <trkpt lat="42.747574" lon="-109.205507"><ele>3080.2</ele></trkpt>
      <trkpt lat="42.747945" lon="-109.205649"><ele>3078.8</ele></trkpt>
      <trkpt lat="42.748537" lon="-109.205663"><ele>3075.8</ele></trkpt>
      <trkpt lat="42.748894" lon="-109.205706"><ele>3078.5</ele></trkpt>
      <trkpt lat="42.749034" lon="-109.205684"><ele>3078.8</ele></trkpt>
      <trkpt lat="42.749278" lon="-109.205505"><ele>3078.2</ele></trkpt>
      <trkpt lat="42.749498" lon="-109.205380"><ele>3079.0</ele></trkpt>
      <trkpt lat="42.749846" lon="-109.205184"><ele>3080.5</ele></trkpt>
      <trkpt lat="42.749911" lon="-109.205184"><ele>3081.2</ele></trkpt>
      <trkpt lat="42.749991" lon="-109.205142"><ele>3081.8</ele></trkpt>
      <trkpt lat="42.750050" lon="-109.205046"><ele>3080.5</ele></trkpt>
      <trkpt lat="42.750117" lon="-109.204831"><ele>3083.0</ele></trkpt>
      <trkpt lat="42.749945" lon="-109.204726"><ele>3084.0</ele></trkpt>
      <trkpt lat="42.749770" lon="-109.204509"><ele>3085.2</ele></trkpt>
      <trkpt lat="42.749880" lon="-109.204355"><ele>3089.5</ele></trkpt>
      <trkpt lat="42.749951" lon="-109.204332"><ele>3091.0</ele></trkpt>
      <trkpt lat="42.750051" lon="-109.204284"><ele>3092.8</ele></trkpt>
      <trkpt lat="42.750321" lon="-109.204287"><ele>3093.5</ele></trkpt>
      <trkpt lat="42.750397" lon="-109.204262"><ele>3094.0</ele></trkpt>
      <trkpt lat="42.750699" lon="-109.204082"><ele>3098.5</ele></trkpt>
      <trkpt lat="42.751011" lon="-109.203984"><ele>3101.8</ele></trkpt>
      <trkpt lat="42.751125" lon="-109.203983"><ele>3102.5</ele></trkpt>
      <trkpt lat="42.751562" lon="-109.204116"><ele>3101.5</ele></trkpt>
      <trkpt lat="42.751697" lon="-109.204114"><ele>3102.5</ele></trkpt>
      <trkpt lat="42.752221" lon="-109.204043"><ele>3110.5</ele></trkpt>
      <trkpt lat="42.752439" lon="-109.203989"><ele>3114.8</ele></trkpt>
      <trkpt lat="42.752789" lon="-109.203995"><ele>3121.0</ele></trkpt>
      <trkpt lat="42.753098" lon="-109.204140"><ele>3123.0</ele></trkpt>
      <trkpt lat="42.753163" lon="-109.204076"><ele>3126.2</ele></trkpt>
      <trkpt lat="42.753224" lon="-109.204043"><ele>3128.2</ele></trkpt>
      <trkpt lat="42.753285" lon="-109.204185"><ele>3125.5</ele></trkpt>
      <trkpt lat="42.753492" lon="-109.204266"><ele>3125.2</ele></trkpt>
      <trkpt lat="42.754402" lon="-109.204358"><ele>3130.2</ele></trkpt>
      <trkpt lat="42.754640" lon="-109.204533"><ele>3127.2</ele></trkpt>
      <trkpt lat="42.754582" lon="-109.204724"><ele>3120.8</ele></trkpt>
      <trkpt lat="42.754554" lon="-109.204896"><ele>3115.0</ele></trkpt>
      <trkpt lat="42.754582" lon="-109.205009"><ele>3111.8</ele></trkpt>
      <trkpt lat="42.754631" lon="-109.205090"><ele>3109.8</ele></trkpt>
      <trkpt lat="42.754692" lon="-109.205138"><ele>3108.8</ele></trkpt>
      <trkpt lat="42.755160" lon="-109.205243"><ele>3107.5</ele></trkpt>
      <trkpt lat="42.755389" lon="-109.205258"><ele>3108.0</ele></trkpt>
      <trkpt lat="42.755618" lon="-109.205406"><ele>3105.0</ele></trkpt>
      <trkpt lat="42.755789" lon="-109.205362"><ele>3106.8</ele></trkpt>
      <trkpt lat="42.756426" lon="-109.205619"><ele>3100.0</ele></trkpt>
      <trkpt lat="42.756523" lon="-109.205680"><ele>3098.2</ele></trkpt>
      <trkpt lat="42.756823" lon="-109.205963"><ele>3094.8</ele></trkpt>
      <trkpt lat="42.757216" lon="-109.206249"><ele>3097.2</ele></trkpt>
      <trkpt lat="42.757301" lon="-109.206356"><ele>3097.8</ele></trkpt>
      <trkpt lat="42.757433" lon="-109.206600"><ele>3098.2</ele></trkpt>
      <trkpt lat="42.757469" lon="-109.206735"><ele>3100.8</ele></trkpt>
      <trkpt lat="42.757465" lon="-109.206815"><ele>3103.2</ele></trkpt>
      <trkpt lat="42.757425" lon="-109.206904"><ele>3105.2</ele></trkpt>
      <trkpt lat="42.757326" lon="-109.207029"><ele>3107.0</ele></trkpt>
      <trkpt lat="42.757186" lon="-109.207261"><ele>3110.0</ele></trkpt>
      <trkpt lat="42.756880" lon="-109.207406"><ele>3104.8</ele></trkpt>
      <trkpt lat="42.756954" lon="-109.207644"><ele>3112.8</ele></trkpt>
      <trkpt lat="42.756871" lon="-109.207646"><ele>3110.0</ele></trkpt>
      <trkpt lat="42.756721" lon="-109.207774"><ele>3108.8</ele></trkpt>
      <trkpt lat="42.756674" lon="-109.207884"><ele>3110.2</ele></trkpt>
      <trkpt lat="42.756672" lon="-109.208003"><ele>3113.2</ele></trkpt>
      <trkpt lat="42.756607" lon="-109.208087"><ele>3115.0</ele></trkpt>
      <trkpt lat="42.756518" lon="-109.208332"><ele>3120.5</ele></trkpt>
      <trkpt lat="42.756773" lon="-109.208307"><ele>3124.5</ele></trkpt>
      <trkpt lat="42.756907" lon="-109.208329"><ele>3129.2</ele></trkpt>
      <trkpt lat="42.757015" lon="-109.208430"><ele>3134.2</ele></trkpt>
      <trkpt lat="42.757107" lon="-109.208505"><ele>3137.8</ele></trkpt>
      <trkpt lat="42.757304" lon="-109.208554"><ele>3143.5</ele></trkpt>
      <trkpt lat="42.757307" lon="-109.208674"><ele>3144.2</ele></trkpt>
      <trkpt lat="42.757256" lon="-109.208973"><ele>3145.8</ele></trkpt>
      <trkpt lat="42.757447" lon="-109.208919"><ele>3148.5</ele></trkpt>
      <trkpt lat="42.757553" lon="-109.209096"><ele>3150.2</ele></trkpt>
      <trkpt lat="42.757683" lon="-109.209151"><ele>3151.8</ele></trkpt>
      <trkpt lat="42.757913" lon="-109.209095"><ele>3154.8</ele></trkpt>
      <trkpt lat="42.758043" lon="-109.209190"><ele>3156.0</ele></trkpt>
      <trkpt lat="42.758175" lon="-109.209254"><ele>3157.5</ele></trkpt>
      <trkpt lat="42.758403" lon="-109.209306"><ele>3159.8</ele></trkpt>
      <trkpt lat="42.758483" lon="-109.209307"><ele>3161.0</ele></trkpt>
      <trkpt lat="42.758664" lon="-109.209249"><ele>3164.0</ele></trkpt>
      <trkpt lat="42.759036" lon="-109.209181"><ele>3170.5</ele></trkpt>
      <trkpt lat="42.759467" lon="-109.209189"><ele>3175.5</ele></trkpt>
      <trkpt lat="42.759567" lon="-109.209159"><ele>3176.8</ele></trkpt>
      <trkpt lat="42.759824" lon="-109.209060"><ele>3181.5</ele></trkpt>
      <trkpt lat="42.759855" lon="-109.209007"><ele>3183.0</ele></trkpt>
      <trkpt lat="42.759911" lon="-109.208825"><ele>3187.8</ele></trkpt>
      <trkpt lat="42.759907" lon="-109.208598"><ele>3192.8</ele></trkpt>
      <trkpt lat="42.759944" lon="-109.208501"><ele>3195.2</ele></trkpt>
      <trkpt lat="42.760055" lon="-109.208524"><ele>3197.2</ele></trkpt>
      <trkpt lat="42.760393" lon="-109.208468"><ele>3208.8</ele></trkpt>
      <trkpt lat="42.760589" lon="-109.208450"><ele>3215.0</ele></trkpt>
      <trkpt lat="42.760723" lon="-109.208310"><ele>3222.0</ele></trkpt>
      <trkpt lat="42.760842" lon="-109.208396"><ele>3223.8</ele></trkpt>
      <trkpt lat="42.760947" lon="-109.208487"><ele>3225.2</ele></trkpt>
      <trkpt lat="42.761013" lon="-109.208509"><ele>3227.0</ele></trkpt>
      <trkpt lat="42.761090" lon="-109.208415"><ele>3231.5</ele></trkpt>
      <trkpt lat="42.761201" lon="-109.208461"><ele>3234.2</ele></trkpt>
      <trkpt lat="42.761373" lon="-109.208731"><ele>3235.0</ele></trkpt>
      <trkpt lat="42.761467" lon="-109.208676"><ele>3239.2</ele></trkpt>
      <trkpt lat="42.761556" lon="-109.208678"><ele>3242.2</ele></trkpt>
      <trkpt lat="42.761596" lon="-109.208769"><ele>3242.0</ele></trkpt>
      <trkpt lat="42.761669" lon="-109.208777"><ele>3244.5</ele></trkpt>
      <trkpt lat="42.761687" lon="-109.208664"><ele>3246.8</ele></trkpt>
      <trkpt lat="42.761663" lon="-109.208420"><ele>3250.2</ele></trkpt>
      <trkpt lat="42.761697" lon="-109.208347"><ele>3252.8</ele></trkpt>
      <trkpt lat="42.761879" lon="-109.208452"><ele>3256.5</ele></trkpt>
      <trkpt lat="42.762341" lon="-109.208694"><ele>3263.5</ele></trkpt>
      <trkpt lat="42.762624" lon="-109.208780"><ele>3268.8</ele></trkpt>
      <trkpt lat="42.763166" lon="-109.209091"><ele>3275.8</ele></trkpt>
      <trkpt lat="42.763243" lon="-109.209114"><ele>3277.5</ele></trkpt>
      <trkpt lat="42.763457" lon="-109.209125"><ele>3281.0</ele></trkpt>
      <trkpt lat="42.763545" lon="-109.209104"><ele>3282.0</ele></trkpt>
      <trkpt lat="42.763634" lon="-109.209111"><ele>3282.5</ele></trkpt>
      <trkpt lat="42.763972" lon="-109.209062"><ele>3285.8</ele></trkpt>
      <trkpt lat="42.764096" lon="-109.209089"><ele>3285.8</ele></trkpt>
      <trkpt lat="42.764442" lon="-109.208901"><ele>3292.8</ele></trkpt>
      <trkpt lat="42.764520" lon="-109.208889"><ele>3293.5</ele></trkpt>
      <trkpt lat="42.764634" lon="-109.208945"><ele>3291.8</ele></trkpt>
      <trkpt lat="42.764778" lon="-109.209088"><ele>3285.8</ele></trkpt>
      <trkpt lat="42.764994" lon="-109.209495"><ele>3271.8</ele></trkpt>
      <trkpt lat="42.765093" lon="-109.209572"><ele>3270.2</ele></trkpt>
      <trkpt lat="42.765379" lon="-109.209698"><ele>3268.2</ele></trkpt>
      <trkpt lat="42.765551" lon="-109.209850"><ele>3263.5</ele></trkpt>
      <trkpt lat="42.765700" lon="-109.210107"><ele>3253.5</ele></trkpt>
      <trkpt lat="42.766011" lon="-109.210485"><ele>3245.0</ele></trkpt>
      <trkpt lat="42.766146" lon="-109.210600"><ele>3243.5</ele></trkpt>
      <trkpt lat="42.766194" lon="-109.210654"><ele>3242.2</ele></trkpt>
      <trkpt lat="42.766206" lon="-109.210756"><ele>3238.5</ele></trkpt>
      <trkpt lat="42.766354" lon="-109.210863"><ele>3238.0</ele></trkpt>
      <trkpt lat="42.766537" lon="-109.211348"><ele>3238.5</ele></trkpt>
      <trkpt lat="42.766984" lon="-109.211448"><ele>3254.0</ele></trkpt>
      <trkpt lat="42.767335" lon="-109.211488"><ele>3267.5</ele></trkpt>
      <trkpt lat="42.767637" lon="-109.211324"><ele>3274.0</ele></trkpt>
      <trkpt lat="42.767710" lon="-109.211277"><ele>3274.8</ele></trkpt>
      <trkpt lat="42.767893" lon="-109.211072"><ele>3276.0</ele></trkpt>
      <trkpt lat="42.768100" lon="-109.210997"><ele>3280.0</ele></trkpt>
      <trkpt lat="42.768342" lon="-109.210936"><ele>3285.0</ele></trkpt>
      <trkpt lat="42.768571" lon="-109.210951"><ele>3286.8</ele></trkpt>
      <trkpt lat="42.768732" lon="-109.210995"><ele>3288.5</ele></trkpt>
      <trkpt lat="42.769063" lon="-109.210955"><ele>3290.8</ele></trkpt>
      <trkpt lat="42.769248" lon="-109.211064"><ele>3292.0</ele></trkpt>
      <trkpt lat="42.769250" lon="-109.211064"><ele>3292.0</ele></trkpt>
      <trkpt lat="42.769415" lon="-109.211081"><ele>3291.8</ele></trkpt>
      <trkpt lat="42.769711" lon="-109.211271"><ele>3289.0</ele></trkpt>
      <trkpt lat="42.769815" lon="-109.211485"><ele>3285.0</ele></trkpt>
      <trkpt lat="42.770015" lon="-109.211777"><ele>3276.0</ele></trkpt>
      <trkpt lat="42.770088" lon="-109.211934"><ele>3270.8</ele></trkpt>
      <trkpt lat="42.770069" lon="-109.212553"><ele>3257.2</ele></trkpt>
      <trkpt lat="42.770134" lon="-109.212581"><ele>3255.0</ele></trkpt>
      <trkpt lat="42.770627" lon="-109.212572"><ele>3245.8</ele></trkpt>
      <trkpt lat="42.770799" lon="-109.212650"><ele>3240.0</ele></trkpt>
      <trkpt lat="42.770843" lon="-109.212733"><ele>3236.5</ele></trkpt>
      <trkpt lat="42.770869" lon="-109.212859"><ele>3232.0</ele></trkpt>
      <trkpt lat="42.771029" lon="-109.212837"><ele>3229.0</ele></trkpt>
      <trkpt lat="42.771168" lon="-109.212805"><ele>3227.0</ele></trkpt>
      <trkpt lat="42.771256" lon="-109.212880"><ele>3223.0</ele></trkpt>
      <trkpt lat="42.771238" lon="-109.213062"><ele>3218.5</ele></trkpt>
      <trkpt lat="42.771306" lon="-109.213332"><ele>3210.0</ele></trkpt>
      <trkpt lat="42.771364" lon="-109.213464"><ele>3206.8</ele></trkpt>
      <trkpt lat="42.771422" lon="-109.213521"><ele>3204.8</ele></trkpt>
      <trkpt lat="42.771473" lon="-109.213771"><ele>3199.8</ele></trkpt>
      <trkpt lat="42.771610" lon="-109.213943"><ele>3194.5</ele></trkpt>
      <trkpt lat="42.771681" lon="-109.214067"><ele>3191.0</ele></trkpt>
      <trkpt lat="42.771690" lon="-109.214248"><ele>3187.8</ele></trkpt>
      <trkpt lat="42.772011" lon="-109.214145"><ele>3179.8</ele></trkpt>
      <trkpt lat="42.772587" lon="-109.213995"><ele>3164.2</ele></trkpt>
      <trkpt lat="42.772798" lon="-109.213986"><ele>3159.5</ele></trkpt>
      <trkpt lat="42.772869" lon="-109.213855"><ele>3158.0</ele></trkpt>
      <trkpt lat="42.772947" lon="-109.213777"><ele>3156.2</ele></trkpt>
      <trkpt lat="42.773014" lon="-109.213763"><ele>3154.5</ele></trkpt>
      <trkpt lat="42.773103" lon="-109.213756"><ele>3152.2</ele></trkpt>
      <trkpt lat="42.773295" lon="-109.213692"><ele>3147.2</ele></trkpt>
      <trkpt lat="42.773368" lon="-109.213744"><ele>3145.2</ele></trkpt>
      <trkpt lat="42.773544" lon="-109.213736"><ele>3139.8</ele></trkpt>
      <trkpt lat="42.773649" lon="-109.213768"><ele>3136.5</ele></trkpt>
      <trkpt lat="42.773732" lon="-109.213679"><ele>3133.8</ele></trkpt>
      <trkpt lat="42.773897" lon="-109.213795"><ele>3129.0</ele></trkpt>
      <trkpt lat="42.773983" lon="-109.213682"><ele>3126.0</ele></trkpt>
      <trkpt lat="42.774082" lon="-109.213736"><ele>3123.0</ele></trkpt>
      <trkpt lat="42.774104" lon="-109.213748"><ele>3122.2</ele></trkpt>
      <trkpt lat="42.774203" lon="-109.213838"><ele>3120.0</ele></trkpt>
      <trkpt lat="42.774450" lon="-109.214041"><ele>3118.0</ele></trkpt>
      <trkpt lat="42.774605" lon="-109.214089"><ele>3116.5</ele></trkpt>
      <trkpt lat="42.775055" lon="-109.214031"><ele>3112.2</ele></trkpt>
      <trkpt lat="42.775279" lon="-109.214011"><ele>3111.5</ele></trkpt>
      <trkpt lat="42.775360" lon="-109.213933"><ele>3111.0</ele></trkpt>
      <trkpt lat="42.775514" lon="-109.213915"><ele>3110.2</ele></trkpt>
      <trkpt lat="42.775646" lon="-109.213750"><ele>3109.2</ele></trkpt>
      <trkpt lat="42.775820" lon="-109.213429"><ele>3107.2</ele></trkpt>
      <trkpt lat="42.775910" lon="-109.213309"><ele>3106.2</ele></trkpt>
      <trkpt lat="42.776485" lon="-109.212770"><ele>3102.5</ele></trkpt>
      <trkpt lat="42.776259" lon="-109.213469"><ele>3104.0</ele></trkpt>
      <trkpt lat="42.776196" lon="-109.213625"><ele>3104.8</ele></trkpt>
      <trkpt lat="42.776176" lon="-109.213971"><ele>3105.5</ele></trkpt>
      <trkpt lat="42.776085" lon="-109.214121"><ele>3106.8</ele></trkpt>
    </trkseg>
    <!-- Sat: Texas Pass, camp Shadow Lake (3.7 mi, 1398 ft up) -->
    <trkseg>
      <trkpt lat="42.776085" lon="-109.214121"><ele>3106.8</ele></trkpt>
      <trkpt lat="42.776176" lon="-109.213971"><ele>3105.5</ele></trkpt>
      <trkpt lat="42.776196" lon="-109.213625"><ele>3104.8</ele></trkpt>
      <trkpt lat="42.776259" lon="-109.213469"><ele>3104.0</ele></trkpt>
      <trkpt lat="42.776485" lon="-109.212770"><ele>3102.5</ele></trkpt>
      <trkpt lat="42.776623" lon="-109.212640"><ele>3102.0</ele></trkpt>
      <trkpt lat="42.776881" lon="-109.212398"><ele>3101.0</ele></trkpt>
      <trkpt lat="42.777100" lon="-109.212223"><ele>3100.5</ele></trkpt>
      <trkpt lat="42.777250" lon="-109.211938"><ele>3101.2</ele></trkpt>
      <trkpt lat="42.777447" lon="-109.211760"><ele>3101.5</ele></trkpt>
      <trkpt lat="42.777547" lon="-109.211659"><ele>3102.2</ele></trkpt>
      <trkpt lat="42.777635" lon="-109.211526"><ele>3103.2</ele></trkpt>
      <trkpt lat="42.777758" lon="-109.211479"><ele>3104.5</ele></trkpt>
      <trkpt lat="42.777768" lon="-109.211625"><ele>3104.8</ele></trkpt>
      <trkpt lat="42.778042" lon="-109.211777"><ele>3107.2</ele></trkpt>
      <trkpt lat="42.778276" lon="-109.212013"><ele>3109.2</ele></trkpt>
      <trkpt lat="42.778457" lon="-109.212251"><ele>3111.0</ele></trkpt>
      <trkpt lat="42.778618" lon="-109.212498"><ele>3112.2</ele></trkpt>
      <trkpt lat="42.778759" lon="-109.212847"><ele>3111.0</ele></trkpt>
      <trkpt lat="42.778921" lon="-109.213221"><ele>3111.0</ele></trkpt>
      <trkpt lat="42.779054" lon="-109.213445"><ele>3113.0</ele></trkpt>
      <trkpt lat="42.779137" lon="-109.213827"><ele>3113.5</ele></trkpt>
      <trkpt lat="42.779213" lon="-109.214137"><ele>3114.5</ele></trkpt>
      <trkpt lat="42.779334" lon="-109.214386"><ele>3117.5</ele></trkpt>
      <trkpt lat="42.779335" lon="-109.214671"><ele>3116.0</ele></trkpt>
      <trkpt lat="42.779345" lon="-109.214948"><ele>3115.0</ele></trkpt>
      <trkpt lat="42.779182" lon="-109.215693"><ele>3111.0</ele></trkpt>
      <trkpt lat="42.779193" lon="-109.215898"><ele>3112.0</ele></trkpt>
      <trkpt lat="42.779213" lon="-109.216723"><ele>3115.8</ele></trkpt>
      <trkpt lat="42.779201" lon="-109.216945"><ele>3115.5</ele></trkpt>
      <trkpt lat="42.779144" lon="-109.217095"><ele>3114.0</ele></trkpt>
      <trkpt lat="42.779014" lon="-109.217280"><ele>3111.2</ele></trkpt>
      <trkpt lat="42.778979" lon="-109.217357"><ele>3110.8</ele></trkpt>
      <trkpt lat="42.778750" lon="-109.217981"><ele>3105.2</ele></trkpt>
      <trkpt lat="42.778865" lon="-109.218067"><ele>3107.5</ele></trkpt>
      <trkpt lat="42.778968" lon="-109.218101"><ele>3109.5</ele></trkpt>
      <trkpt lat="42.779079" lon="-109.218113"><ele>3111.8</ele></trkpt>
      <trkpt lat="42.779298" lon="-109.218222"><ele>3117.8</ele></trkpt>
      <trkpt lat="42.779485" lon="-109.218177"><ele>3124.8</ele></trkpt>
      <trkpt lat="42.779516" lon="-109.218157"><ele>3125.8</ele></trkpt>
      <trkpt lat="42.779728" lon="-109.218005"><ele>3133.8</ele></trkpt>
      <trkpt lat="42.779794" lon="-109.218005"><ele>3136.2</ele></trkpt>
      <trkpt lat="42.779934" lon="-109.218034"><ele>3141.2</ele></trkpt>
      <trkpt lat="42.780050" lon="-109.217983"><ele>3146.8</ele></trkpt>
      <trkpt lat="42.780212" lon="-109.218053"><ele>3156.0</ele></trkpt>
      <trkpt lat="42.780306" lon="-109.218010"><ele>3162.0</ele></trkpt>
      <trkpt lat="42.780377" lon="-109.217919"><ele>3166.8</ele></trkpt>
      <trkpt lat="42.780495" lon="-109.217860"><ele>3174.2</ele></trkpt>
      <trkpt lat="42.780635" lon="-109.217946"><ele>3182.0</ele></trkpt>
      <trkpt lat="42.780745" lon="-109.218118"><ele>3187.0</ele></trkpt>
      <trkpt lat="42.780792" lon="-109.218292"><ele>3188.0</ele></trkpt>
      <trkpt lat="42.780865" lon="-109.218410"><ele>3191.0</ele></trkpt>
      <trkpt lat="42.780946" lon="-109.218592"><ele>3193.8</ele></trkpt>
      <trkpt lat="42.780993" lon="-109.218665"><ele>3195.8</ele></trkpt>
      <trkpt lat="42.781019" lon="-109.218785"><ele>3196.0</ele></trkpt>
      <trkpt lat="42.781188" lon="-109.218952"><ele>3203.0</ele></trkpt>
      <trkpt lat="42.781328" lon="-109.218957"><ele>3210.2</ele></trkpt>
      <trkpt lat="42.781424" lon="-109.218968"><ele>3215.2</ele></trkpt>
      <trkpt lat="42.781519" lon="-109.219027"><ele>3219.2</ele></trkpt>
      <trkpt lat="42.781600" lon="-109.219016"><ele>3223.5</ele></trkpt>
      <trkpt lat="42.781653" lon="-109.218962"><ele>3227.0</ele></trkpt>
      <trkpt lat="42.781693" lon="-109.218937"><ele>3229.2</ele></trkpt>
      <trkpt lat="42.781862" lon="-109.218946"><ele>3235.8</ele></trkpt>
      <trkpt lat="42.782029" lon="-109.219032"><ele>3240.8</ele></trkpt>
      <trkpt lat="42.782214" lon="-109.218971"><ele>3249.0</ele></trkpt>
      <trkpt lat="42.782661" lon="-109.218998"><ele>3264.0</ele></trkpt>
      <trkpt lat="42.782746" lon="-109.218864"><ele>3269.5</ele></trkpt>
      <trkpt lat="42.783196" lon="-109.218668"><ele>3286.2</ele></trkpt>
      <trkpt lat="42.783442" lon="-109.218693"><ele>3292.5</ele></trkpt>
      <trkpt lat="42.783700" lon="-109.218836"><ele>3296.5</ele></trkpt>
      <trkpt lat="42.784056" lon="-109.218834"><ele>3306.0</ele></trkpt>
      <trkpt lat="42.784247" lon="-109.219000"><ele>3307.5</ele></trkpt>
      <trkpt lat="42.784331" lon="-109.219189"><ele>3305.5</ele></trkpt>
      <trkpt lat="42.784490" lon="-109.219384"><ele>3304.8</ele></trkpt>
      <trkpt lat="42.785198" lon="-109.219404"><ele>3318.5</ele></trkpt>
      <trkpt lat="42.785383" lon="-109.219180"><ele>3327.0</ele></trkpt>
      <trkpt lat="42.785446" lon="-109.219137"><ele>3329.0</ele></trkpt>
      <trkpt lat="42.785549" lon="-109.219008"><ele>3333.2</ele></trkpt>
      <trkpt lat="42.785672" lon="-109.218935"><ele>3337.0</ele></trkpt>
      <trkpt lat="42.785962" lon="-109.218718"><ele>3346.8</ele></trkpt>
      <trkpt lat="42.786247" lon="-109.218619"><ele>3355.2</ele></trkpt>
      <trkpt lat="42.786444" lon="-109.218454"><ele>3362.0</ele></trkpt>
      <trkpt lat="42.786631" lon="-109.218431"><ele>3367.0</ele></trkpt>
      <trkpt lat="42.786775" lon="-109.218115"><ele>3376.8</ele></trkpt>
      <trkpt lat="42.786809" lon="-109.217950"><ele>3380.8</ele></trkpt>
      <trkpt lat="42.786900" lon="-109.217869"><ele>3384.8</ele></trkpt>
      <trkpt lat="42.787314" lon="-109.217807"><ele>3397.8</ele></trkpt>
      <trkpt lat="42.787751" lon="-109.217644"><ele>3412.5</ele></trkpt>
      <trkpt lat="42.787953" lon="-109.217624"><ele>3419.2</ele></trkpt>
      <trkpt lat="42.788063" lon="-109.217561"><ele>3422.8</ele></trkpt>
      <trkpt lat="42.788261" lon="-109.217249"><ele>3431.8</ele></trkpt>
      <trkpt lat="42.788450" lon="-109.217244"><ele>3437.8</ele></trkpt>
      <trkpt lat="42.788632" lon="-109.217188"><ele>3444.0</ele></trkpt>
      <trkpt lat="42.788871" lon="-109.217039"><ele>3453.0</ele></trkpt>
      <trkpt lat="42.789117" lon="-109.216987"><ele>3461.2</ele></trkpt>
      <trkpt lat="42.789315" lon="-109.217032"><ele>3466.5</ele></trkpt>
      <trkpt lat="42.789468" lon="-109.217046"><ele>3470.8</ele></trkpt>
      <trkpt lat="42.789921" lon="-109.217467"><ele>3479.0</ele></trkpt>
      <trkpt lat="42.790105" lon="-109.217539"><ele>3483.8</ele></trkpt>
      <trkpt lat="42.790605" lon="-109.217766"><ele>3496.5</ele></trkpt>
      <trkpt lat="42.790879" lon="-109.217830"><ele>3500.2</ele></trkpt>
      <trkpt lat="42.790961" lon="-109.217849"><ele>3500.2</ele></trkpt>
      <trkpt lat="42.791186" lon="-109.217814"><ele>3498.5</ele></trkpt>
      <trkpt lat="42.791705" lon="-109.218146"><ele>3484.0</ele></trkpt>
      <trkpt lat="42.791968" lon="-109.218490"><ele>3462.0</ele></trkpt>
      <trkpt lat="42.792148" lon="-109.218590"><ele>3449.8</ele></trkpt>
      <trkpt lat="42.792311" lon="-109.218770"><ele>3436.8</ele></trkpt>
      <trkpt lat="42.792813" lon="-109.219233"><ele>3396.0</ele></trkpt>
      <trkpt lat="42.792979" lon="-109.219263"><ele>3384.5</ele></trkpt>
      <trkpt lat="42.793083" lon="-109.219400"><ele>3379.8</ele></trkpt>
      <trkpt lat="42.793434" lon="-109.219369"><ele>3354.0</ele></trkpt>
      <trkpt lat="42.793665" lon="-109.219231"><ele>3339.5</ele></trkpt>
      <trkpt lat="42.794045" lon="-109.219327"><ele>3318.2</ele></trkpt>
      <trkpt lat="42.794282" lon="-109.219365"><ele>3307.5</ele></trkpt>
      <trkpt lat="42.794501" lon="-109.219341"><ele>3300.8</ele></trkpt>
      <trkpt lat="42.794721" lon="-109.219504"><ele>3293.5</ele></trkpt>
      <trkpt lat="42.794827" lon="-109.219649"><ele>3290.0</ele></trkpt>
      <trkpt lat="42.794816" lon="-109.219931"><ele>3289.5</ele></trkpt>
      <trkpt lat="42.794747" lon="-109.220114"><ele>3291.2</ele></trkpt>
      <trkpt lat="42.794781" lon="-109.220264"><ele>3290.2</ele></trkpt>
      <trkpt lat="42.794937" lon="-109.220678"><ele>3284.0</ele></trkpt>
      <trkpt lat="42.794912" lon="-109.220881"><ele>3285.2</ele></trkpt>
      <trkpt lat="42.794904" lon="-109.221070"><ele>3287.5</ele></trkpt>
      <trkpt lat="42.795095" lon="-109.221623"><ele>3285.8</ele></trkpt>
      <trkpt lat="42.795004" lon="-109.221763"><ele>3288.0</ele></trkpt>
      <trkpt lat="42.795199" lon="-109.222006"><ele>3288.2</ele></trkpt>
      <trkpt lat="42.795500" lon="-109.222355"><ele>3287.2</ele></trkpt>
      <trkpt lat="42.795586" lon="-109.222642"><ele>3288.0</ele></trkpt>
      <trkpt lat="42.795900" lon="-109.222917"><ele>3285.0</ele></trkpt>
      <trkpt lat="42.796050" lon="-109.223071"><ele>3285.2</ele></trkpt>
      <trkpt lat="42.796241" lon="-109.223214"><ele>3284.5</ele></trkpt>
      <trkpt lat="42.796360" lon="-109.223237"><ele>3283.8</ele></trkpt>
      <trkpt lat="42.796540" lon="-109.223377"><ele>3283.0</ele></trkpt>
      <trkpt lat="42.796631" lon="-109.223606"><ele>3282.8</ele></trkpt>
      <trkpt lat="42.796629" lon="-109.223815"><ele>3283.2</ele></trkpt>
      <trkpt lat="42.796876" lon="-109.224664"><ele>3286.5</ele></trkpt>
      <trkpt lat="42.796874" lon="-109.224887"><ele>3288.0</ele></trkpt>
      <trkpt lat="42.796859" lon="-109.225139"><ele>3289.0</ele></trkpt>
      <trkpt lat="42.797008" lon="-109.225567"><ele>3287.0</ele></trkpt>
      <trkpt lat="42.797045" lon="-109.225854"><ele>3285.8</ele></trkpt>
      <trkpt lat="42.797206" lon="-109.227272"><ele>3284.8</ele></trkpt>
      <trkpt lat="42.797187" lon="-109.227735"><ele>3284.8</ele></trkpt>
      <trkpt lat="42.797190" lon="-109.228285"><ele>3283.0</ele></trkpt>
      <trkpt lat="42.797182" lon="-109.228406"><ele>3282.8</ele></trkpt>
      <trkpt lat="42.797015" lon="-109.229460"><ele>3279.2</ele></trkpt>
      <trkpt lat="42.796890" lon="-109.229715"><ele>3278.5</ele></trkpt>
      <trkpt lat="42.796844" lon="-109.229834"><ele>3277.8</ele></trkpt>
      <trkpt lat="42.796565" lon="-109.230296"><ele>3275.2</ele></trkpt>
      <trkpt lat="42.796426" lon="-109.230468"><ele>3274.2</ele></trkpt>
      <trkpt lat="42.796238" lon="-109.230611"><ele>3273.2</ele></trkpt>
      <trkpt lat="42.796262" lon="-109.230885"><ele>3270.2</ele></trkpt>
      <trkpt lat="42.796236" lon="-109.231092"><ele>3270.0</ele></trkpt>
      <trkpt lat="42.796185" lon="-109.231378"><ele>3269.8</ele></trkpt>
      <trkpt lat="42.796010" lon="-109.231486"><ele>3270.0</ele></trkpt>
      <trkpt lat="42.795951" lon="-109.231621"><ele>3269.8</ele></trkpt>
      <trkpt lat="42.795643" lon="-109.231693"><ele>3267.5</ele></trkpt>
      <trkpt lat="42.795438" lon="-109.231862"><ele>3265.5</ele></trkpt>
      <trkpt lat="42.794937" lon="-109.232003"><ele>3260.2</ele></trkpt>
      <trkpt lat="42.794719" lon="-109.232218"><ele>3257.5</ele></trkpt>
      <trkpt lat="42.794520" lon="-109.232620"><ele>3255.2</ele></trkpt>
      <trkpt lat="42.794404" lon="-109.232726"><ele>3253.2</ele></trkpt>
      <trkpt lat="42.794201" lon="-109.233039"><ele>3251.0</ele></trkpt>
      <trkpt lat="42.793998" lon="-109.233257"><ele>3249.8</ele></trkpt>
      <trkpt lat="42.793771" lon="-109.233325"><ele>3248.0</ele></trkpt>
      <trkpt lat="42.793338" lon="-109.233505"><ele>3245.8</ele></trkpt>
      <trkpt lat="42.793007" lon="-109.233606"><ele>3244.8</ele></trkpt>
      <trkpt lat="42.792810" lon="-109.233838"><ele>3245.2</ele></trkpt>
      <trkpt lat="42.792688" lon="-109.234021"><ele>3245.8</ele></trkpt>
      <trkpt lat="42.792606" lon="-109.234145"><ele>3245.8</ele></trkpt>
      <trkpt lat="42.792035" lon="-109.234790"><ele>3246.8</ele></trkpt>
      <trkpt lat="42.791932" lon="-109.234857"><ele>3245.8</ele></trkpt>
      <trkpt lat="42.791873" lon="-109.234991"><ele>3245.8</ele></trkpt>
      <trkpt lat="42.791776" lon="-109.235077"><ele>3244.5</ele></trkpt>
      <trkpt lat="42.791723" lon="-109.235307"><ele>3243.8</ele></trkpt>
      <trkpt lat="42.791734" lon="-109.235440"><ele>3244.0</ele></trkpt>
      <trkpt lat="42.791713" lon="-109.235756"><ele>3243.5</ele></trkpt>
      <trkpt lat="42.791633" lon="-109.236040"><ele>3242.5</ele></trkpt>
      <trkpt lat="42.791551" lon="-109.236229"><ele>3241.8</ele></trkpt>
      <trkpt lat="42.791354" lon="-109.236592"><ele>3240.8</ele></trkpt>
      <trkpt lat="42.790968" lon="-109.237066"><ele>3240.0</ele></trkpt>
      <trkpt lat="42.790839" lon="-109.237374"><ele>3239.8</ele></trkpt>
      <trkpt lat="42.790534" lon="-109.238021"><ele>3240.5</ele></trkpt>
      <trkpt lat="42.790438" lon="-109.238283"><ele>3240.5</ele></trkpt>
      <trkpt lat="42.790323" lon="-109.238941"><ele>3239.2</ele></trkpt>
      <trkpt lat="42.790168" lon="-109.240197"><ele>3230.2</ele></trkpt>
      <trkpt lat="42.790116" lon="-109.240444"><ele>3227.5</ele></trkpt>
      <trkpt lat="42.790086" lon="-109.240696"><ele>3225.0</ele></trkpt>
      <trkpt lat="42.790081" lon="-109.240952"><ele>3222.2</ele></trkpt>
      <trkpt lat="42.790092" lon="-109.241122"><ele>3220.5</ele></trkpt>
      <trkpt lat="42.790140" lon="-109.241344"><ele>3218.2</ele></trkpt>
      <trkpt lat="42.790336" lon="-109.242038"><ele>3211.2</ele></trkpt>
      <trkpt lat="42.790352" lon="-109.242217"><ele>3209.2</ele></trkpt>
      <trkpt lat="42.790341" lon="-109.242497"><ele>3205.8</ele></trkpt>
      <trkpt lat="42.790359" lon="-109.242615"><ele>3204.2</ele></trkpt>
      <trkpt lat="42.790461" lon="-109.242914"><ele>3200.5</ele></trkpt>
      <trkpt lat="42.790808" lon="-109.243770"><ele>3191.0</ele></trkpt>
      <trkpt lat="42.790916" lon="-109.244146"><ele>3187.8</ele></trkpt>
      <trkpt lat="42.790810" lon="-109.244341"><ele>3185.0</ele></trkpt>
      <trkpt lat="42.790870" lon="-109.244526"><ele>3183.2</ele></trkpt>
      <trkpt lat="42.791065" lon="-109.244661"><ele>3183.2</ele></trkpt>
      <trkpt lat="42.791229" lon="-109.244994"><ele>3180.8</ele></trkpt>
      <trkpt lat="42.791302" lon="-109.245324"><ele>3178.5</ele></trkpt>
      <trkpt lat="42.791170" lon="-109.245607"><ele>3175.2</ele></trkpt>
      <trkpt lat="42.791147" lon="-109.245720"><ele>3174.2</ele></trkpt>
      <trkpt lat="42.791147" lon="-109.245825"><ele>3173.5</ele></trkpt>
      <trkpt lat="42.791072" lon="-109.245903"><ele>3172.5</ele></trkpt>
      <trkpt lat="42.790660" lon="-109.246037"><ele>3169.0</ele></trkpt>
      <trkpt lat="42.790521" lon="-109.246281"><ele>3165.8</ele></trkpt>
      <trkpt lat="42.790438" lon="-109.246364"><ele>3164.5</ele></trkpt>
      <trkpt lat="42.790336" lon="-109.246372"><ele>3163.5</ele></trkpt>
      <trkpt lat="42.790131" lon="-109.246417"><ele>3161.5</ele></trkpt>
      <trkpt lat="42.790048" lon="-109.246401"><ele>3161.0</ele></trkpt>
      <trkpt lat="42.789972" lon="-109.246367"><ele>3160.8</ele></trkpt>
      <trkpt lat="42.789871" lon="-109.246399"><ele>3159.8</ele></trkpt>
      <trkpt lat="42.789763" lon="-109.246447"><ele>3158.2</ele></trkpt>
      <trkpt lat="42.789682" lon="-109.246450"><ele>3157.5</ele></trkpt>
      <trkpt lat="42.789602" lon="-109.246501"><ele>3156.2</ele></trkpt>
      <trkpt lat="42.789462" lon="-109.246616"><ele>3154.0</ele></trkpt>
      <trkpt lat="42.789373" lon="-109.246742"><ele>3151.8</ele></trkpt>
      <trkpt lat="42.789318" lon="-109.246882"><ele>3149.8</ele></trkpt>
      <trkpt lat="42.789291" lon="-109.246859"><ele>3149.8</ele></trkpt>
      <trkpt lat="42.789133" lon="-109.246857"><ele>3148.5</ele></trkpt>
      <trkpt lat="42.789085" lon="-109.246856"><ele>3147.8</ele></trkpt>
      <trkpt lat="42.788846" lon="-109.246628"><ele>3147.0</ele></trkpt>
      <trkpt lat="42.788484" lon="-109.246357"><ele>3144.2</ele></trkpt>
      <trkpt lat="42.788423" lon="-109.246199"><ele>3144.5</ele></trkpt>
    </trkseg>
    <!-- Sun: Fremont Trail to Dads Lake (5.7 mi, 379 ft up) -->
    <trkseg>
      <trkpt lat="42.788423" lon="-109.246199"><ele>3144.5</ele></trkpt>
      <trkpt lat="42.788484" lon="-109.246357"><ele>3144.2</ele></trkpt>
      <trkpt lat="42.788846" lon="-109.246628"><ele>3147.0</ele></trkpt>
      <trkpt lat="42.789085" lon="-109.246856"><ele>3147.8</ele></trkpt>
      <trkpt lat="42.789133" lon="-109.246857"><ele>3148.5</ele></trkpt>
      <trkpt lat="42.789159" lon="-109.247088"><ele>3146.2</ele></trkpt>
      <trkpt lat="42.789342" lon="-109.247399"><ele>3144.5</ele></trkpt>
      <trkpt lat="42.789436" lon="-109.247603"><ele>3143.5</ele></trkpt>
      <trkpt lat="42.789458" lon="-109.247826"><ele>3142.0</ele></trkpt>
      <trkpt lat="42.789537" lon="-109.248190"><ele>3140.0</ele></trkpt>
      <trkpt lat="42.789609" lon="-109.248367"><ele>3139.2</ele></trkpt>
      <trkpt lat="42.789716" lon="-109.248494"><ele>3139.5</ele></trkpt>
      <trkpt lat="42.789853" lon="-109.248826"><ele>3138.8</ele></trkpt>
      <trkpt lat="42.789981" lon="-109.249156"><ele>3137.8</ele></trkpt>
      <trkpt lat="42.790009" lon="-109.249312"><ele>3137.8</ele></trkpt>
      <trkpt lat="42.790077" lon="-109.249439"><ele>3138.0</ele></trkpt>
      <trkpt lat="42.790034" lon="-109.249965"><ele>3137.0</ele></trkpt>
      <trkpt lat="42.790104" lon="-109.250144"><ele>3136.8</ele></trkpt>
      <trkpt lat="42.790283" lon="-109.250136"><ele>3137.0</ele></trkpt>
      <trkpt lat="42.790365" lon="-109.250223"><ele>3137.0</ele></trkpt>
      <trkpt lat="42.790612" lon="-109.250595"><ele>3137.0</ele></trkpt>
      <trkpt lat="42.790807" lon="-109.250828"><ele>3136.8</ele></trkpt>
      <trkpt lat="42.791112" lon="-109.251075"><ele>3138.0</ele></trkpt>
      <trkpt lat="42.791361" lon="-109.251291"><ele>3139.0</ele></trkpt>
      <trkpt lat="42.791618" lon="-109.251609"><ele>3140.5</ele></trkpt>
      <trkpt lat="42.791819" lon="-109.251813"><ele>3141.0</ele></trkpt>
      <trkpt lat="42.792096" lon="-109.251860"><ele>3141.8</ele></trkpt>
      <trkpt lat="42.792372" lon="-109.251823"><ele>3143.0</ele></trkpt>
      <trkpt lat="42.792526" lon="-109.252014"><ele>3142.8</ele></trkpt>
      <trkpt lat="42.792740" lon="-109.252107"><ele>3144.2</ele></trkpt>
      <trkpt lat="42.793060" lon="-109.252363"><ele>3145.0</ele></trkpt>
      <trkpt lat="42.793223" lon="-109.252471"><ele>3145.5</ele></trkpt>
      <trkpt lat="42.793491" lon="-109.252519"><ele>3148.5</ele></trkpt>
      <trkpt lat="42.793548" lon="-109.252574"><ele>3149.0</ele></trkpt>
      <trkpt lat="42.793629" lon="-109.252734"><ele>3149.2</ele></trkpt>
      <trkpt lat="42.793692" lon="-109.252988"><ele>3148.0</ele></trkpt>
      <trkpt lat="42.793725" lon="-109.253718"><ele>3143.2</ele></trkpt>
      <trkpt lat="42.794010" lon="-109.254562"><ele>3141.2</ele></trkpt>
      <trkpt lat="42.794117" lon="-109.255273"><ele>3136.5</ele></trkpt>
      <trkpt lat="42.794239" lon="-109.255850"><ele>3134.0</ele></trkpt>
      <trkpt lat="42.794597" lon="-109.256967"><ele>3133.2</ele></trkpt>
      <trkpt lat="42.794626" lon="-109.257158"><ele>3132.8</ele></trkpt>
      <trkpt lat="42.794676" lon="-109.258085"><ele>3127.8</ele></trkpt>
      <trkpt lat="42.794866" lon="-109.259476"><ele>3118.8</ele></trkpt>
      <trkpt lat="42.794948" lon="-109.259871"><ele>3117.8</ele></trkpt>
      <trkpt lat="42.794921" lon="-109.260429"><ele>3115.8</ele></trkpt>
      <trkpt lat="42.794862" lon="-109.261178"><ele>3112.5</ele></trkpt>
      <trkpt lat="42.794900" lon="-109.261416"><ele>3111.5</ele></trkpt>
      <trkpt lat="42.795378" lon="-109.262698"><ele>3118.0</ele></trkpt>
      <trkpt lat="42.795400" lon="-109.263238"><ele>3114.8</ele></trkpt>
      <trkpt lat="42.795486" lon="-109.263701"><ele>3113.0</ele></trkpt>
      <trkpt lat="42.795653" lon="-109.264400"><ele>3110.5</ele></trkpt>
      <trkpt lat="42.795709" lon="-109.264818"><ele>3108.8</ele></trkpt>
      <trkpt lat="42.795754" lon="-109.265665"><ele>3105.8</ele></trkpt>
      <trkpt lat="42.795790" lon="-109.266096"><ele>3104.0</ele></trkpt>
      <trkpt lat="42.795710" lon="-109.266468"><ele>3101.5</ele></trkpt>
      <trkpt lat="42.795688" lon="-109.266676"><ele>3100.5</ele></trkpt>
      <trkpt lat="42.795806" lon="-109.267268"><ele>3099.5</ele></trkpt>
      <trkpt lat="42.795815" lon="-109.267891"><ele>3099.2</ele></trkpt>
      <trkpt lat="42.795668" lon="-109.268964"><ele>3099.8</ele></trkpt>
      <trkpt lat="42.795532" lon="-109.269640"><ele>3099.5</ele></trkpt>
      <trkpt lat="42.795487" lon="-109.269742"><ele>3099.8</ele></trkpt>
      <trkpt lat="42.795345" lon="-109.270070"><ele>3101.5</ele></trkpt>
      <trkpt lat="42.795456" lon="-109.271412"><ele>3101.5</ele></trkpt>
      <trkpt lat="42.795490" lon="-109.271955"><ele>3101.8</ele></trkpt>
      <trkpt lat="42.795391" lon="-109.272361"><ele>3104.5</ele></trkpt>
      <trkpt lat="42.795566" lon="-109.272772"><ele>3101.8</ele></trkpt>
      <trkpt lat="42.796054" lon="-109.274413"><ele>3096.2</ele></trkpt>
      <trkpt lat="42.796269" lon="-109.275346"><ele>3096.2</ele></trkpt>
      <trkpt lat="42.796577" lon="-109.276438"><ele>3091.8</ele></trkpt>
      <trkpt lat="42.796912" lon="-109.278117"><ele>3091.0</ele></trkpt>
      <trkpt lat="42.796952" lon="-109.278613"><ele>3091.0</ele></trkpt>
      <trkpt lat="42.796906" lon="-109.279184"><ele>3091.2</ele></trkpt>
      <trkpt lat="42.796897" lon="-109.280431"><ele>3087.8</ele></trkpt>
      <trkpt lat="42.796776" lon="-109.282009"><ele>3086.5</ele></trkpt>
      <trkpt lat="42.796703" lon="-109.282736"><ele>3084.0</ele></trkpt>
      <trkpt lat="42.796656" lon="-109.284129"><ele>3077.5</ele></trkpt>
      <trkpt lat="42.796357" lon="-109.284851"><ele>3082.0</ele></trkpt>
      <trkpt lat="42.796252" lon="-109.285509"><ele>3083.0</ele></trkpt>
      <trkpt lat="42.796267" lon="-109.286197"><ele>3081.5</ele></trkpt>
      <trkpt lat="42.796172" lon="-109.286505"><ele>3081.8</ele></trkpt>
      <trkpt lat="42.796089" lon="-109.286775"><ele>3082.5</ele></trkpt>
      <trkpt lat="42.796015" lon="-109.287164"><ele>3084.5</ele></trkpt>
      <trkpt lat="42.796026" lon="-109.287626"><ele>3086.2</ele></trkpt>
      <trkpt lat="42.795929" lon="-109.288157"><ele>3089.5</ele></trkpt>
      <trkpt lat="42.795852" lon="-109.288463"><ele>3090.8</ele></trkpt>
      <trkpt lat="42.795799" lon="-109.289106"><ele>3090.0</ele></trkpt>
      <trkpt lat="42.795797" lon="-109.289546"><ele>3089.8</ele></trkpt>
      <trkpt lat="42.795764" lon="-109.289846"><ele>3089.5</ele></trkpt>
      <trkpt lat="42.795656" lon="-109.290191"><ele>3090.0</ele></trkpt>
      <trkpt lat="42.795481" lon="-109.290369"><ele>3090.8</ele></trkpt>
      <trkpt lat="42.794636" lon="-109.291562"><ele>3089.2</ele></trkpt>
      <trkpt lat="42.793927" lon="-109.292455"><ele>3090.8</ele></trkpt>
      <trkpt lat="42.793632" lon="-109.292946"><ele>3090.2</ele></trkpt>
      <trkpt lat="42.793527" lon="-109.293077"><ele>3090.2</ele></trkpt>
      <trkpt lat="42.792867" lon="-109.293725"><ele>3089.2</ele></trkpt>
      <trkpt lat="42.792033" lon="-109.294411"><ele>3083.8</ele></trkpt>
      <trkpt lat="42.791571" lon="-109.294680"><ele>3080.2</ele></trkpt>
      <trkpt lat="42.791083" lon="-109.295112"><ele>3075.8</ele></trkpt>
      <trkpt lat="42.790472" lon="-109.295425"><ele>3072.2</ele></trkpt>
      <trkpt lat="42.790017" lon="-109.295538"><ele>3070.0</ele></trkpt>
      <trkpt lat="42.789635" lon="-109.295772"><ele>3069.2</ele></trkpt>
      <trkpt lat="42.789216" lon="-109.295944"><ele>3067.8</ele></trkpt>
      <trkpt lat="42.788864" lon="-109.296211"><ele>3066.5</ele></trkpt>
      <trkpt lat="42.788619" lon="-109.296190"><ele>3068.2</ele></trkpt>
      <trkpt lat="42.787603" lon="-109.296379"><ele>3074.8</ele></trkpt>
      <trkpt lat="42.787273" lon="-109.296361"><ele>3078.0</ele></trkpt>
      <trkpt lat="42.786936" lon="-109.296403"><ele>3081.2</ele></trkpt>
      <trkpt lat="42.786500" lon="-109.296389"><ele>3085.5</ele></trkpt>
      <trkpt lat="42.785811" lon="-109.296263"><ele>3089.5</ele></trkpt>
      <trkpt lat="42.785479" lon="-109.296111"><ele>3089.2</ele></trkpt>
      <trkpt lat="42.785127" lon="-109.295913"><ele>3088.2</ele></trkpt>
      <trkpt lat="42.784724" lon="-109.295973"><ele>3087.5</ele></trkpt>
      <trkpt lat="42.784285" lon="-109.295950"><ele>3083.8</ele></trkpt>
      <trkpt lat="42.783801" lon="-109.295839"><ele>3078.2</ele></trkpt>
      <trkpt lat="42.783206" lon="-109.295759"><ele>3074.5</ele></trkpt>
      <trkpt lat="42.782305" lon="-109.295557"><ele>3069.2</ele></trkpt>
      <trkpt lat="42.781515" lon="-109.295419"><ele>3063.0</ele></trkpt>
      <trkpt lat="42.781217" lon="-109.295296"><ele>3060.0</ele></trkpt>
      <trkpt lat="42.780994" lon="-109.295149"><ele>3056.2</ele></trkpt>
      <trkpt lat="42.780462" lon="-109.294993"><ele>3048.8</ele></trkpt>
      <trkpt lat="42.780021" lon="-109.294982"><ele>3045.2</ele></trkpt>
      <trkpt lat="42.779288" lon="-109.294837"><ele>3042.0</ele></trkpt>
      <trkpt lat="42.778799" lon="-109.294731"><ele>3035.5</ele></trkpt>
      <trkpt lat="42.778554" lon="-109.294810"><ele>3031.5</ele></trkpt>
      <trkpt lat="42.778336" lon="-109.295083"><ele>3027.8</ele></trkpt>
      <trkpt lat="42.777941" lon="-109.295630"><ele>3025.2</ele></trkpt>
      <trkpt lat="42.777850" lon="-109.295794"><ele>3024.2</ele></trkpt>
      <trkpt lat="42.777778" lon="-109.296017"><ele>3024.2</ele></trkpt>
      <trkpt lat="42.777740" lon="-109.296202"><ele>3025.0</ele></trkpt>
      <trkpt lat="42.777734" lon="-109.296348"><ele>3026.2</ele></trkpt>
      <trkpt lat="42.777748" lon="-109.296541"><ele>3028.0</ele></trkpt>
      <trkpt lat="42.777771" lon="-109.296645"><ele>3029.0</ele></trkpt>
      <trkpt lat="42.778068" lon="-109.297293"><ele>3031.0</ele></trkpt>
      <trkpt lat="42.778080" lon="-109.297384"><ele>3031.0</ele></trkpt>
      <trkpt lat="42.778044" lon="-109.297477"><ele>3031.0</ele></trkpt>
      <trkpt lat="42.777980" lon="-109.297515"><ele>3031.0</ele></trkpt>
      <trkpt lat="42.777792" lon="-109.297554"><ele>3031.0</ele></trkpt>
      <trkpt lat="42.777189" lon="-109.297789"><ele>3030.2</ele></trkpt>
      <trkpt lat="42.777075" lon="-109.297855"><ele>3030.2</ele></trkpt>
      <trkpt lat="42.776915" lon="-109.297990"><ele>3030.5</ele></trkpt>
      <trkpt lat="42.776679" lon="-109.298247"><ele>3031.5</ele></trkpt>
      <trkpt lat="42.776427" lon="-109.298258"><ele>3034.2</ele></trkpt>
      <trkpt lat="42.775325" lon="-109.297335"><ele>3032.2</ele></trkpt>
      <trkpt lat="42.775230" lon="-109.297324"><ele>3034.0</ele></trkpt>
      <trkpt lat="42.774348" lon="-109.296573"><ele>3029.5</ele></trkpt>
      <trkpt lat="42.773978" lon="-109.296509"><ele>3035.8</ele></trkpt>
      <trkpt lat="42.773695" lon="-109.296133"><ele>3030.2</ele></trkpt>
      <trkpt lat="42.773317" lon="-109.295865"><ele>3025.5</ele></trkpt>
      <trkpt lat="42.772899" lon="-109.295844"><ele>3033.8</ele></trkpt>
      <trkpt lat="42.772167" lon="-109.295254"><ele>3031.5</ele></trkpt>
      <trkpt lat="42.771970" lon="-109.295318"><ele>3037.8</ele></trkpt>
      <trkpt lat="42.771702" lon="-109.295103"><ele>3037.0</ele></trkpt>
      <trkpt lat="42.771497" lon="-109.294717"><ele>3033.0</ele></trkpt>
      <trkpt lat="42.771143" lon="-109.294159"><ele>3028.8</ele></trkpt>
      <trkpt lat="42.770915" lon="-109.293237"><ele>3025.2</ele></trkpt>
      <trkpt lat="42.770584" lon="-109.292904"><ele>3024.0</ele></trkpt>
      <trkpt lat="42.769938" lon="-109.292453"><ele>3016.5</ele></trkpt>
      <trkpt lat="42.769009" lon="-109.292089"><ele>3015.5</ele></trkpt>
      <trkpt lat="42.767875" lon="-109.291906"><ele>3004.2</ele></trkpt>
      <trkpt lat="42.767134" lon="-109.291810"><ele>2996.8</ele></trkpt>
      <trkpt lat="42.766906" lon="-109.291670"><ele>2991.5</ele></trkpt>
      <trkpt lat="42.766291" lon="-109.291123"><ele>2985.2</ele></trkpt>
      <trkpt lat="42.765480" lon="-109.290898"><ele>2982.5</ele></trkpt>
      <trkpt lat="42.764984" lon="-109.290619"><ele>2981.2</ele></trkpt>
      <trkpt lat="42.764913" lon="-109.290468"><ele>2980.2</ele></trkpt>
      <trkpt lat="42.764629" lon="-109.290248"><ele>2978.8</ele></trkpt>
      <trkpt lat="42.764236" lon="-109.289943"><ele>2977.5</ele></trkpt>
      <trkpt lat="42.763960" lon="-109.288966"><ele>2987.2</ele></trkpt>
      <trkpt lat="42.763637" lon="-109.288752"><ele>2988.2</ele></trkpt>
      <trkpt lat="42.763204" lon="-109.288527"><ele>2987.8</ele></trkpt>
      <trkpt lat="42.762786" lon="-109.288516"><ele>2984.8</ele></trkpt>
      <trkpt lat="42.762571" lon="-109.288405"><ele>2983.2</ele></trkpt>
      <trkpt lat="42.762369" lon="-109.288473"><ele>2982.2</ele></trkpt>
      <trkpt lat="42.762077" lon="-109.288409"><ele>2982.0</ele></trkpt>
      <trkpt lat="42.761849" lon="-109.287883"><ele>2987.8</ele></trkpt>
      <trkpt lat="42.761776" lon="-109.287882"><ele>2987.8</ele></trkpt>
      <trkpt lat="42.761723" lon="-109.287936"><ele>2987.0</ele></trkpt>
      <trkpt lat="42.761644" lon="-109.288130"><ele>2984.8</ele></trkpt>
      <trkpt lat="42.761517" lon="-109.288581"><ele>2979.8</ele></trkpt>
      <trkpt lat="42.761284" lon="-109.288706"><ele>2979.0</ele></trkpt>
      <trkpt lat="42.761195" lon="-109.288848"><ele>2977.5</ele></trkpt>
      <trkpt lat="42.760912" lon="-109.288720"><ele>2980.0</ele></trkpt>
      <trkpt lat="42.760793" lon="-109.288773"><ele>2979.5</ele></trkpt>
      <trkpt lat="42.760675" lon="-109.288709"><ele>2980.2</ele></trkpt>
      <trkpt lat="42.760329" lon="-109.288226"><ele>2985.2</ele></trkpt>
      <trkpt lat="42.759958" lon="-109.287765"><ele>2984.5</ele></trkpt>
      <trkpt lat="42.759769" lon="-109.287722"><ele>2983.5</ele></trkpt>
      <trkpt lat="42.759320" lon="-109.287421"><ele>2983.5</ele></trkpt>
      <trkpt lat="42.759104" lon="-109.287308"><ele>2984.5</ele></trkpt>
      <trkpt lat="42.758941" lon="-109.287232"><ele>2987.0</ele></trkpt>
      <trkpt lat="42.758912" lon="-109.287160"><ele>2988.2</ele></trkpt>
      <trkpt lat="42.758996" lon="-109.286924"><ele>2989.8</ele></trkpt>
      <trkpt lat="42.758989" lon="-109.286874"><ele>2990.5</ele></trkpt>
      <trkpt lat="42.758960" lon="-109.286851"><ele>2991.0</ele></trkpt>
      <trkpt lat="42.758913" lon="-109.286850"><ele>2991.5</ele></trkpt>
      <trkpt lat="42.758139" lon="-109.287411"><ele>2990.2</ele></trkpt>
      <trkpt lat="42.757790" lon="-109.287411"><ele>2986.0</ele></trkpt>
    </trkseg>
    <!-- Mon: out to Big Sandy (5.8 mi, 454 ft up) -->
    <trkseg>
      <trkpt lat="42.757790" lon="-109.287411"><ele>2987.5</ele></trkpt>
      <trkpt lat="42.757572" lon="-109.287411"><ele>2986.0</ele></trkpt>
      <trkpt lat="42.757404" lon="-109.287250"><ele>2988.2</ele></trkpt>
      <trkpt lat="42.756977" lon="-109.287293"><ele>2987.0</ele></trkpt>
      <trkpt lat="42.756611" lon="-109.287497"><ele>2982.2</ele></trkpt>
      <trkpt lat="42.756264" lon="-109.287443"><ele>2979.5</ele></trkpt>
      <trkpt lat="42.755796" lon="-109.287529"><ele>2973.0</ele></trkpt>
      <trkpt lat="42.755521" lon="-109.287472"><ele>2973.8</ele></trkpt>
      <trkpt lat="42.755153" lon="-109.287550"><ele>2973.2</ele></trkpt>
      <trkpt lat="42.754899" lon="-109.287299"><ele>2982.5</ele></trkpt>
      <trkpt lat="42.754656" lon="-109.287178"><ele>2991.8</ele></trkpt>
      <trkpt lat="42.754436" lon="-109.287143"><ele>2997.0</ele></trkpt>
      <trkpt lat="42.753924" lon="-109.286756"><ele>3004.8</ele></trkpt>
      <trkpt lat="42.753507" lon="-109.286091"><ele>3009.0</ele></trkpt>
      <trkpt lat="42.753219" lon="-109.285888"><ele>3009.0</ele></trkpt>
      <trkpt lat="42.752932" lon="-109.285780"><ele>3008.0</ele></trkpt>
      <trkpt lat="42.752818" lon="-109.285626"><ele>3008.2</ele></trkpt>
      <trkpt lat="42.752675" lon="-109.285499"><ele>3008.0</ele></trkpt>
      <trkpt lat="42.752597" lon="-109.285341"><ele>3008.2</ele></trkpt>
      <trkpt lat="42.752533" lon="-109.284928"><ele>3010.0</ele></trkpt>
      <trkpt lat="42.752467" lon="-109.284643"><ele>3012.8</ele></trkpt>
      <trkpt lat="42.752329" lon="-109.284558"><ele>3013.0</ele></trkpt>
      <trkpt lat="42.752240" lon="-109.284535"><ele>3013.0</ele></trkpt>
      <trkpt lat="42.751959" lon="-109.284612"><ele>3011.5</ele></trkpt>
      <trkpt lat="42.751807" lon="-109.284792"><ele>3009.8</ele></trkpt>
      <trkpt lat="42.751676" lon="-109.284841"><ele>3009.0</ele></trkpt>
      <trkpt lat="42.751214" lon="-109.284793"><ele>3010.2</ele></trkpt>
      <trkpt lat="42.750379" lon="-109.284621"><ele>3013.8</ele></trkpt>
      <trkpt lat="42.750092" lon="-109.284680"><ele>3015.5</ele></trkpt>
      <trkpt lat="42.749836" lon="-109.284643"><ele>3016.8</ele></trkpt>
      <trkpt lat="42.749116" lon="-109.284372"><ele>3017.0</ele></trkpt>
      <trkpt lat="42.748937" lon="-109.284235"><ele>3015.2</ele></trkpt>
      <trkpt lat="42.748287" lon="-109.284001"><ele>3014.2</ele></trkpt>
      <trkpt lat="42.748151" lon="-109.284023"><ele>3015.2</ele></trkpt>
      <trkpt lat="42.748062" lon="-109.283958"><ele>3015.2</ele></trkpt>
      <trkpt lat="42.747701" lon="-109.283786"><ele>3015.5</ele></trkpt>
      <trkpt lat="42.747424" lon="-109.283778"><ele>3016.2</ele></trkpt>
      <trkpt lat="42.746857" lon="-109.283664"><ele>3015.5</ele></trkpt>
      <trkpt lat="42.746513" lon="-109.283654"><ele>3015.2</ele></trkpt>
      <trkpt lat="42.745585" lon="-109.283575"><ele>3012.5</ele></trkpt>
      <trkpt lat="42.745251" lon="-109.283534"><ele>3013.0</ele></trkpt>
      <trkpt lat="42.744864" lon="-109.283527"><ele>3012.2</ele></trkpt>
      <trkpt lat="42.744725" lon="-109.283487"><ele>3010.5</ele></trkpt>
      <trkpt lat="42.744359" lon="-109.283532"><ele>3006.8</ele></trkpt>
      <trkpt lat="42.744194" lon="-109.283595"><ele>3005.5</ele></trkpt>
      <trkpt lat="42.744024" lon="-109.283781"><ele>3004.5</ele></trkpt>
      <trkpt lat="42.743609" lon="-109.284095"><ele>3001.0</ele></trkpt>
      <trkpt lat="42.743084" lon="-109.284170"><ele>2996.8</ele></trkpt>
      <trkpt lat="42.742901" lon="-109.284125"><ele>2995.8</ele></trkpt>
      <trkpt lat="42.742724" lon="-109.284149"><ele>2995.0</ele></trkpt>
      <trkpt lat="42.742575" lon="-109.284282"><ele>2993.8</ele></trkpt>
      <trkpt lat="42.742532" lon="-109.284374"><ele>2993.2</ele></trkpt>
      <trkpt lat="42.742509" lon="-109.284405"><ele>2993.0</ele></trkpt>
      <trkpt lat="42.742399" lon="-109.284481"><ele>2992.8</ele></trkpt>
      <trkpt lat="42.742350" lon="-109.284439"><ele>2992.8</ele></trkpt>
      <trkpt lat="42.742280" lon="-109.284294"><ele>2993.0</ele></trkpt>
      <trkpt lat="42.742209" lon="-109.284149"><ele>2993.2</ele></trkpt>
      <trkpt lat="42.741775" lon="-109.284031"><ele>2992.8</ele></trkpt>
      <trkpt lat="42.741610" lon="-109.284053"><ele>2992.8</ele></trkpt>
      <trkpt lat="42.740987" lon="-109.284847"><ele>2995.2</ele></trkpt>
      <trkpt lat="42.740270" lon="-109.285233"><ele>2999.8</ele></trkpt>
      <trkpt lat="42.740034" lon="-109.285168"><ele>3000.5</ele></trkpt>
      <trkpt lat="42.739813" lon="-109.284975"><ele>3002.0</ele></trkpt>
      <trkpt lat="42.739151" lon="-109.284932"><ele>3008.8</ele></trkpt>
      <trkpt lat="42.739025" lon="-109.285029"><ele>3011.0</ele></trkpt>
      <trkpt lat="42.738765" lon="-109.284978"><ele>3014.0</ele></trkpt>
      <trkpt lat="42.738749" lon="-109.284975"><ele>3014.2</ele></trkpt>
      <trkpt lat="42.738253" lon="-109.284632"><ele>3016.2</ele></trkpt>
      <trkpt lat="42.737930" lon="-109.284203"><ele>3011.5</ele></trkpt>
      <trkpt lat="42.737607" lon="-109.284267"><ele>3012.5</ele></trkpt>
      <trkpt lat="42.737355" lon="-109.283967"><ele>3012.2</ele></trkpt>
      <trkpt lat="42.737118" lon="-109.283806"><ele>3016.2</ele></trkpt>
      <trkpt lat="42.737040" lon="-109.283623"><ele>3017.5</ele></trkpt>
      <trkpt lat="42.737111" lon="-109.283334"><ele>3014.8</ele></trkpt>
      <trkpt lat="42.736953" lon="-109.282540"><ele>3021.2</ele></trkpt>
      <trkpt lat="42.736841" lon="-109.282371"><ele>3022.5</ele></trkpt>
      <trkpt lat="42.736677" lon="-109.282121"><ele>3022.5</ele></trkpt>
      <trkpt lat="42.736575" lon="-109.282068"><ele>3023.2</ele></trkpt>
      <trkpt lat="42.736125" lon="-109.282111"><ele>3029.0</ele></trkpt>
      <trkpt lat="42.735613" lon="-109.281703"><ele>3035.0</ele></trkpt>
      <trkpt lat="42.735188" lon="-109.281735"><ele>3041.2</ele></trkpt>
      <trkpt lat="42.734959" lon="-109.281467"><ele>3042.8</ele></trkpt>
      <trkpt lat="42.734723" lon="-109.281328"><ele>3044.0</ele></trkpt>
      <trkpt lat="42.734723" lon="-109.281209"><ele>3043.2</ele></trkpt>
      <trkpt lat="42.734636" lon="-109.280963"><ele>3042.5</ele></trkpt>
      <trkpt lat="42.734526" lon="-109.280920"><ele>3043.5</ele></trkpt>
      <trkpt lat="42.734423" lon="-109.280791"><ele>3043.8</ele></trkpt>
      <trkpt lat="42.734338" lon="-109.280537"><ele>3042.8</ele></trkpt>
      <trkpt lat="42.734293" lon="-109.280233"><ele>3040.8</ele></trkpt>
      <trkpt lat="42.734228" lon="-109.280040"><ele>3039.8</ele></trkpt>
      <trkpt lat="42.734145" lon="-109.279890"><ele>3039.5</ele></trkpt>
      <trkpt lat="42.734116" lon="-109.279662"><ele>3038.2</ele></trkpt>
      <trkpt lat="42.734053" lon="-109.279557"><ele>3038.0</ele></trkpt>
      <trkpt lat="42.733526" lon="-109.278944"><ele>3035.2</ele></trkpt>
      <trkpt lat="42.733454" lon="-109.278860"><ele>3034.5</ele></trkpt>
      <trkpt lat="42.732918" lon="-109.278624"><ele>3036.0</ele></trkpt>
      <trkpt lat="42.732209" lon="-109.278549"><ele>3040.5</ele></trkpt>
      <trkpt lat="42.731610" lon="-109.278184"><ele>3039.8</ele></trkpt>
      <trkpt lat="42.730948" lon="-109.277723"><ele>3038.2</ele></trkpt>
      <trkpt lat="42.730302" lon="-109.277068"><ele>3039.5</ele></trkpt>
      <trkpt lat="42.729514" lon="-109.276671"><ele>3040.8</ele></trkpt>
      <trkpt lat="42.728505" lon="-109.276392"><ele>3039.2</ele></trkpt>
      <trkpt lat="42.727654" lon="-109.276328"><ele>3038.5</ele></trkpt>
      <trkpt lat="42.727189" lon="-109.276263"><ele>3036.5</ele></trkpt>
      <trkpt lat="42.726802" lon="-109.276092"><ele>3032.0</ele></trkpt>
      <trkpt lat="42.726373" lon="-109.276129"><ele>3032.0</ele></trkpt>
      <trkpt lat="42.725581" lon="-109.276027"><ele>3028.5</ele></trkpt>
      <trkpt lat="42.725305" lon="-109.275947"><ele>3026.0</ele></trkpt>
      <trkpt lat="42.725053" lon="-109.275727"><ele>3021.5</ele></trkpt>
      <trkpt lat="42.724454" lon="-109.275502"><ele>3015.0</ele></trkpt>
      <trkpt lat="42.724422" lon="-109.275308"><ele>3011.8</ele></trkpt>
      <trkpt lat="42.724332" lon="-109.275180"><ele>3009.2</ele></trkpt>
      <trkpt lat="42.723938" lon="-109.275035"><ele>3006.8</ele></trkpt>
      <trkpt lat="42.723549" lon="-109.274742"><ele>3004.2</ele></trkpt>
      <trkpt lat="42.723240" lon="-109.274343"><ele>3000.5</ele></trkpt>
      <trkpt lat="42.722806" lon="-109.274000"><ele>2997.0</ele></trkpt>
      <trkpt lat="42.722168" lon="-109.273345"><ele>2990.8</ele></trkpt>
      <trkpt lat="42.721839" lon="-109.273243"><ele>2989.0</ele></trkpt>
      <trkpt lat="42.721573" lon="-109.273033"><ele>2987.8</ele></trkpt>
      <trkpt lat="42.721017" lon="-109.272991"><ele>2989.8</ele></trkpt>
      <trkpt lat="42.720804" lon="-109.272803"><ele>2989.0</ele></trkpt>
      <trkpt lat="42.720777" lon="-109.272540"><ele>2986.8</ele></trkpt>
      <trkpt lat="42.720702" lon="-109.272326"><ele>2986.0</ele></trkpt>
      <trkpt lat="42.720300" lon="-109.271897"><ele>2986.8</ele></trkpt>
      <trkpt lat="42.720188" lon="-109.271612"><ele>2985.8</ele></trkpt>
      <trkpt lat="42.720083" lon="-109.271295"><ele>2982.5</ele></trkpt>
      <trkpt lat="42.719465" lon="-109.270652"><ele>2975.2</ele></trkpt>
      <trkpt lat="42.719283" lon="-109.270524"><ele>2974.0</ele></trkpt>
      <trkpt lat="42.718897" lon="-109.270545"><ele>2974.8</ele></trkpt>
      <trkpt lat="42.718345" lon="-109.270406"><ele>2973.8</ele></trkpt>
      <trkpt lat="42.717935" lon="-109.270582"><ele>2974.2</ele></trkpt>
      <trkpt lat="42.717399" lon="-109.270792"><ele>2975.0</ele></trkpt>
      <trkpt lat="42.716934" lon="-109.270577"><ele>2969.8</ele></trkpt>
      <trkpt lat="42.716430" lon="-109.270159"><ele>2958.8</ele></trkpt>
      <trkpt lat="42.716335" lon="-109.269708"><ele>2951.8</ele></trkpt>
      <trkpt lat="42.716083" lon="-109.269504"><ele>2947.8</ele></trkpt>
      <trkpt lat="42.715858" lon="-109.269518"><ele>2946.8</ele></trkpt>
      <trkpt lat="42.715634" lon="-109.269574"><ele>2946.2</ele></trkpt>
      <trkpt lat="42.715350" lon="-109.269461"><ele>2942.8</ele></trkpt>
      <trkpt lat="42.715153" lon="-109.269687"><ele>2945.5</ele></trkpt>
      <trkpt lat="42.714869" lon="-109.269687"><ele>2944.0</ele></trkpt>
      <trkpt lat="42.714569" lon="-109.269429"><ele>2937.8</ele></trkpt>
      <trkpt lat="42.714270" lon="-109.269343"><ele>2935.0</ele></trkpt>
      <trkpt lat="42.714132" lon="-109.269123"><ele>2931.2</ele></trkpt>
      <trkpt lat="42.713844" lon="-109.268957"><ele>2928.8</ele></trkpt>
      <trkpt lat="42.713521" lon="-109.268946"><ele>2928.0</ele></trkpt>
      <trkpt lat="42.713111" lon="-109.268887"><ele>2925.8</ele></trkpt>
      <trkpt lat="42.712764" lon="-109.269235"><ele>2929.2</ele></trkpt>
      <trkpt lat="42.712386" lon="-109.269569"><ele>2931.0</ele></trkpt>
      <trkpt lat="42.711881" lon="-109.269891"><ele>2931.0</ele></trkpt>
      <trkpt lat="42.711700" lon="-109.269848"><ele>2929.5</ele></trkpt>
      <trkpt lat="42.711542" lon="-109.269880"><ele>2929.0</ele></trkpt>
      <trkpt lat="42.711093" lon="-109.269697"><ele>2924.2</ele></trkpt>
      <trkpt lat="42.710872" lon="-109.269708"><ele>2923.2</ele></trkpt>
      <trkpt lat="42.710785" lon="-109.269354"><ele>2916.5</ele></trkpt>
      <trkpt lat="42.711006" lon="-109.269150"><ele>2915.2</ele></trkpt>
      <trkpt lat="42.711022" lon="-109.269032"><ele>2912.8</ele></trkpt>
      <trkpt lat="42.710872" lon="-109.269107"><ele>2913.0</ele></trkpt>
      <trkpt lat="42.710691" lon="-109.269032"><ele>2909.2</ele></trkpt>
      <trkpt lat="42.710620" lon="-109.269097"><ele>2910.0</ele></trkpt>
      <trkpt lat="42.710352" lon="-109.269145"><ele>2907.8</ele></trkpt>
      <trkpt lat="42.709942" lon="-109.269258"><ele>2905.0</ele></trkpt>
      <trkpt lat="42.709698" lon="-109.269279"><ele>2903.2</ele></trkpt>
      <trkpt lat="42.709382" lon="-109.269343"><ele>2901.2</ele></trkpt>
      <trkpt lat="42.709225" lon="-109.269461"><ele>2901.8</ele></trkpt>
      <trkpt lat="42.709076" lon="-109.269539"><ele>2901.0</ele></trkpt>
      <trkpt lat="42.708901" lon="-109.269483"><ele>2898.0</ele></trkpt>
      <trkpt lat="42.708728" lon="-109.269333"><ele>2894.0</ele></trkpt>
      <trkpt lat="42.708215" lon="-109.269268"><ele>2887.2</ele></trkpt>
      <trkpt lat="42.707876" lon="-109.269354"><ele>2883.0</ele></trkpt>
      <trkpt lat="42.707569" lon="-109.269579"><ele>2880.2</ele></trkpt>
      <trkpt lat="42.707348" lon="-109.269710"><ele>2878.5</ele></trkpt>
      <trkpt lat="42.707088" lon="-109.269751"><ele>2875.5</ele></trkpt>
      <trkpt lat="42.706733" lon="-109.269432"><ele>2866.8</ele></trkpt>
      <trkpt lat="42.706737" lon="-109.269362"><ele>2865.8</ele></trkpt>
      <trkpt lat="42.706681" lon="-109.269199"><ele>2862.5</ele></trkpt>
      <trkpt lat="42.706787" lon="-109.268964"><ele>2861.8</ele></trkpt>
      <trkpt lat="42.706736" lon="-109.268847"><ele>2859.8</ele></trkpt>
      <trkpt lat="42.706567" lon="-109.268909"><ele>2858.8</ele></trkpt>
      <trkpt lat="42.706550" lon="-109.268780"><ele>2857.2</ele></trkpt>
      <trkpt lat="42.706552" lon="-109.268650"><ele>2856.0</ele></trkpt>
      <trkpt lat="42.706476" lon="-109.268378"><ele>2853.0</ele></trkpt>
      <trkpt lat="42.706338" lon="-109.268044"><ele>2849.8</ele></trkpt>
      <trkpt lat="42.706229" lon="-109.267878"><ele>2848.2</ele></trkpt>
      <trkpt lat="42.706116" lon="-109.267616"><ele>2846.5</ele></trkpt>
      <trkpt lat="42.705800" lon="-109.266983"><ele>2847.2</ele></trkpt>
      <trkpt lat="42.705831" lon="-109.266904"><ele>2847.8</ele></trkpt>
      <trkpt lat="42.705852" lon="-109.266844"><ele>2848.0</ele></trkpt>
      <trkpt lat="42.705772" lon="-109.266712"><ele>2848.5</ele></trkpt>
      <trkpt lat="42.705762" lon="-109.266643"><ele>2848.8</ele></trkpt>
      <trkpt lat="42.705615" lon="-109.266394"><ele>2849.0</ele></trkpt>
      <trkpt lat="42.705535" lon="-109.266325"><ele>2849.0</ele></trkpt>
      <trkpt lat="42.705372" lon="-109.266234"><ele>2849.0</ele></trkpt>
      <trkpt lat="42.705252" lon="-109.266092"><ele>2849.2</ele></trkpt>
      <trkpt lat="42.704691" lon="-109.265942"><ele>2848.2</ele></trkpt>
      <trkpt lat="42.704163" lon="-109.265760"><ele>2848.0</ele></trkpt>
      <trkpt lat="42.703548" lon="-109.265384"><ele>2850.5</ele></trkpt>
      <trkpt lat="42.703182" lon="-109.265116"><ele>2851.2</ele></trkpt>
      <trkpt lat="42.702898" lon="-109.265266"><ele>2848.2</ele></trkpt>
      <trkpt lat="42.702687" lon="-109.265016"><ele>2847.5</ele></trkpt>
      <trkpt lat="42.702476" lon="-109.264912"><ele>2846.8</ele></trkpt>
      <trkpt lat="42.702176" lon="-109.264591"><ele>2847.5</ele></trkpt>
      <trkpt lat="42.702034" lon="-109.264709"><ele>2845.5</ele></trkpt>
      <trkpt lat="42.701984" lon="-109.265067"><ele>2843.0</ele></trkpt>
      <trkpt lat="42.701817" lon="-109.265135"><ele>2842.0</ele></trkpt>
      <trkpt lat="42.701589" lon="-109.265127"><ele>2840.5</ele></trkpt>
      <trkpt lat="42.701295" lon="-109.265309"><ele>2838.5</ele></trkpt>
      <trkpt lat="42.700882" lon="-109.265504"><ele>2834.8</ele></trkpt>
      <trkpt lat="42.700743" lon="-109.265516"><ele>2832.8</ele></trkpt>
      <trkpt lat="42.700572" lon="-109.265649"><ele>2830.0</ele></trkpt>
      <trkpt lat="42.700401" lon="-109.265684"><ele>2827.0</ele></trkpt>
      <trkpt lat="42.700018" lon="-109.265814"><ele>2821.2</ele></trkpt>
      <trkpt lat="42.699779" lon="-109.266028"><ele>2820.2</ele></trkpt>
      <trkpt lat="42.699574" lon="-109.266168"><ele>2819.0</ele></trkpt>
      <trkpt lat="42.699393" lon="-109.266532"><ele>2820.8</ele></trkpt>
      <trkpt lat="42.698328" lon="-109.266951"><ele>2811.0</ele></trkpt>
      <trkpt lat="42.698116" lon="-109.266830"><ele>2807.0</ele></trkpt>
      <trkpt lat="42.697765" lon="-109.266955"><ele>2806.2</ele></trkpt>
      <trkpt lat="42.697641" lon="-109.266967"><ele>2805.5</ele></trkpt>
      <trkpt lat="42.697551" lon="-109.266954"><ele>2804.5</ele></trkpt>
      <trkpt lat="42.697303" lon="-109.266811"><ele>2802.2</ele></trkpt>
      <trkpt lat="42.696803" lon="-109.266564"><ele>2800.0</ele></trkpt>
      <trkpt lat="42.696523" lon="-109.266406"><ele>2797.2</ele></trkpt>
      <trkpt lat="42.696144" lon="-109.266468"><ele>2792.8</ele></trkpt>
      <trkpt lat="42.696005" lon="-109.266507"><ele>2791.2</ele></trkpt>
      <trkpt lat="42.695590" lon="-109.266668"><ele>2787.2</ele></trkpt>
      <trkpt lat="42.695327" lon="-109.266955"><ele>2788.5</ele></trkpt>
      <trkpt lat="42.695240" lon="-109.267037"><ele>2788.5</ele></trkpt>
      <trkpt lat="42.695111" lon="-109.267194"><ele>2788.8</ele></trkpt>
      <trkpt lat="42.694277" lon="-109.267933"><ele>2785.5</ele></trkpt>
      <trkpt lat="42.693790" lon="-109.268181"><ele>2783.2</ele></trkpt>
      <trkpt lat="42.693638" lon="-109.268186"><ele>2782.2</ele></trkpt>
      <trkpt lat="42.693306" lon="-109.268313"><ele>2780.8</ele></trkpt>
      <trkpt lat="42.692689" lon="-109.268598"><ele>2778.8</ele></trkpt>
      <trkpt lat="42.692223" lon="-109.268901"><ele>2778.8</ele></trkpt>
      <trkpt lat="42.691905" lon="-109.269120"><ele>2779.5</ele></trkpt>
      <trkpt lat="42.691186" lon="-109.269622"><ele>2786.5</ele></trkpt>
      <trkpt lat="42.690718" lon="-109.269716"><ele>2790.0</ele></trkpt>
      <trkpt lat="42.690541" lon="-109.269786"><ele>2790.0</ele></trkpt>
      <trkpt lat="42.690212" lon="-109.269807"><ele>2789.0</ele></trkpt>
      <trkpt lat="42.689964" lon="-109.269880"><ele>2788.2</ele></trkpt>
      <trkpt lat="42.689507" lon="-109.270122"><ele>2786.0</ele></trkpt>
      <trkpt lat="42.689195" lon="-109.270266"><ele>2784.8</ele></trkpt>
      <trkpt lat="42.688937" lon="-109.270470"><ele>2784.5</ele></trkpt>
      <trkpt lat="42.688771" lon="-109.270531"><ele>2784.0</ele></trkpt>
      <trkpt lat="42.688603" lon="-109.270489"><ele>2782.8</ele></trkpt>
      <trkpt lat="42.688518" lon="-109.270534"><ele>2782.5</ele></trkpt>
      <trkpt lat="42.688371" lon="-109.270793"><ele>2782.0</ele></trkpt>
      <trkpt lat="42.688292" lon="-109.270887"><ele>2781.8</ele></trkpt>
      <trkpt lat="42.688237" lon="-109.270754"><ele>2780.8</ele></trkpt>
      <trkpt lat="42.688187" lon="-109.270688"><ele>2780.2</ele></trkpt>
      <trkpt lat="42.688119" lon="-109.270639"><ele>2779.5</ele></trkpt>
      <trkpt lat="42.688048" lon="-109.270641"><ele>2778.8</ele></trkpt>
      <trkpt lat="42.687948" lon="-109.270695"><ele>2777.8</ele></trkpt>
      <trkpt lat="42.687807" lon="-109.270790"><ele>2776.2</ele></trkpt>
      <trkpt lat="42.687784" lon="-109.270820"><ele>2776.0</ele></trkpt>
      <trkpt lat="42.687735" lon="-109.270721"><ele>2775.5</ele></trkpt>
      <trkpt lat="42.687711" lon="-109.270428"><ele>2775.8</ele></trkpt>
      <trkpt lat="42.687735" lon="-109.270310"><ele>2776.2</ele></trkpt>
      <trkpt lat="42.687792" lon="-109.270205"><ele>2776.8</ele></trkpt>
      <trkpt lat="42.688281" lon="-109.269707"><ele>2779.8</ele></trkpt>
      <trkpt lat="42.688369" lon="-109.269364"><ele>2778.8</ele></trkpt>
      <trkpt lat="42.688408" lon="-109.269291"><ele>2778.8</ele></trkpt>
      <trkpt lat="42.688441" lon="-109.269278"><ele>2778.8</ele></trkpt>
    </trkseg>
  </trk>
</gpx>
