<?xml version="1.0" encoding="UTF-8"?>
<gpx version="1.1" creator="pathbeaters26" xmlns="http://www.topografix.com/GPX/1/1" xmlns:xsi="http://www.w3.org/2001/XMLSchema-instance" xsi:schemaLocation="http://www.topografix.com/GPX/1/1 http://www.topografix.com/GPX/1/1/gpx.xsd">
  <metadata><name>Coyote Gulch: Hurricane Wash → Crack-in-the-Wall</name></metadata>
  <wpt lat="37.385794" lon="-111.132248">
    <ele>1395.2</ele>
    <name>Hurricane Wash Trailhead</name>
    <desc>Hole-in-the-Rock Road; free self-issue permit</desc>
  </wpt>
  <wpt lat="37.420378" lon="-111.058184">
    <ele>1277.8</ele>
    <name>Hurricane Wash / Coyote Gulch confluence</name>
    <desc>Water starts; Red Well route joins</desc>
  </wpt>
  <wpt lat="37.419157" lon="-111.043147">
    <ele>1293.8</ele>
    <name>Fri camp · Jacob Hamblin Arch</name>
    <desc>Camp in the meadows below the arch</desc>
  </wpt>
  <wpt lat="37.416429" lon="-111.027612">
    <ele>1234.5</ele>
    <name>Coyote Natural Bridge</name>
    <desc>Creek runs through the bridge</desc>
  </wpt>
  <wpt lat="37.419824" lon="-111.007463">
    <name>Cliff Arch</name>
    <desc>Swiss-cheese arch high on the south wall</desc>
  </wpt>
  <wpt lat="37.427665" lon="-110.980862">
    <name>Sat camp · Coyote Gulch at the Escalante River</name>
    <desc>Lower gulch camp at the Escalante confluence</desc>
  </wpt>
  <wpt lat="37.419042" lon="-110.985479">
    <ele>1349.2</ele>
    <name>Crack-in-the-Wall</name>
    <desc>Slot exit onto the rim; haul packs with rope</desc>
  </wpt>
  <wpt lat="37.403726" lon="-111.008902">
    <ele>1422.8</ele>
    <name>Fortymile Ridge (Crack-in-the-Wall) Trailhead</name>
    <desc>Exit trailhead, 600 ft of sand</desc>
  </wpt>
  <trk>
    <name>Coyote Gulch: Hurricane Wash → Crack-in-the-Wall</name>
    <trkseg>
      <trkpt lat="37.385618" lon="-111.132496"><ele>1396.2</ele></trkpt>
      <trkpt lat="37.385759" lon="-111.132284"><ele>1395.5</ele></trkpt>
      <trkpt lat="37.385794" lon="-111.132248"><ele>1395.2</ele></trkpt>
      <trkpt lat="37.385838" lon="-111.132186"><ele>1395.2</ele></trkpt>
      <trkpt lat="37.385960" lon="-111.131789"><ele>1395.0</ele></trkpt>
      <trkpt lat="37.386009" lon="-111.131408"><ele>1394.0</ele></trkpt>
      <trkpt lat="37.385981" lon="-111.131218"><ele>1393.2</ele></trkpt>
      <trkpt lat="37.386000" lon="-111.130872"><ele>1392.2</ele></trkpt>
      <trkpt lat="37.385977" lon="-111.130399"><ele>1390.5</ele></trkpt>
      <trkpt lat="37.385973" lon="-111.129316"><ele>1389.2</ele></trkpt>
      <trkpt lat="37.386003" lon="-111.129021"><ele>1388.8</ele></trkpt>
      <trkpt lat="37.386040" lon="-111.128906"><ele>1388.2</ele></trkpt>
      <trkpt lat="37.386212" lon="-111.128741"><ele>1388.2</ele></trkpt>
      <trkpt lat="37.386264" lon="-111.128664"><ele>1388.0</ele></trkpt>
      <trkpt lat="37.386304" lon="-111.128570"><ele>1387.8</ele></trkpt>
      <trkpt lat="37.386334" lon="-111.128462"><ele>1387.2</ele></trkpt>
      <trkpt lat="37.386345" lon="-111.128302"><ele>1386.8</ele></trkpt>
      <trkpt lat="37.386339" lon="-111.128200"><ele>1386.5</ele></trkpt>
      <trkpt lat="37.386266" lon="-111.127921"><ele>1386.2</ele></trkpt>
      <trkpt lat="37.386254" lon="-111.127763"><ele>1386.2</ele></trkpt>
      <trkpt lat="37.386311" lon="-111.127589"><ele>1386.0</ele></trkpt>
      <trkpt lat="37.386403" lon="-111.127495"><ele>1385.5</ele></trkpt>
      <trkpt lat="37.386618" lon="-111.127382"><ele>1384.0</ele></trkpt>
      <trkpt lat="37.386705" lon="-111.127286"><ele>1383.8</ele></trkpt>
      <trkpt lat="37.386848" lon="-111.126929"><ele>1384.0</ele></trkpt>
      <trkpt lat="37.386923" lon="-111.126578"><ele>1383.8</ele></trkpt>
      <trkpt lat="37.386897" lon="-111.126355"><ele>1383.8</ele></trkpt>
      <trkpt lat="37.386786" lon="-111.126092"><ele>1382.8</ele></trkpt>
      <trkpt lat="37.386710" lon="-111.125800"><ele>1382.0</ele></trkpt>
      <trkpt lat="37.386744" lon="-111.125526"><ele>1381.2</ele></trkpt>
      <trkpt lat="37.386868" lon="-111.125231"><ele>1380.2</ele></trkpt>
      <trkpt lat="37.387115" lon="-111.124955"><ele>1379.0</ele></trkpt>
      <trkpt lat="37.387316" lon="-111.124576"><ele>1378.8</ele></trkpt>
      <trkpt lat="37.387439" lon="-111.124319"><ele>1377.8</ele></trkpt>
      <trkpt lat="37.387631" lon="-111.123793"><ele>1377.5</ele></trkpt>
      <trkpt lat="37.387699" lon="-111.123571"><ele>1377.5</ele></trkpt>
      <trkpt lat="37.387735" lon="-111.122935"><ele>1375.2</ele></trkpt>
      <trkpt lat="37.387784" lon="-111.122655"><ele>1373.8</ele></trkpt>
      <trkpt lat="37.388189" lon="-111.122417"><ele>1371.5</ele></trkpt>
      <trkpt lat="37.388552" lon="-111.122280"><ele>1371.0</ele></trkpt>
      <trkpt lat="37.388694" lon="-111.122054"><ele>1370.8</ele></trkpt>
      <trkpt lat="37.388737" lon="-111.121936"><ele>1370.5</ele></trkpt>
      <trkpt lat="37.388752" lon="-111.121580"><ele>1370.2</ele></trkpt>
      <trkpt lat="37.388871" lon="-111.121323"><ele>1370.8</ele></trkpt>
      <trkpt lat="37.388931" lon="-111.120872"><ele>1371.8</ele></trkpt>
      <trkpt lat="37.389114" lon="-111.120434"><ele>1369.8</ele></trkpt>
      <trkpt lat="37.389263" lon="-111.120046"><ele>1368.2</ele></trkpt>
      <trkpt lat="37.389350" lon="-111.119348"><ele>1368.8</ele></trkpt>
      <trkpt lat="37.389756" lon="-111.118578"><ele>1365.0</ele></trkpt>
      <trkpt lat="37.389792" lon="-111.118408"><ele>1364.0</ele></trkpt>
      <trkpt lat="37.389830" lon="-111.118290"><ele>1363.2</ele></trkpt>
      <trkpt lat="37.390278" lon="-111.118013"><ele>1360.5</ele></trkpt>
      <trkpt lat="37.390368" lon="-111.117841"><ele>1360.2</ele></trkpt>
      <trkpt lat="37.390526" lon="-111.117373"><ele>1360.0</ele></trkpt>
      <trkpt lat="37.390723" lon="-111.117104"><ele>1359.2</ele></trkpt>
      <trkpt lat="37.390800" lon="-111.116889"><ele>1358.5</ele></trkpt>
      <trkpt lat="37.391578" lon="-111.115617"><ele>1355.0</ele></trkpt>
      <trkpt lat="37.392030" lon="-111.114855"><ele>1353.5</ele></trkpt>
      <trkpt lat="37.392277" lon="-111.114480"><ele>1353.2</ele></trkpt>
      <trkpt lat="37.392417" lon="-111.114092"><ele>1352.0</ele></trkpt>
      <trkpt lat="37.392511" lon="-111.113716"><ele>1351.2</ele></trkpt>
      <trkpt lat="37.392781" lon="-111.113027"><ele>1351.2</ele></trkpt>
      <trkpt lat="37.392800" lon="-111.112917"><ele>1351.5</ele></trkpt>
      <trkpt lat="37.392968" lon="-111.112384"><ele>1351.0</ele></trkpt>
      <trkpt lat="37.393014" lon="-111.111774"><ele>1351.2</ele></trkpt>
      <trkpt lat="37.393192" lon="-111.111415"><ele>1349.8</ele></trkpt>
      <trkpt lat="37.393219" lon="-111.111301"><ele>1349.5</ele></trkpt>
      <trkpt lat="37.393273" lon="-111.111066"><ele>1349.2</ele></trkpt>
      <trkpt lat="37.393606" lon="-111.110151"><ele>1349.8</ele></trkpt>
      <trkpt lat="37.393729" lon="-111.109838"><ele>1349.5</ele></trkpt>
      <trkpt lat="37.393781" lon="-111.109647"><ele>1349.0</ele></trkpt>
      <trkpt lat="37.393831" lon="-111.109552"><ele>1348.5</ele></trkpt>
      <trkpt lat="37.393951" lon="-111.109328"><ele>1347.2</ele></trkpt>
      <trkpt lat="37.394000" lon="-111.109100"><ele>1346.5</ele></trkpt>
      <trkpt lat="37.393964" lon="-111.108945"><ele>1346.8</ele></trkpt>
      <trkpt lat="37.393951" lon="-111.108801"><ele>1346.8</ele></trkpt>
      <trkpt lat="37.394023" lon="-111.108438"><ele>1345.8</ele></trkpt>
      <trkpt lat="37.394211" lon="-111.107799"><ele>1344.0</ele></trkpt>
      <trkpt lat="37.394275" lon="-111.107392"><ele>1343.8</ele></trkpt>
      <trkpt lat="37.394407" lon="-111.106984"><ele>1342.8</ele></trkpt>
      <trkpt lat="37.394565" lon="-111.106764"><ele>1341.8</ele></trkpt>
      <trkpt lat="37.394602" lon="-111.106619"><ele>1341.2</ele></trkpt>
      <trkpt lat="37.394692" lon="-111.106399"><ele>1341.0</ele></trkpt>
      <trkpt lat="37.394985" lon="-111.106058"><ele>1339.0</ele></trkpt>
      <trkpt lat="37.395114" lon="-111.105762"><ele>1339.0</ele></trkpt>
      <trkpt lat="37.395383" lon="-111.105506"><ele>1339.0</ele></trkpt>
      <trkpt lat="37.395527" lon="-111.105340"><ele>1338.8</ele></trkpt>
      <trkpt lat="37.395543" lon="-111.105260"><ele>1338.5</ele></trkpt>
      <trkpt lat="37.395589" lon="-111.105172"><ele>1338.0</ele></trkpt>
      <trkpt lat="37.395646" lon="-111.105106"><ele>1337.8</ele></trkpt>
      <trkpt lat="37.395710" lon="-111.104824"><ele>1337.2</ele></trkpt>
      <trkpt lat="37.395749" lon="-111.104710"><ele>1337.0</ele></trkpt>
      <trkpt lat="37.395843" lon="-111.104607"><ele>1336.2</ele></trkpt>
      <trkpt lat="37.395983" lon="-111.104532"><ele>1335.8</ele></trkpt>
      <trkpt lat="37.396242" lon="-111.104334"><ele>1333.8</ele></trkpt>
      <trkpt lat="37.396553" lon="-111.104267"><ele>1331.2</ele></trkpt>
      <trkpt lat="37.396645" lon="-111.104160"><ele>1330.0</ele></trkpt>
      <trkpt lat="37.396708" lon="-111.103929"><ele>1330.2</ele></trkpt>
      <trkpt lat="37.396709" lon="-111.103633"><ele>1330.2</ele></trkpt>
      <trkpt lat="37.396713" lon="-111.103097"><ele>1330.2</ele></trkpt>
      <trkpt lat="37.396785" lon="-111.102725"><ele>1331.0</ele></trkpt>
      <trkpt lat="37.396762" lon="-111.102526"><ele>1330.8</ele></trkpt>
      <trkpt lat="37.396760" lon="-111.102293"><ele>1331.0</ele></trkpt>
      <trkpt lat="37.396875" lon="-111.102104"><ele>1331.8</ele></trkpt>
      <trkpt lat="37.397026" lon="-111.102051"><ele>1332.5</ele></trkpt>
      <trkpt lat="37.397187" lon="-111.101782"><ele>1332.8</ele></trkpt>
      <trkpt lat="37.397235" lon="-111.101531"><ele>1332.2</ele></trkpt>
      <trkpt lat="37.397228" lon="-111.101239"><ele>1331.5</ele></trkpt>
      <trkpt lat="37.397401" lon="-111.101000"><ele>1330.2</ele></trkpt>
      <trkpt lat="37.397785" lon="-111.100678"><ele>1330.5</ele></trkpt>
      <trkpt lat="37.397982" lon="-111.100379"><ele>1330.2</ele></trkpt>
      <trkpt lat="37.398177" lon="-111.099991"><ele>1328.5</ele></trkpt>
      <trkpt lat="37.398270" lon="-111.099627"><ele>1326.2</ele></trkpt>
      <trkpt lat="37.398275" lon="-111.099211"><ele>1324.0</ele></trkpt>
      <trkpt lat="37.398726" lon="-111.098251"><ele>1328.5</ele></trkpt>
      <trkpt lat="37.398895" lon="-111.098052"><ele>1328.8</ele></trkpt>
      <trkpt lat="37.399261" lon="-111.097953"><ele>1327.8</ele></trkpt>
      <trkpt lat="37.399468" lon="-111.097859"><ele>1327.5</ele></trkpt>
      <trkpt lat="37.399560" lon="-111.097709"><ele>1327.0</ele></trkpt>
      <trkpt lat="37.399758" lon="-111.097054"><ele>1324.8</ele></trkpt>
      <trkpt lat="37.399849" lon="-111.096636"><ele>1323.0</ele></trkpt>
      <trkpt lat="37.399964" lon="-111.096360"><ele>1322.5</ele></trkpt>
      <trkpt lat="37.400060" lon="-111.096194"><ele>1322.5</ele></trkpt>
      <trkpt lat="37.400429" lon="-111.096142"><ele>1322.8</ele></trkpt>
      <trkpt lat="37.400663" lon="-111.096030"><ele>1322.2</ele></trkpt>
      <trkpt lat="37.400823" lon="-111.095847"><ele>1321.0</ele></trkpt>
      <trkpt lat="37.401009" lon="-111.095134"><ele>1321.5</ele></trkpt>
      <trkpt lat="37.401104" lon="-111.094659"><ele>1321.5</ele></trkpt>
      <trkpt lat="37.401111" lon="-111.094112"><ele>1320.8</ele></trkpt>
      <trkpt lat="37.401087" lon="-111.093782"><ele>1322.0</ele></trkpt>
      <trkpt lat="37.401111" lon="-111.093696"><ele>1322.2</ele></trkpt>
      <trkpt lat="37.401320" lon="-111.093514"><ele>1322.2</ele></trkpt>
      <trkpt lat="37.401592" lon="-111.093393"><ele>1321.2</ele></trkpt>
      <trkpt lat="37.401912" lon="-111.093353"><ele>1320.8</ele></trkpt>
      <trkpt lat="37.403105" lon="-111.092688"><ele>1325.0</ele></trkpt>
      <trkpt lat="37.403420" lon="-111.092296"><ele>1326.0</ele></trkpt>
      <trkpt lat="37.403872" lon="-111.091170"><ele>1324.5</ele></trkpt>
      <trkpt lat="37.404128" lon="-111.090751"><ele>1318.8</ele></trkpt>
      <trkpt lat="37.404405" lon="-111.090032"><ele>1319.0</ele></trkpt>
      <trkpt lat="37.405185" lon="-111.089040"><ele>1312.0</ele></trkpt>
      <trkpt lat="37.405474" lon="-111.088525"><ele>1311.2</ele></trkpt>
      <trkpt lat="37.405488" lon="-111.088162"><ele>1309.8</ele></trkpt>
      <trkpt lat="37.405423" lon="-111.087881"><ele>1310.0</ele></trkpt>
      <trkpt lat="37.405336" lon="-111.087711"><ele>1310.8</ele></trkpt>
      <trkpt lat="37.405264" lon="-111.087513"><ele>1311.8</ele></trkpt>
      <trkpt lat="37.405273" lon="-111.087415"><ele>1311.2</ele></trkpt>
      <trkpt lat="37.405315" lon="-111.087327"><ele>1310.2</ele></trkpt>
      <trkpt lat="37.405436" lon="-111.087185"><ele>1308.2</ele></trkpt>
      <trkpt lat="37.405512" lon="-111.087168"><ele>1307.5</ele></trkpt>
      <trkpt lat="37.405585" lon="-111.087201"><ele>1306.8</ele></trkpt>
      <trkpt lat="37.405764" lon="-111.087259"><ele>1305.0</ele></trkpt>
      <trkpt lat="37.405862" lon="-111.087259"><ele>1304.5</ele></trkpt>
      <trkpt lat="37.405962" lon="-111.087235"><ele>1304.5</ele></trkpt>
      <trkpt lat="37.406222" lon="-111.087007"><ele>1304.2</ele></trkpt>
      <trkpt lat="37.406501" lon="-111.086814"><ele>1303.2</ele></trkpt>
      <trkpt lat="37.406621" lon="-111.086776"><ele>1302.8</ele></trkpt>
      <trkpt lat="37.406708" lon="-111.086800"><ele>1303.2</ele></trkpt>
      <trkpt lat="37.406829" lon="-111.086784"><ele>1303.2</ele></trkpt>
      <trkpt lat="37.407072" lon="-111.086487"><ele>1304.2</ele></trkpt>
      <trkpt lat="37.407417" lon="-111.086250"><ele>1306.2</ele></trkpt>
      <trkpt lat="37.407631" lon="-111.086154"><ele>1307.0</ele></trkpt>
      <trkpt lat="37.407724" lon="-111.085993"><ele>1307.2</ele></trkpt>
      <trkpt lat="37.407801" lon="-111.085725"><ele>1308.8</ele></trkpt>
      <trkpt lat="37.407937" lon="-111.085553"><ele>1310.0</ele></trkpt>
      <trkpt lat="37.408223" lon="-111.085462"><ele>1309.2</ele></trkpt>
      <trkpt lat="37.408500" lon="-111.085430"><ele>1308.0</ele></trkpt>
      <trkpt lat="37.408645" lon="-111.085306"><ele>1307.8</ele></trkpt>
      <trkpt lat="37.408713" lon="-111.085044"><ele>1308.5</ele></trkpt>
      <trkpt lat="37.408917" lon="-111.084834"><ele>1308.0</ele></trkpt>
      <trkpt lat="37.409241" lon="-111.084695"><ele>1305.5</ele></trkpt>
      <trkpt lat="37.409463" lon="-111.084491"><ele>1304.5</ele></trkpt>
      <trkpt lat="37.409697" lon="-111.084223"><ele>1301.8</ele></trkpt>
      <trkpt lat="37.409966" lon="-111.084019"><ele>1298.2</ele></trkpt>
      <trkpt lat="37.410264" lon="-111.083837"><ele>1298.8</ele></trkpt>
      <trkpt lat="37.410400" lon="-111.083606"><ele>1298.8</ele></trkpt>
      <trkpt lat="37.410669" lon="-111.082925"><ele>1297.8</ele></trkpt>
      <trkpt lat="37.410980" lon="-111.082479"><ele>1296.0</ele></trkpt>
      <trkpt lat="37.411201" lon="-111.082088"><ele>1297.0</ele></trkpt>
      <trkpt lat="37.411414" lon="-111.081739"><ele>1295.8</ele></trkpt>
      <trkpt lat="37.411713" lon="-111.081557"><ele>1295.0</ele></trkpt>
      <trkpt lat="37.412109" lon="-111.081487"><ele>1296.2</ele></trkpt>
      <trkpt lat="37.412267" lon="-111.081347"><ele>1297.2</ele></trkpt>
      <trkpt lat="37.412565" lon="-111.080843"><ele>1297.8</ele></trkpt>
      <trkpt lat="37.412752" lon="-111.080570"><ele>1302.5</ele></trkpt>
      <trkpt lat="37.413391" lon="-111.080457"><ele>1300.8</ele></trkpt>
      <trkpt lat="37.413702" lon="-111.080494"><ele>1298.0</ele></trkpt>
      <trkpt lat="37.413924" lon="-111.080441"><ele>1296.8</ele></trkpt>
      <trkpt lat="37.414120" lon="-111.080323"><ele>1295.2</ele></trkpt>
      <trkpt lat="37.414342" lon="-111.080146"><ele>1297.0</ele></trkpt>
      <trkpt lat="37.414448" lon="-111.079808"><ele>1298.8</ele></trkpt>
      <trkpt lat="37.414538" lon="-111.079443"><ele>1300.2</ele></trkpt>
      <trkpt lat="37.414589" lon="-111.079153"><ele>1300.8</ele></trkpt>
      <trkpt lat="37.414699" lon="-111.078832"><ele>1298.5</ele></trkpt>
      <trkpt lat="37.414763" lon="-111.078402"><ele>1294.8</ele></trkpt>
      <trkpt lat="37.414746" lon="-111.078118"><ele>1293.0</ele></trkpt>
      <trkpt lat="37.414819" lon="-111.077930"><ele>1291.5</ele></trkpt>
      <trkpt lat="37.414844" lon="-111.077743"><ele>1290.2</ele></trkpt>
      <trkpt lat="37.415172" lon="-111.077437"><ele>1290.5</ele></trkpt>
      <trkpt lat="37.415424" lon="-111.077281"><ele>1294.8</ele></trkpt>
      <trkpt lat="37.415573" lon="-111.077024"><ele>1296.2</ele></trkpt>
      <trkpt lat="37.415820" lon="-111.076723"><ele>1296.2</ele></trkpt>
      <trkpt lat="37.416063" lon="-111.076133"><ele>1291.5</ele></trkpt>
      <trkpt lat="37.416174" lon="-111.075951"><ele>1289.2</ele></trkpt>
      <trkpt lat="37.416272" lon="-111.075532"><ele>1288.8</ele></trkpt>
      <trkpt lat="37.416340" lon="-111.075388"><ele>1289.0</ele></trkpt>
      <trkpt lat="37.416463" lon="-111.075361"><ele>1288.2</ele></trkpt>
      <trkpt lat="37.416591" lon="-111.075398"><ele>1287.2</ele></trkpt>
      <trkpt lat="37.416800" lon="-111.075495"><ele>1289.0</ele></trkpt>
      <trkpt lat="37.416992" lon="-111.075506"><ele>1292.0</ele></trkpt>
      <trkpt lat="37.417217" lon="-111.075377"><ele>1294.5</ele></trkpt>
      <trkpt lat="37.417401" lon="-111.075141"><ele>1295.0</ele></trkpt>
      <trkpt lat="37.417486" lon="-111.074835"><ele>1294.0</ele></trkpt>
      <trkpt lat="37.417490" lon="-111.074642"><ele>1293.0</ele></trkpt>
      <trkpt lat="37.417409" lon="-111.074433"><ele>1292.0</ele></trkpt>
      <trkpt lat="37.417179" lon="-111.074116"><ele>1292.0</ele></trkpt>
      <trkpt lat="37.417026" lon="-111.073977"><ele>1294.5</ele></trkpt>
      <trkpt lat="37.416962" lon="-111.073859"><ele>1297.0</ele></trkpt>
      <trkpt lat="37.416970" lon="-111.073698"><ele>1299.5</ele></trkpt>
      <trkpt lat="37.417094" lon="-111.073553"><ele>1298.5</ele></trkpt>
      <trkpt lat="37.417251" lon="-111.073499"><ele>1294.8</ele></trkpt>
      <trkpt lat="37.417473" lon="-111.073408"><ele>1288.0</ele></trkpt>
      <trkpt lat="37.417690" lon="-111.073145"><ele>1290.5</ele></trkpt>
      <trkpt lat="37.417925" lon="-111.072829"><ele>1292.0</ele></trkpt>
      <trkpt lat="37.418078" lon="-111.072496"><ele>1290.0</ele></trkpt>
      <trkpt lat="37.418338" lon="-111.072239"><ele>1289.2</ele></trkpt>
      <trkpt lat="37.418500" lon="-111.071970"><ele>1295.8</ele></trkpt>
      <trkpt lat="37.418598" lon="-111.071617"><ele>1300.5</ele></trkpt>
      <trkpt lat="37.418986" lon="-111.070565"><ele>1303.2</ele></trkpt>
      <trkpt lat="37.419101" lon="-111.069835"><ele>1306.0</ele></trkpt>
      <trkpt lat="37.419173" lon="-111.069562"><ele>1306.0</ele></trkpt>
      <trkpt lat="37.419429" lon="-111.069047"><ele>1302.2</ele></trkpt>
      <trkpt lat="37.419484" lon="-111.068612"><ele>1298.0</ele></trkpt>
      <trkpt lat="37.419488" lon="-111.068033"><ele>1294.5</ele></trkpt>
      <trkpt lat="37.419365" lon="-111.067459"><ele>1291.0</ele></trkpt>
      <trkpt lat="37.419011" lon="-111.066740"><ele>1287.5</ele></trkpt>
      <trkpt lat="37.418738" lon="-111.066225"><ele>1300.5</ele></trkpt>
      <trkpt lat="37.418389" lon="-111.065726"><ele>1309.2</ele></trkpt>
      <trkpt lat="37.418321" lon="-111.065555"><ele>1312.2</ele></trkpt>
      <trkpt lat="37.418321" lon="-111.065308"><ele>1314.0</ele></trkpt>
      <trkpt lat="37.418547" lon="-111.065023"><ele>1308.5</ele></trkpt>
      <trkpt lat="37.418922" lon="-111.064750"><ele>1296.8</ele></trkpt>
      <trkpt lat="37.419105" lon="-111.064251"><ele>1289.8</ele></trkpt>
      <trkpt lat="37.419050" lon="-111.063913"><ele>1294.8</ele></trkpt>
      <trkpt lat="37.418909" lon="-111.063495"><ele>1304.5</ele></trkpt>
      <trkpt lat="37.418807" lon="-111.063269"><ele>1310.8</ele></trkpt>
      <trkpt lat="37.418871" lon="-111.063130"><ele>1311.8</ele></trkpt>
      <trkpt lat="37.419041" lon="-111.062953"><ele>1311.0</ele></trkpt>
      <trkpt lat="37.419638" lon="-111.061596"><ele>1319.2</ele></trkpt>
      <trkpt lat="37.420490" lon="-111.060480"><ele>1313.2</ele></trkpt>
      <trkpt lat="37.420779" lon="-111.060233"><ele>1305.0</ele></trkpt>
      <trkpt lat="37.421167" lon="-111.060099"><ele>1302.8</ele></trkpt>
      <trkpt lat="37.421414" lon="-111.059992"><ele>1300.8</ele></trkpt>
      <trkpt lat="37.421516" lon="-111.059777"><ele>1297.0</ele></trkpt>
      <trkpt lat="37.421448" lon="-111.059541"><ele>1293.0</ele></trkpt>
      <trkpt lat="37.421316" lon="-111.059402"><ele>1289.5</ele></trkpt>
      <trkpt lat="37.421052" lon="-111.059257"><ele>1283.2</ele></trkpt>
      <trkpt lat="37.420809" lon="-111.058779"><ele>1269.0</ele></trkpt>
      <trkpt lat="37.420626" lon="-111.058543"><ele>1272.8</ele></trkpt>
      <trkpt lat="37.420378" lon="-111.058184"><ele>1277.8</ele></trkpt>
      <trkpt lat="37.420260" lon="-111.058162"><ele>1282.5</ele></trkpt>
      <trkpt lat="37.420089" lon="-111.057969"><ele>1282.8</ele></trkpt>
      <trkpt lat="37.419885" lon="-111.057175"><ele>1275.5</ele></trkpt>
      <trkpt lat="37.419834" lon="-111.056639"><ele>1279.8</ele></trkpt>
      <trkpt lat="37.419765" lon="-111.056226"><ele>1290.8</ele></trkpt>
      <trkpt lat="37.419778" lon="-111.055936"><ele>1293.8</ele></trkpt>
      <trkpt lat="37.419889" lon="-111.055818"><ele>1288.5</ele></trkpt>
      <trkpt lat="37.420055" lon="-111.055759"><ele>1280.0</ele></trkpt>
      <trkpt lat="37.420196" lon="-111.055689"><ele>1276.5</ele></trkpt>
      <trkpt lat="37.420426" lon="-111.055625"><ele>1273.0</ele></trkpt>
      <trkpt lat="37.420643" lon="-111.055464"><ele>1270.0</ele></trkpt>
      <trkpt lat="37.420694" lon="-111.055201"><ele>1268.8</ele></trkpt>
      <trkpt lat="37.420277" lon="-111.054841"><ele>1261.8</ele></trkpt>
      <trkpt lat="37.420017" lon="-111.054672"><ele>1256.8</ele></trkpt>
      <trkpt lat="37.419813" lon="-111.054515"><ele>1265.8</ele></trkpt>
      <trkpt lat="37.419587" lon="-111.054448"><ele>1277.0</ele></trkpt>
      <trkpt lat="37.419255" lon="-111.053997"><ele>1285.8</ele></trkpt>
      <trkpt lat="37.419021" lon="-111.053530"><ele>1291.8</ele></trkpt>
      <trkpt lat="37.418953" lon="-111.053198"><ele>1298.0</ele></trkpt>
      <trkpt lat="37.418910" lon="-111.052844"><ele>1309.0</ele></trkpt>
      <trkpt lat="37.418918" lon="-111.052479"><ele>1316.2</ele></trkpt>
      <trkpt lat="37.418842" lon="-111.052061"><ele>1327.5</ele></trkpt>
      <trkpt lat="37.418970" lon="-111.051707"><ele>1330.0</ele></trkpt>
      <trkpt lat="37.419251" lon="-111.051739"><ele>1321.0</ele></trkpt>
      <trkpt lat="37.419506" lon="-111.051792"><ele>1311.5</ele></trkpt>
      <trkpt lat="37.419702" lon="-111.051921"><ele>1303.2</ele></trkpt>
      <trkpt lat="37.419924" lon="-111.051814"><ele>1298.0</ele></trkpt>
      <trkpt lat="37.420120" lon="-111.051406"><ele>1295.2</ele></trkpt>
      <trkpt lat="37.420163" lon="-111.050945"><ele>1292.2</ele></trkpt>
      <trkpt lat="37.420248" lon="-111.050441"><ele>1283.8</ele></trkpt>
      <trkpt lat="37.420256" lon="-111.049990"><ele>1276.0</ele></trkpt>
      <trkpt lat="37.420171" lon="-111.049679"><ele>1273.2</ele></trkpt>
      <trkpt lat="37.420120" lon="-111.049389"><ele>1268.8</ele></trkpt>
      <trkpt lat="37.420188" lon="-111.049196"><ele>1266.0</ele></trkpt>
      <trkpt lat="37.420273" lon="-111.049024"><ele>1267.0</ele></trkpt>
      <trkpt lat="37.420265" lon="-111.048778"><ele>1268.2</ele></trkpt>
      <trkpt lat="37.420348" lon="-111.048463"><ele>1271.8</ele></trkpt>
      <trkpt lat="37.420368" lon="-111.048359"><ele>1273.0</ele></trkpt>
      <trkpt lat="37.420316" lon="-111.048230"><ele>1273.2</ele></trkpt>
      <trkpt lat="37.420074" lon="-111.047834"><ele>1275.2</ele></trkpt>
      <trkpt lat="37.419944" lon="-111.047734"><ele>1276.8</ele></trkpt>
      <trkpt lat="37.419862" lon="-111.047699"><ele>1277.8</ele></trkpt>
      <trkpt lat="37.419719" lon="-111.047694"><ele>1278.5</ele></trkpt>
      <trkpt lat="37.419404" lon="-111.047973"><ele>1277.8</ele></trkpt>
      <trkpt lat="37.419234" lon="-111.048208"><ele>1278.2</ele></trkpt>
      <trkpt lat="37.419108" lon="-111.048354"><ele>1281.2</ele></trkpt>
      <trkpt lat="37.418970" lon="-111.048499"><ele>1286.5</ele></trkpt>
      <trkpt lat="37.418523" lon="-111.048736"><ele>1311.2</ele></trkpt>
      <trkpt lat="37.418373" lon="-111.048722"><ele>1319.5</ele></trkpt>
      <trkpt lat="37.418292" lon="-111.048668"><ele>1321.5</ele></trkpt>
      <trkpt lat="37.418220" lon="-111.048488"><ele>1319.5</ele></trkpt>
      <trkpt lat="37.418199" lon="-111.048251"><ele>1316.0</ele></trkpt>
      <trkpt lat="37.418222" lon="-111.048052"><ele>1312.8</ele></trkpt>
      <trkpt lat="37.418297" lon="-111.047919"><ele>1309.0</ele></trkpt>
      <trkpt lat="37.418382" lon="-111.047833"><ele>1305.2</ele></trkpt>
      <trkpt lat="37.418603" lon="-111.047587"><ele>1296.2</ele></trkpt>
      <trkpt lat="37.418799" lon="-111.047447"><ele>1291.2</ele></trkpt>
      <trkpt lat="37.418995" lon="-111.047275"><ele>1289.0</ele></trkpt>
      <trkpt lat="37.419532" lon="-111.046943"><ele>1287.8</ele></trkpt>
      <trkpt lat="37.419788" lon="-111.046718"><ele>1288.2</ele></trkpt>
      <trkpt lat="37.420069" lon="-111.046589"><ele>1283.8</ele></trkpt>
      <trkpt lat="37.420201" lon="-111.046572"><ele>1281.5</ele></trkpt>
      <trkpt lat="37.420285" lon="-111.046533"><ele>1280.0</ele></trkpt>
      <trkpt lat="37.420349" lon="-111.046441"><ele>1278.5</ele></trkpt>
      <trkpt lat="37.420363" lon="-111.046341"><ele>1277.5</ele></trkpt>
      <trkpt lat="37.420364" lon="-111.046242"><ele>1276.8</ele></trkpt>
      <trkpt lat="37.420342" lon="-111.046052"><ele>1274.8</ele></trkpt>
      <trkpt lat="37.420232" lon="-111.045677"><ele>1269.0</ele></trkpt>
      <trkpt lat="37.419984" lon="-111.045191"><ele>1251.8</ele></trkpt>
      <trkpt lat="37.419824" lon="-111.045008"><ele>1252.5</ele></trkpt>
      <trkpt lat="37.419681" lon="-111.044945"><ele>1258.0</ele></trkpt>
      <trkpt lat="37.419560" lon="-111.044910"><ele>1262.0</ele></trkpt>
      <trkpt lat="37.419398" lon="-111.044970"><ele>1264.0</ele></trkpt>
      <trkpt lat="37.419259" lon="-111.045076"><ele>1267.2</ele></trkpt>
      <trkpt lat="37.419038" lon="-111.045312"><ele>1276.5</ele></trkpt>
      <trkpt lat="37.418855" lon="-111.045393"><ele>1284.5</ele></trkpt>
      <trkpt lat="37.418726" lon="-111.045376"><ele>1289.8</ele></trkpt>
      <trkpt lat="37.418642" lon="-111.045301"><ele>1292.8</ele></trkpt>
      <trkpt lat="37.418632" lon="-111.045178"><ele>1292.5</ele></trkpt>
      <trkpt lat="37.418670" lon="-111.044999"><ele>1289.8</ele></trkpt>
      <trkpt lat="37.418756" lon="-111.044787"><ele>1288.0</ele></trkpt>
      <trkpt lat="37.418995" lon="-111.044540"><ele>1284.0</ele></trkpt>
      <trkpt lat="37.419126" lon="-111.044364"><ele>1284.2</ele></trkpt>
      <trkpt lat="37.419295" lon="-111.044022"><ele>1288.0</ele></trkpt>
      <trkpt lat="37.419335" lon="-111.043802"><ele>1288.5</ele></trkpt>
      <trkpt lat="37.419314" lon="-111.043624"><ele>1289.2</ele></trkpt>
      <trkpt lat="37.419231" lon="-111.043500"><ele>1291.0</ele></trkpt>
      <trkpt lat="37.419107" lon="-111.043425"><ele>1293.0</ele></trkpt>
      <trkpt lat="37.418816" lon="-111.043317"><ele>1296.2</ele></trkpt>
      <trkpt lat="37.418561" lon="-111.043338"><ele>1298.8</ele></trkpt>
      <trkpt lat="37.418219" lon="-111.043387"><ele>1305.0</ele></trkpt>
      <trkpt lat="37.418067" lon="-111.043395"><ele>1310.5</ele></trkpt>
      <trkpt lat="37.417995" lon="-111.043351"><ele>1313.5</ele></trkpt>
      <trkpt lat="37.417958" lon="-111.043286"><ele>1314.8</ele></trkpt>
      <trkpt lat="37.417949" lon="-111.043198"><ele>1315.2</ele></trkpt>
      <trkpt lat="37.417977" lon="-111.043099"><ele>1314.5</ele></trkpt>
      <trkpt lat="37.418058" lon="-111.043038"><ele>1312.0</ele></trkpt>
      <trkpt lat="37.418274" lon="-111.042895"><ele>1307.0</ele></trkpt>
      <trkpt lat="37.418460" lon="-111.042834"><ele>1304.5</ele></trkpt>
      <trkpt lat="37.418685" lon="-111.042835"><ele>1301.2</ele></trkpt>
      <trkpt lat="37.419085" lon="-111.042896"><ele>1295.5</ele></trkpt>
      <trkpt lat="37.419132" lon="-111.042889"><ele>1293.8</ele></trkpt>
    </trkseg>
    <trkseg>
      <trkpt lat="37.419132" lon="-111.042889"><ele>1295.0</ele></trkpt>
      <trkpt lat="37.419256" lon="-111.042871"><ele>1293.8</ele></trkpt>
      <trkpt lat="37.419554" lon="-111.042787"><ele>1292.5</ele></trkpt>
      <trkpt lat="37.419760" lon="-111.042673"><ele>1293.2</ele></trkpt>
      <trkpt lat="37.419918" lon="-111.042539"><ele>1295.2</ele></trkpt>
      <trkpt lat="37.420015" lon="-111.042395"><ele>1292.2</ele></trkpt>
      <trkpt lat="37.420069" lon="-111.042254"><ele>1288.0</ele></trkpt>
      <trkpt lat="37.420086" lon="-111.041976"><ele>1280.2</ele></trkpt>
      <trkpt lat="37.420077" lon="-111.041697"><ele>1272.0</ele></trkpt>
      <trkpt lat="37.420032" lon="-111.041495"><ele>1264.5</ele></trkpt>
      <trkpt lat="37.419937" lon="-111.041339"><ele>1258.5</ele></trkpt>
      <trkpt lat="37.419813" lon="-111.041224"><ele>1256.2</ele></trkpt>
      <trkpt lat="37.419658" lon="-111.041122"><ele>1255.2</ele></trkpt>
      <trkpt lat="37.419332" lon="-111.041011"><ele>1257.2</ele></trkpt>
      <trkpt lat="37.419156" lon="-111.040973"><ele>1259.2</ele></trkpt>
      <trkpt lat="37.418901" lon="-111.040978"><ele>1260.8</ele></trkpt>
      <trkpt lat="37.418590" lon="-111.040956"><ele>1262.2</ele></trkpt>
      <trkpt lat="37.418288" lon="-111.040908"><ele>1263.5</ele></trkpt>
      <trkpt lat="37.417947" lon="-111.040908"><ele>1266.2</ele></trkpt>
      <trkpt lat="37.417589" lon="-111.040844"><ele>1268.2</ele></trkpt>
      <trkpt lat="37.417295" lon="-111.040768"><ele>1283.5</ele></trkpt>
      <trkpt lat="37.416946" lon="-111.040640"><ele>1307.0</ele></trkpt>
      <trkpt lat="37.416809" lon="-111.040545"><ele>1316.0</ele></trkpt>
      <trkpt lat="37.416716" lon="-111.040441"><ele>1322.0</ele></trkpt>
      <trkpt lat="37.416630" lon="-111.040328"><ele>1326.0</ele></trkpt>
      <trkpt lat="37.416567" lon="-111.040216"><ele>1327.8</ele></trkpt>
      <trkpt lat="37.416561" lon="-111.040088"><ele>1328.2</ele></trkpt>
      <trkpt lat="37.416601" lon="-111.039894"><ele>1328.8</ele></trkpt>
      <trkpt lat="37.416637" lon="-111.039770"><ele>1329.8</ele></trkpt>
      <trkpt lat="37.416703" lon="-111.039674"><ele>1329.0</ele></trkpt>
      <trkpt lat="37.416835" lon="-111.039545"><ele>1325.2</ele></trkpt>
      <trkpt lat="37.417031" lon="-111.039406"><ele>1319.8</ele></trkpt>
      <trkpt lat="37.417321" lon="-111.039320"><ele>1310.0</ele></trkpt>
      <trkpt lat="37.417568" lon="-111.039309"><ele>1302.0</ele></trkpt>
      <trkpt lat="37.417909" lon="-111.039427"><ele>1294.5</ele></trkpt>
      <trkpt lat="37.418160" lon="-111.039486"><ele>1290.2</ele></trkpt>
      <trkpt lat="37.418518" lon="-111.039551"><ele>1283.5</ele></trkpt>
      <trkpt lat="37.418671" lon="-111.039510"><ele>1280.2</ele></trkpt>
      <trkpt lat="37.418927" lon="-111.039395"><ele>1276.5</ele></trkpt>
      <trkpt lat="37.419249" lon="-111.039107"><ele>1275.0</ele></trkpt>
      <trkpt lat="37.419293" lon="-111.038989"><ele>1270.5</ele></trkpt>
      <trkpt lat="37.419307" lon="-111.038895"><ele>1267.2</ele></trkpt>
      <trkpt lat="37.419285" lon="-111.038734"><ele>1261.0</ele></trkpt>
      <trkpt lat="37.419191" lon="-111.038537"><ele>1250.0</ele></trkpt>
      <trkpt lat="37.419106" lon="-111.038322"><ele>1241.2</ele></trkpt>
      <trkpt lat="37.418991" lon="-111.038102"><ele>1244.5</ele></trkpt>
      <trkpt lat="37.418757" lon="-111.037705"><ele>1243.8</ele></trkpt>
      <trkpt lat="37.418660" lon="-111.037583"><ele>1241.2</ele></trkpt>
      <trkpt lat="37.418424" lon="-111.037255"><ele>1239.8</ele></trkpt>
      <trkpt lat="37.418194" lon="-111.037008"><ele>1240.0</ele></trkpt>
      <trkpt lat="37.417922" lon="-111.036772"><ele>1238.8</ele></trkpt>
      <trkpt lat="37.417683" lon="-111.036611"><ele>1234.8</ele></trkpt>
      <trkpt lat="37.417402" lon="-111.036407"><ele>1238.2</ele></trkpt>
      <trkpt lat="37.417095" lon="-111.036236"><ele>1252.0</ele></trkpt>
      <trkpt lat="37.416865" lon="-111.035978"><ele>1250.8</ele></trkpt>
      <trkpt lat="37.416677" lon="-111.035646"><ele>1244.8</ele></trkpt>
      <trkpt lat="37.416550" lon="-111.035313"><ele>1244.2</ele></trkpt>
      <trkpt lat="37.416541" lon="-111.034862"><ele>1243.2</ele></trkpt>
      <trkpt lat="37.416524" lon="-111.034530"><ele>1251.2</ele></trkpt>
      <trkpt lat="37.416413" lon="-111.034294"><ele>1253.5</ele></trkpt>
      <trkpt lat="37.416243" lon="-111.034229"><ele>1248.2</ele></trkpt>
      <trkpt lat="37.415987" lon="-111.034229"><ele>1239.0</ele></trkpt>
      <trkpt lat="37.415885" lon="-111.034240"><ele>1235.5</ele></trkpt>
      <trkpt lat="37.415723" lon="-111.034422"><ele>1244.8</ele></trkpt>
      <trkpt lat="37.415425" lon="-111.034519"><ele>1265.8</ele></trkpt>
      <trkpt lat="37.414990" lon="-111.034648"><ele>1296.0</ele></trkpt>
      <trkpt lat="37.414752" lon="-111.034605"><ele>1310.5</ele></trkpt>
      <trkpt lat="37.414641" lon="-111.034433"><ele>1315.8</ele></trkpt>
      <trkpt lat="37.414666" lon="-111.034143"><ele>1310.2</ele></trkpt>
      <trkpt lat="37.414786" lon="-111.033886"><ele>1297.8</ele></trkpt>
      <trkpt lat="37.414939" lon="-111.033618"><ele>1281.0</ele></trkpt>
      <trkpt lat="37.415212" lon="-111.033510"><ele>1266.8</ele></trkpt>
      <trkpt lat="37.415450" lon="-111.033457"><ele>1259.0</ele></trkpt>
      <trkpt lat="37.415638" lon="-111.033167"><ele>1253.2</ele></trkpt>
      <trkpt lat="37.415629" lon="-111.032792"><ele>1249.5</ele></trkpt>
      <trkpt lat="37.415408" lon="-111.032545"><ele>1249.0</ele></trkpt>
      <trkpt lat="37.415391" lon="-111.032421"><ele>1249.5</ele></trkpt>
      <trkpt lat="37.415399" lon="-111.032330"><ele>1250.5</ele></trkpt>
      <trkpt lat="37.415561" lon="-111.032148"><ele>1249.8</ele></trkpt>
      <trkpt lat="37.415642" lon="-111.032046"><ele>1248.8</ele></trkpt>
      <trkpt lat="37.415762" lon="-111.032022"><ele>1246.2</ele></trkpt>
      <trkpt lat="37.415916" lon="-111.032079"><ele>1244.5</ele></trkpt>
      <trkpt lat="37.416166" lon="-111.032148"><ele>1244.8</ele></trkpt>
      <trkpt lat="37.416299" lon="-111.032101"><ele>1243.8</ele></trkpt>
      <trkpt lat="37.416388" lon="-111.031998"><ele>1241.5</ele></trkpt>
      <trkpt lat="37.416567" lon="-111.031764"><ele>1234.2</ele></trkpt>
      <trkpt lat="37.416677" lon="-111.031569"><ele>1229.2</ele></trkpt>
      <trkpt lat="37.416925" lon="-111.031182"><ele>1228.5</ele></trkpt>
      <trkpt lat="37.417231" lon="-111.030485"><ele>1226.0</ele></trkpt>
      <trkpt lat="37.417285" lon="-111.030246"><ele>1225.8</ele></trkpt>
      <trkpt lat="37.417273" lon="-111.030015"><ele>1225.2</ele></trkpt>
      <trkpt lat="37.417237" lon="-111.029742"><ele>1229.2</ele></trkpt>
      <trkpt lat="37.417206" lon="-111.029594"><ele>1231.2</ele></trkpt>
      <trkpt lat="37.417129" lon="-111.029374"><ele>1232.5</ele></trkpt>
      <trkpt lat="37.417047" lon="-111.029189"><ele>1232.5</ele></trkpt>
      <trkpt lat="37.416916" lon="-111.029069"><ele>1229.5</ele></trkpt>
      <trkpt lat="37.416635" lon="-111.028790"><ele>1224.5</ele></trkpt>
      <trkpt lat="37.416158" lon="-111.028522"><ele>1231.0</ele></trkpt>
      <trkpt lat="37.416050" lon="-111.028370"><ele>1230.0</ele></trkpt>
      <trkpt lat="37.415977" lon="-111.028192"><ele>1230.8</ele></trkpt>
      <trkpt lat="37.415950" lon="-111.028074"><ele>1231.8</ele></trkpt>
      <trkpt lat="37.415954" lon="-111.027979"><ele>1232.8</ele></trkpt>
      <trkpt lat="37.415972" lon="-111.027927"><ele>1233.0</ele></trkpt>
      <trkpt lat="37.416016" lon="-111.027905"><ele>1233.2</ele></trkpt>
      <trkpt lat="37.416052" lon="-111.027915"><ele>1233.0</ele></trkpt>
      <trkpt lat="37.416092" lon="-111.027965"><ele>1232.5</ele></trkpt>
      <trkpt lat="37.416175" lon="-111.028000"><ele>1232.0</ele></trkpt>
      <trkpt lat="37.416272" lon="-111.028006"><ele>1232.0</ele></trkpt>
      <trkpt lat="37.416330" lon="-111.027996"><ele>1231.8</ele></trkpt>
      <trkpt lat="37.416380" lon="-111.027959"><ele>1232.0</ele></trkpt>
      <trkpt lat="37.416410" lon="-111.027887"><ele>1232.5</ele></trkpt>
      <trkpt lat="37.416429" lon="-111.027729"><ele>1233.8</ele></trkpt>
      <trkpt lat="37.416429" lon="-111.027612"><ele>1234.5</ele></trkpt>
      <trkpt lat="37.416418" lon="-111.027551"/>
      <trkpt lat="37.416311" lon="-111.026944"/>
      <trkpt lat="37.416319" lon="-111.026817"/>
      <trkpt lat="37.416354" lon="-111.026682"/>
      <trkpt lat="37.416513" lon="-111.026574"/>
      <trkpt lat="37.416639" lon="-111.026526"/>
      <trkpt lat="37.416755" lon="-111.026404"/>
      <trkpt lat="37.416839" lon="-111.026258"/>
      <trkpt lat="37.416891" lon="-111.025861"/>
      <trkpt lat="37.416848" lon="-111.025453"/>
      <trkpt lat="37.416626" lon="-111.025303"/>
      <trkpt lat="37.416558" lon="-111.025185"/>
      <trkpt lat="37.416447" lon="-111.024960"/>
      <trkpt lat="37.416345" lon="-111.024552"/>
      <trkpt lat="37.416209" lon="-111.024294"/>
      <trkpt lat="37.416038" lon="-111.024155"/>
      <trkpt lat="37.415808" lon="-111.024219"/>
      <trkpt lat="37.415536" lon="-111.024412"/>
      <trkpt lat="37.415263" lon="-111.024327"/>
      <trkpt lat="37.415135" lon="-111.024166"/>
      <trkpt lat="37.414862" lon="-111.023898"/>
      <trkpt lat="37.414736" lon="-111.023674"/>
      <trkpt lat="37.414494" lon="-111.023385"/>
      <trkpt lat="37.414157" lon="-111.023126"/>
      <trkpt lat="37.413967" lon="-111.022951"/>
      <trkpt lat="37.413806" lon="-111.022857"/>
      <trkpt lat="37.413516" lon="-111.022739"/>
      <trkpt lat="37.413175" lon="-111.022589"/>
      <trkpt lat="37.412937" lon="-111.022406"/>
      <trkpt lat="37.412885" lon="-111.022138"/>
      <trkpt lat="37.413235" lon="-111.021827"/>
      <trkpt lat="37.413473" lon="-111.021720"/>
      <trkpt lat="37.413678" lon="-111.021473"/>
      <trkpt lat="37.413797" lon="-111.021162"/>
      <trkpt lat="37.414019" lon="-111.020936"/>
      <trkpt lat="37.414181" lon="-111.020936"/>
      <trkpt lat="37.414470" lon="-111.021076"/>
      <trkpt lat="37.414811" lon="-111.021054"/>
      <trkpt lat="37.415161" lon="-111.020850"/>
      <trkpt lat="37.415357" lon="-111.020625"/>
      <trkpt lat="37.415410" lon="-111.020399"/>
      <trkpt lat="37.415425" lon="-111.020336"/>
      <trkpt lat="37.415408" lon="-111.019992"/>
      <trkpt lat="37.415169" lon="-111.019745"/>
      <trkpt lat="37.414982" lon="-111.019584"/>
      <trkpt lat="37.414965" lon="-111.019349"/>
      <trkpt lat="37.415007" lon="-111.018866"/>
      <trkpt lat="37.415058" lon="-111.018554"/>
      <trkpt lat="37.415195" lon="-111.018125"/>
      <trkpt lat="37.415203" lon="-111.017846"/>
      <trkpt lat="37.415161" lon="-111.017546"/>
      <trkpt lat="37.415203" lon="-111.017224"/>
      <trkpt lat="37.415306" lon="-111.017106"/>
      <trkpt lat="37.415484" lon="-111.017256"/>
      <trkpt lat="37.415595" lon="-111.017492"/>
      <trkpt lat="37.415672" lon="-111.017836"/>
      <trkpt lat="37.415766" lon="-111.017997"/>
      <trkpt lat="37.416092" lon="-111.018243"/>
      <trkpt lat="37.416192" lon="-111.018319"/>
      <trkpt lat="37.416405" lon="-111.018458"/>
      <trkpt lat="37.416711" lon="-111.018587"/>
      <trkpt lat="37.417001" lon="-111.018662"/>
      <trkpt lat="37.417189" lon="-111.018608"/>
      <trkpt lat="37.417299" lon="-111.018265"/>
      <trkpt lat="37.417342" lon="-111.017900"/>
      <trkpt lat="37.417368" lon="-111.017600"/>
      <trkpt lat="37.417461" lon="-111.017278"/>
      <trkpt lat="37.417402" lon="-111.016902"/>
      <trkpt lat="37.417257" lon="-111.016473"/>
      <trkpt lat="37.417189" lon="-111.016001"/>
      <trkpt lat="37.417248" lon="-111.015625"/>
      <trkpt lat="37.417282" lon="-111.015325"/>
      <trkpt lat="37.417189" lon="-111.014960"/>
      <trkpt lat="37.417078" lon="-111.014553"/>
      <trkpt lat="37.417035" lon="-111.014188"/>
      <trkpt lat="37.416993" lon="-111.013812"/>
      <trkpt lat="37.416908" lon="-111.013405"/>
      <trkpt lat="37.416711" lon="-111.012836"/>
      <trkpt lat="37.416567" lon="-111.012257"/>
      <trkpt lat="37.416578" lon="-111.012023"/>
      <trkpt lat="37.416584" lon="-111.011903"/>
      <trkpt lat="37.416763" lon="-111.011720"/>
      <trkpt lat="37.417027" lon="-111.011677"/>
      <trkpt lat="37.417393" lon="-111.011431"/>
      <trkpt lat="37.417564" lon="-111.011162"/>
      <trkpt lat="37.417564" lon="-111.010894"/>
      <trkpt lat="37.417615" lon="-111.010347"/>
      <trkpt lat="37.417504" lon="-111.010025"/>
      <trkpt lat="37.417478" lon="-111.009639"/>
      <trkpt lat="37.417478" lon="-111.009467"/>
      <trkpt lat="37.417436" lon="-111.009274"/>
      <trkpt lat="37.417248" lon="-111.008662"/>
      <trkpt lat="37.417095" lon="-111.008534"/>
      <trkpt lat="37.416686" lon="-111.008319"/>
      <trkpt lat="37.416303" lon="-111.008223"/>
      <trkpt lat="37.415962" lon="-111.008180"/>
      <trkpt lat="37.415714" lon="-111.007912"/>
      <trkpt lat="37.415536" lon="-111.007472"/>
      <trkpt lat="37.415527" lon="-111.007053"/>
      <trkpt lat="37.415698" lon="-111.006914"/>
      <trkpt lat="37.415928" lon="-111.006796"/>
      <trkpt lat="37.416209" lon="-111.006774"/>
      <trkpt lat="37.416516" lon="-111.006764"/>
      <trkpt lat="37.416891" lon="-111.006914"/>
      <trkpt lat="37.417163" lon="-111.007193"/>
      <trkpt lat="37.417564" lon="-111.007536"/>
      <trkpt lat="37.417887" lon="-111.007869"/>
      <trkpt lat="37.418135" lon="-111.008062"/>
      <trkpt lat="37.418339" lon="-111.008169"/>
      <trkpt lat="37.418492" lon="-111.007997"/>
      <trkpt lat="37.418706" lon="-111.007804"/>
      <trkpt lat="37.419046" lon="-111.007761"/>
      <trkpt lat="37.419140" lon="-111.007708"/>
      <trkpt lat="37.419191" lon="-111.007289"/>
      <trkpt lat="37.419225" lon="-111.006817"/>
      <trkpt lat="37.419038" lon="-111.006517"/>
      <trkpt lat="37.418663" lon="-111.006410"/>
      <trkpt lat="37.418254" lon="-111.006216"/>
      <trkpt lat="37.417930" lon="-111.005991"/>
      <trkpt lat="37.417862" lon="-111.005626"/>
      <trkpt lat="37.417947" lon="-111.005036"/>
      <trkpt lat="37.418101" lon="-111.004510"/>
      <trkpt lat="37.418194" lon="-111.004221"/>
      <trkpt lat="37.418143" lon="-111.004081"/>
      <trkpt lat="37.418041" lon="-111.003974"/>
      <trkpt lat="37.418015" lon="-111.003588"/>
      <trkpt lat="37.417981" lon="-111.003062"/>
      <trkpt lat="37.418126" lon="-111.002858"/>
      <trkpt lat="37.418365" lon="-111.002719"/>
      <trkpt lat="37.418603" lon="-111.002547"/>
      <trkpt lat="37.418808" lon="-111.002418"/>
      <trkpt lat="37.419200" lon="-111.002354"/>
      <trkpt lat="37.419515" lon="-111.002214"/>
      <trkpt lat="37.419847" lon="-111.002032"/>
      <trkpt lat="37.420026" lon="-111.001925"/>
      <trkpt lat="37.420256" lon="-111.002021"/>
      <trkpt lat="37.420614" lon="-111.001968"/>
      <trkpt lat="37.420853" lon="-111.002075"/>
      <trkpt lat="37.421032" lon="-111.002279"/>
      <trkpt lat="37.421185" lon="-111.002536"/>
      <trkpt lat="37.421407" lon="-111.002751"/>
      <trkpt lat="37.421756" lon="-111.002966"/>
      <trkpt lat="37.422029" lon="-111.002815"/>
      <trkpt lat="37.422284" lon="-111.002418"/>
      <trkpt lat="37.422463" lon="-111.002011"/>
      <trkpt lat="37.422455" lon="-111.001614"/>
      <trkpt lat="37.422327" lon="-111.001281"/>
      <trkpt lat="37.422250" lon="-111.000831"/>
      <trkpt lat="37.422284" lon="-111.000594"/>
      <trkpt lat="37.422386" lon="-111.000283"/>
      <trkpt lat="37.422523" lon="-110.999994"/>
      <trkpt lat="37.422778" lon="-110.999790"/>
      <trkpt lat="37.422991" lon="-110.999511"/>
      <trkpt lat="37.423145" lon="-110.999264"/>
      <trkpt lat="37.423273" lon="-110.999017"/>
      <trkpt lat="37.423392" lon="-110.998835"/>
      <trkpt lat="37.423460" lon="-110.998674"/>
      <trkpt lat="37.423503" lon="-110.998331"/>
      <trkpt lat="37.423579" lon="-110.998127"/>
      <trkpt lat="37.423673" lon="-110.998019"/>
      <trkpt lat="37.423716" lon="-110.997794"/>
      <trkpt lat="37.423716" lon="-110.997590"/>
      <trkpt lat="37.423665" lon="-110.997483"/>
      <trkpt lat="37.423545" lon="-110.997344"/>
      <trkpt lat="37.423375" lon="-110.997108"/>
      <trkpt lat="37.423264" lon="-110.996925"/>
      <trkpt lat="37.423221" lon="-110.996721"/>
      <trkpt lat="37.423153" lon="-110.996496"/>
      <trkpt lat="37.423085" lon="-110.996153"/>
      <trkpt lat="37.423085" lon="-110.995874"/>
      <trkpt lat="37.423179" lon="-110.995681"/>
      <trkpt lat="37.423349" lon="-110.995605"/>
      <trkpt lat="37.423545" lon="-110.995627"/>
      <trkpt lat="37.423724" lon="-110.995638"/>
      <trkpt lat="37.423920" lon="-110.995584"/>
      <trkpt lat="37.423997" lon="-110.995423"/>
      <trkpt lat="37.424065" lon="-110.995198"/>
      <trkpt lat="37.424048" lon="-110.994983"/>
      <trkpt lat="37.423954" lon="-110.994769"/>
      <trkpt lat="37.423878" lon="-110.994597"/>
      <trkpt lat="37.423843" lon="-110.994275"/>
      <trkpt lat="37.423826" lon="-110.994082"/>
      <trkpt lat="37.423903" lon="-110.993932"/>
      <trkpt lat="37.424039" lon="-110.993846"/>
      <trkpt lat="37.424218" lon="-110.993889"/>
      <trkpt lat="37.424397" lon="-110.994018"/>
      <trkpt lat="37.424551" lon="-110.994168"/>
      <trkpt lat="37.424695" lon="-110.994415"/>
      <trkpt lat="37.424892" lon="-110.994608"/>
      <trkpt lat="37.425113" lon="-110.994779"/>
      <trkpt lat="37.425292" lon="-110.994812"/>
      <trkpt lat="37.425454" lon="-110.994672"/>
      <trkpt lat="37.425590" lon="-110.994458"/>
      <trkpt lat="37.425658" lon="-110.994200"/>
      <trkpt lat="37.425718" lon="-110.993985"/>
      <trkpt lat="37.425684" lon="-110.993803"/>
      <trkpt lat="37.425701" lon="-110.993685"/>
      <trkpt lat="37.425761" lon="-110.993374"/>
      <trkpt lat="37.425803" lon="-110.993116"/>
      <trkpt lat="37.425897" lon="-110.992859"/>
      <trkpt lat="37.425948" lon="-110.992569"/>
      <trkpt lat="37.425948" lon="-110.992258"/>
      <trkpt lat="37.425888" lon="-110.991883"/>
      <trkpt lat="37.425905" lon="-110.991561"/>
      <trkpt lat="37.425973" lon="-110.991250"/>
      <trkpt lat="37.426118" lon="-110.991046"/>
      <trkpt lat="37.426280" lon="-110.990906"/>
      <trkpt lat="37.426434" lon="-110.990810"/>
      <trkpt lat="37.426587" lon="-110.990713"/>
      <trkpt lat="37.426723" lon="-110.990509"/>
      <trkpt lat="37.426825" lon="-110.990241"/>
      <trkpt lat="37.426885" lon="-110.989973"/>
      <trkpt lat="37.426945" lon="-110.989672"/>
      <trkpt lat="37.426987" lon="-110.989265"/>
      <trkpt lat="37.427056" lon="-110.988997"/>
      <trkpt lat="37.427217" lon="-110.988889"/>
      <trkpt lat="37.427337" lon="-110.988879"/>
      <trkpt lat="37.427456" lon="-110.988954"/>
      <trkpt lat="37.427592" lon="-110.989072"/>
      <trkpt lat="37.427729" lon="-110.989158"/>
      <trkpt lat="37.427899" lon="-110.989190"/>
      <trkpt lat="37.428129" lon="-110.989200"/>
      <trkpt lat="37.428248" lon="-110.989029"/>
      <trkpt lat="37.428334" lon="-110.988804"/>
      <trkpt lat="37.428419" lon="-110.988342"/>
      <trkpt lat="37.428444" lon="-110.987945"/>
      <trkpt lat="37.428410" lon="-110.987698"/>
      <trkpt lat="37.428231" lon="-110.987044"/>
      <trkpt lat="37.428223" lon="-110.986701"/>
      <trkpt lat="37.428146" lon="-110.986454"/>
      <trkpt lat="37.428125" lon="-110.986110"/>
      <trkpt lat="37.428189" lon="-110.985810"/>
      <trkpt lat="37.428393" lon="-110.985606"/>
      <trkpt lat="37.428615" lon="-110.985445"/>
      <trkpt lat="37.428828" lon="-110.985392"/>
      <trkpt lat="37.428896" lon="-110.985134"/>
      <trkpt lat="37.428836" lon="-110.984909"/>
      <trkpt lat="37.428777" lon="-110.984780"/>
      <trkpt lat="37.428794" lon="-110.984630"/>
      <trkpt lat="37.428922" lon="-110.984330"/>
      <trkpt lat="37.428947" lon="-110.984018"/>
      <trkpt lat="37.428947" lon="-110.983836"/>
      <trkpt lat="37.429032" lon="-110.983600"/>
      <trkpt lat="37.428939" lon="-110.983375"/>
      <trkpt lat="37.428862" lon="-110.982892"/>
      <trkpt lat="37.428768" lon="-110.982570"/>
      <trkpt lat="37.428598" lon="-110.982334"/>
      <trkpt lat="37.428632" lon="-110.982034"/>
      <trkpt lat="37.428751" lon="-110.981797"/>
      <trkpt lat="37.428930" lon="-110.981690"/>
      <trkpt lat="37.428896" lon="-110.981476"/>
      <trkpt lat="37.428598" lon="-110.981283"/>
      <trkpt lat="37.428393" lon="-110.981175"/>
      <trkpt lat="37.428214" lon="-110.981100"/>
      <trkpt lat="37.427848" lon="-110.980961"/>
      <trkpt lat="37.427665" lon="-110.980862"/>
    </trkseg>
    <trkseg>
      <trkpt lat="37.427665" lon="-110.980862"/>
      <trkpt lat="37.427848" lon="-110.980961"/>
      <trkpt lat="37.428214" lon="-110.981100"/>
      <trkpt lat="37.428393" lon="-110.981175"/>
      <trkpt lat="37.428598" lon="-110.981283"/>
      <trkpt lat="37.428896" lon="-110.981476"/>
      <trkpt lat="37.428930" lon="-110.981690"/>
      <trkpt lat="37.428751" lon="-110.981797"/>
      <trkpt lat="37.428632" lon="-110.982034"/>
      <trkpt lat="37.428598" lon="-110.982334"/>
      <trkpt lat="37.428768" lon="-110.982570"/>
      <trkpt lat="37.428862" lon="-110.982892"/>
      <trkpt lat="37.428939" lon="-110.983375"/>
      <trkpt lat="37.429032" lon="-110.983600"/>
      <trkpt lat="37.428947" lon="-110.983836"/>
      <trkpt lat="37.428947" lon="-110.984018"/>
      <trkpt lat="37.428922" lon="-110.984330"/>
      <trkpt lat="37.428794" lon="-110.984630"/>
      <trkpt lat="37.428777" lon="-110.984780"/>
      <trkpt lat="37.428836" lon="-110.984909"/>
      <trkpt lat="37.428896" lon="-110.985134"/>
      <trkpt lat="37.428828" lon="-110.985392"/>
      <trkpt lat="37.428615" lon="-110.985445"/>
      <trkpt lat="37.428393" lon="-110.985606"/>
      <trkpt lat="37.428189" lon="-110.985810"/>
      <trkpt lat="37.428125" lon="-110.986110"/>
      <trkpt lat="37.428146" lon="-110.986454"/>
      <trkpt lat="37.428223" lon="-110.986701"/>
      <trkpt lat="37.428231" lon="-110.987044"/>
      <trkpt lat="37.428410" lon="-110.987698"/>
      <trkpt lat="37.428410" lon="-110.987698"><ele>1173.5</ele></trkpt>
      <trkpt lat="37.428295" lon="-110.987582"><ele>1165.5</ele></trkpt>
      <trkpt lat="37.428271" lon="-110.987683"><ele>1166.5</ele></trkpt>
      <trkpt lat="37.428110" lon="-110.987489"><ele>1170.8</ele></trkpt>
      <trkpt lat="37.428101" lon="-110.987512"><ele>1171.2</ele></trkpt>
      <trkpt lat="37.428088" lon="-110.987546"><ele>1171.8</ele></trkpt>
      <trkpt lat="37.427902" lon="-110.987309"><ele>1176.8</ele></trkpt>
      <trkpt lat="37.427719" lon="-110.987127"><ele>1181.8</ele></trkpt>
      <trkpt lat="37.427608" lon="-110.986951"><ele>1184.2</ele></trkpt>
      <trkpt lat="37.427459" lon="-110.986848"><ele>1188.8</ele></trkpt>
      <trkpt lat="37.427323" lon="-110.986714"><ele>1194.5</ele></trkpt>
      <trkpt lat="37.427033" lon="-110.986365"><ele>1205.5</ele></trkpt>
      <trkpt lat="37.427003" lon="-110.986108"><ele>1204.2</ele></trkpt>
      <trkpt lat="37.426871" lon="-110.986059"><ele>1207.5</ele></trkpt>
      <trkpt lat="37.426531" lon="-110.986070"><ele>1216.5</ele></trkpt>
      <trkpt lat="37.426390" lon="-110.986129"><ele>1220.8</ele></trkpt>
      <trkpt lat="37.426151" lon="-110.986032"><ele>1225.0</ele></trkpt>
      <trkpt lat="37.425849" lon="-110.985995"><ele>1231.8</ele></trkpt>
      <trkpt lat="37.425483" lon="-110.986027"><ele>1231.8</ele></trkpt>
      <trkpt lat="37.425052" lon="-110.986113"><ele>1232.0</ele></trkpt>
      <trkpt lat="37.424950" lon="-110.986102"><ele>1232.2</ele></trkpt>
      <trkpt lat="37.424835" lon="-110.986129"><ele>1234.0</ele></trkpt>
      <trkpt lat="37.424452" lon="-110.986129"><ele>1238.5</ele></trkpt>
      <trkpt lat="37.424298" lon="-110.986220"><ele>1242.0</ele></trkpt>
      <trkpt lat="37.424043" lon="-110.986285"><ele>1246.0</ele></trkpt>
      <trkpt lat="37.423817" lon="-110.986327"><ele>1248.8</ele></trkpt>
      <trkpt lat="37.423493" lon="-110.986338"><ele>1251.2</ele></trkpt>
      <trkpt lat="37.423306" lon="-110.986390"><ele>1254.2</ele></trkpt>
      <trkpt lat="37.423152" lon="-110.986386"><ele>1258.0</ele></trkpt>
      <trkpt lat="37.422926" lon="-110.986247"><ele>1260.2</ele></trkpt>
      <trkpt lat="37.422816" lon="-110.986209"><ele>1262.0</ele></trkpt>
      <trkpt lat="37.422684" lon="-110.986108"><ele>1262.5</ele></trkpt>
      <trkpt lat="37.422424" lon="-110.986038"><ele>1266.2</ele></trkpt>
      <trkpt lat="37.422253" lon="-110.986016"><ele>1269.5</ele></trkpt>
      <trkpt lat="37.422130" lon="-110.985920"><ele>1269.8</ele></trkpt>
      <trkpt lat="37.421908" lon="-110.985914"><ele>1274.5</ele></trkpt>
      <trkpt lat="37.421525" lon="-110.985866"><ele>1282.8</ele></trkpt>
      <trkpt lat="37.420937" lon="-110.985947"><ele>1301.0</ele></trkpt>
      <trkpt lat="37.420762" lon="-110.985925"><ele>1305.2</ele></trkpt>
      <trkpt lat="37.420507" lon="-110.985957"><ele>1313.8</ele></trkpt>
      <trkpt lat="37.420375" lon="-110.986032"><ele>1319.5</ele></trkpt>
      <trkpt lat="37.420151" lon="-110.986024"><ele>1326.0</ele></trkpt>
      <trkpt lat="37.419908" lon="-110.985890"><ele>1328.8</ele></trkpt>
      <trkpt lat="37.419489" lon="-110.985582"><ele>1337.2</ele></trkpt>
      <trkpt lat="37.419241" lon="-110.985328"><ele>1346.2</ele></trkpt>
      <trkpt lat="37.419170" lon="-110.984985"><ele>1349.2</ele></trkpt>
      <trkpt lat="37.419042" lon="-110.985479"><ele>1349.2</ele></trkpt>
      <trkpt lat="37.418993" lon="-110.985538"><ele>1349.2</ele></trkpt>
      <trkpt lat="37.418773" lon="-110.985966"><ele>1350.5</ele></trkpt>
      <trkpt lat="37.418687" lon="-110.986258"><ele>1352.2</ele></trkpt>
      <trkpt lat="37.418351" lon="-110.986590"><ele>1353.8</ele></trkpt>
      <trkpt lat="37.417648" lon="-110.987658"><ele>1358.2</ele></trkpt>
      <trkpt lat="37.417511" lon="-110.987706"><ele>1359.0</ele></trkpt>
      <trkpt lat="37.417303" lon="-110.987931"><ele>1359.5</ele></trkpt>
      <trkpt lat="37.417175" lon="-110.988173"><ele>1359.8</ele></trkpt>
      <trkpt lat="37.417171" lon="-110.988430"><ele>1359.8</ele></trkpt>
      <trkpt lat="37.417107" lon="-110.988752"><ele>1359.8</ele></trkpt>
      <trkpt lat="37.416817" lon="-110.989342"><ele>1358.8</ele></trkpt>
      <trkpt lat="37.416391" lon="-110.990029"><ele>1356.5</ele></trkpt>
      <trkpt lat="37.415833" lon="-110.990619"><ele>1353.8</ele></trkpt>
      <trkpt lat="37.415155" lon="-110.991096"><ele>1354.2</ele></trkpt>
      <trkpt lat="37.414559" lon="-110.991998"><ele>1354.5</ele></trkpt>
      <trkpt lat="37.414410" lon="-110.992094"><ele>1354.8</ele></trkpt>
      <trkpt lat="37.414342" lon="-110.992191"><ele>1355.0</ele></trkpt>
      <trkpt lat="37.414350" lon="-110.992411"><ele>1355.8</ele></trkpt>
      <trkpt lat="37.414197" lon="-110.992507"><ele>1356.0</ele></trkpt>
      <trkpt lat="37.414060" lon="-110.992749"><ele>1354.2</ele></trkpt>
      <trkpt lat="37.413809" lon="-110.993108"><ele>1351.2</ele></trkpt>
      <trkpt lat="37.413621" lon="-110.993130"><ele>1349.8</ele></trkpt>
      <trkpt lat="37.413379" lon="-110.993387"><ele>1347.2</ele></trkpt>
      <trkpt lat="37.413191" lon="-110.993741"><ele>1346.5</ele></trkpt>
      <trkpt lat="37.412880" lon="-110.994036"><ele>1345.5</ele></trkpt>
      <trkpt lat="37.412722" lon="-110.994342"><ele>1345.2</ele></trkpt>
      <trkpt lat="37.412437" lon="-110.994441"><ele>1345.0</ele></trkpt>
      <trkpt lat="37.411844" lon="-110.994314"><ele>1346.2</ele></trkpt>
      <trkpt lat="37.411364" lon="-110.994197"><ele>1346.8</ele></trkpt>
      <trkpt lat="37.410847" lon="-110.994433"><ele>1348.5</ele></trkpt>
      <trkpt lat="37.410257" lon="-110.994805"><ele>1348.2</ele></trkpt>
      <trkpt lat="37.409899" lon="-110.995287"><ele>1347.0</ele></trkpt>
      <trkpt lat="37.409302" lon="-110.996015"><ele>1345.0</ele></trkpt>
      <trkpt lat="37.408963" lon="-110.996711"><ele>1344.0</ele></trkpt>
      <trkpt lat="37.408529" lon="-110.997707"><ele>1344.0</ele></trkpt>
      <trkpt lat="37.407586" lon="-110.999810"><ele>1346.8</ele></trkpt>
      <trkpt lat="37.407006" lon="-111.001217"><ele>1353.0</ele></trkpt>
      <trkpt lat="37.406250" lon="-111.002777"><ele>1356.2</ele></trkpt>
      <trkpt lat="37.405936" lon="-111.003945"><ele>1364.8</ele></trkpt>
      <trkpt lat="37.405407" lon="-111.005296"><ele>1378.5</ele></trkpt>
      <trkpt lat="37.404986" lon="-111.005960"><ele>1388.0</ele></trkpt>
      <trkpt lat="37.404678" lon="-111.006537"><ele>1396.2</ele></trkpt>
      <trkpt lat="37.404640" lon="-111.007186"><ele>1404.8</ele></trkpt>
      <trkpt lat="37.404571" lon="-111.007407"><ele>1407.2</ele></trkpt>
      <trkpt lat="37.404596" lon="-111.007739"><ele>1411.5</ele></trkpt>
      <trkpt lat="37.404433" lon="-111.008360"><ele>1419.2</ele></trkpt>
      <trkpt lat="37.404378" lon="-111.008536"><ele>1420.2</ele></trkpt>
      <trkpt lat="37.404348" lon="-111.008600"><ele>1420.5</ele></trkpt>
      <trkpt lat="37.404307" lon="-111.008656"><ele>1420.8</ele></trkpt>
      <trkpt lat="37.404247" lon="-111.008706"><ele>1421.0</ele></trkpt>
      <trkpt lat="37.404037" lon="-111.008807"><ele>1421.8</ele></trkpt>
      <trkpt lat="37.403764" lon="-111.008887"><ele>1422.8</ele></trkpt>
      <trkpt lat="37.403726" lon="-111.008902"><ele>1422.8</ele></trkpt>
    </trkseg>
  </trk>
</gpx>
