<?xml version="1.0" encoding="UTF-8"?>
<gpx version="1.1" creator="pathbeaters26" xmlns="http://www.topografix.com/GPX/1/1" xmlns:xsi="http://www.w3.org/2001/XMLSchema-instance" xsi:schemaLocation="http://www.topografix.com/GPX/1/1 http://www.topografix.com/GPX/1/1/gpx.xsd">
  <metadata><name>Death Hollow Loop (Boulder Mail Trail → Escalante River)</name></metadata>
  <wpt lat="37.884185" lon="-111.464391">
    <ele>2068.2</ele>
    <name>Boulder Mail Trailhead</name>
    <desc>Hells Backbone Road near Boulder; free self-issue permit</desc>
  </wpt>
  <wpt lat="37.862425" lon="-111.490056">
    <ele>1872.0</ele>
    <name>Sand Creek crossing</name>
    <desc>First water on the Boulder Mail Trail</desc>
  </wpt>
  <wpt lat="37.843526" lon="-111.518807">
    <ele>1790.8</ele>
    <name>Fri camp · Death Hollow</name>
    <desc>Where the Boulder Mail Trail drops into Death Hollow</desc>
  </wpt>
  <wpt lat="37.812504" lon="-111.520241">
    <name>Mamie Creek confluence</name>
    <desc>Death Hollow picks up Mamie Creek</desc>
  </wpt>
  <wpt lat="37.781182" lon="-111.505277">
    <ele>1669.5</ele>
    <name>Sat camp · Escalante River at Death Hollow</name>
    <desc>Death Hollow / Escalante River confluence</desc>
  </wpt>
  <wpt lat="37.781182" lon="-111.561081">
    <ele>1786.0</ele>
    <name>Sun camp · Escalante River corridor</name>
    <desc>Bench camp about 1.6 mi below the town trailhead</desc>
  </wpt>
  <wpt lat="37.777332" lon="-111.575700">
    <ele>1747.5</ele>
    <name>Escalante town trailhead</name>
    <desc>Escalante River trailhead at the edge of town, off Hwy 12</desc>
  </wpt>
  <trk>
    <name>Death Hollow Loop (Boulder Mail Trail → Escalante River)</name>
    <trkseg>
      <trkpt lat="37.884185" lon="-111.464391"><ele>2068.2</ele></trkpt>
      <trkpt lat="37.884205" lon="-111.464446"><ele>2068.5</ele></trkpt>
      <trkpt lat="37.884211" lon="-111.464512"><ele>2069.0</ele></trkpt>
      <trkpt lat="37.884195" lon="-111.464592"><ele>2069.5</ele></trkpt>
      <trkpt lat="37.884164" lon="-111.464658"><ele>2069.8</ele></trkpt>
      <trkpt lat="37.884166" lon="-111.464718"><ele>2070.2</ele></trkpt>
      <trkpt lat="37.884249" lon="-111.464889"><ele>2071.2</ele></trkpt>
      <trkpt lat="37.884234" lon="-111.464933"><ele>2071.5</ele></trkpt>
      <trkpt lat="37.884180" lon="-111.465013"><ele>2072.0</ele></trkpt>
      <trkpt lat="37.884174" lon="-111.465075"><ele>2072.0</ele></trkpt>
      <trkpt lat="37.884366" lon="-111.465511"><ele>2073.2</ele></trkpt>
      <trkpt lat="37.884436" lon="-111.465590"><ele>2073.5</ele></trkpt>
      <trkpt lat="37.884528" lon="-111.465716"><ele>2074.0</ele></trkpt>
      <trkpt lat="37.884532" lon="-111.465827"><ele>2074.2</ele></trkpt>
      <trkpt lat="37.884591" lon="-111.465947"><ele>2074.0</ele></trkpt>
      <trkpt lat="37.884629" lon="-111.466109"><ele>2073.8</ele></trkpt>
      <trkpt lat="37.884607" lon="-111.466366"><ele>2073.0</ele></trkpt>
      <trkpt lat="37.884569" lon="-111.466445"><ele>2072.5</ele></trkpt>
      <trkpt lat="37.884559" lon="-111.466563"><ele>2072.0</ele></trkpt>
      <trkpt lat="37.884515" lon="-111.466649"><ele>2071.2</ele></trkpt>
      <trkpt lat="37.884408" lon="-111.466691"><ele>2070.0</ele></trkpt>
      <trkpt lat="37.884254" lon="-111.466941"><ele>2066.8</ele></trkpt>
      <trkpt lat="37.884197" lon="-111.466954"><ele>2066.0</ele></trkpt>
      <trkpt lat="37.884142" lon="-111.467088"><ele>2064.8</ele></trkpt>
      <trkpt lat="37.883985" lon="-111.467324"><ele>2061.8</ele></trkpt>
      <trkpt lat="37.884003" lon="-111.467440"><ele>2061.0</ele></trkpt>
      <trkpt lat="37.883895" lon="-111.467533"><ele>2059.8</ele></trkpt>
      <trkpt lat="37.883817" lon="-111.467527"><ele>2059.2</ele></trkpt>
      <trkpt lat="37.883679" lon="-111.467629"><ele>2058.0</ele></trkpt>
      <trkpt lat="37.883547" lon="-111.467690"><ele>2057.0</ele></trkpt>
      <trkpt lat="37.883428" lon="-111.467816"><ele>2055.8</ele></trkpt>
      <trkpt lat="37.883316" lon="-111.468023"><ele>2054.5</ele></trkpt>
      <trkpt lat="37.883085" lon="-111.468370"><ele>2052.8</ele></trkpt>
      <trkpt lat="37.882732" lon="-111.468657"><ele>2050.5</ele></trkpt>
      <trkpt lat="37.882058" lon="-111.469173"><ele>2045.8</ele></trkpt>
      <trkpt lat="37.881914" lon="-111.469247"><ele>2045.0</ele></trkpt>
      <trkpt lat="37.881835" lon="-111.469379"><ele>2044.8</ele></trkpt>
      <trkpt lat="37.881493" lon="-111.469602"><ele>2043.5</ele></trkpt>
      <trkpt lat="37.881423" lon="-111.469724"><ele>2043.2</ele></trkpt>
      <trkpt lat="37.881272" lon="-111.469899"><ele>2042.2</ele></trkpt>
      <trkpt lat="37.881168" lon="-111.469999"><ele>2041.5</ele></trkpt>
      <trkpt lat="37.880969" lon="-111.470007"><ele>2040.5</ele></trkpt>
      <trkpt lat="37.880925" lon="-111.470082"><ele>2040.2</ele></trkpt>
      <trkpt lat="37.880933" lon="-111.470385"><ele>2040.0</ele></trkpt>
      <trkpt lat="37.880706" lon="-111.470546"><ele>2039.2</ele></trkpt>
      <trkpt lat="37.880455" lon="-111.471168"><ele>2036.5</ele></trkpt>
      <trkpt lat="37.880121" lon="-111.471312"><ele>2033.8</ele></trkpt>
      <trkpt lat="37.879884" lon="-111.471425"><ele>2032.5</ele></trkpt>
      <trkpt lat="37.879450" lon="-111.471953"><ele>2032.0</ele></trkpt>
      <trkpt lat="37.879439" lon="-111.472242"><ele>2030.8</ele></trkpt>
      <trkpt lat="37.879310" lon="-111.472500"><ele>2029.8</ele></trkpt>
      <trkpt lat="37.879276" lon="-111.472903"><ele>2028.5</ele></trkpt>
      <trkpt lat="37.879331" lon="-111.473176"><ele>2028.0</ele></trkpt>
      <trkpt lat="37.878831" lon="-111.473809"><ele>2024.0</ele></trkpt>
      <trkpt lat="37.878798" lon="-111.474147"><ele>2022.5</ele></trkpt>
      <trkpt lat="37.878844" lon="-111.474705"><ele>2021.0</ele></trkpt>
      <trkpt lat="37.878933" lon="-111.475300"><ele>2018.8</ele></trkpt>
      <trkpt lat="37.878924" lon="-111.475624"><ele>2017.2</ele></trkpt>
      <trkpt lat="37.878861" lon="-111.475907"><ele>2016.0</ele></trkpt>
      <trkpt lat="37.878770" lon="-111.476577"><ele>2014.5</ele></trkpt>
      <trkpt lat="37.878637" lon="-111.476963"><ele>2013.8</ele></trkpt>
      <trkpt lat="37.878302" lon="-111.477261"><ele>2013.5</ele></trkpt>
      <trkpt lat="37.878182" lon="-111.477268"><ele>2013.5</ele></trkpt>
      <trkpt lat="37.877781" lon="-111.477169"><ele>2014.2</ele></trkpt>
      <trkpt lat="37.877502" lon="-111.477276"><ele>2014.5</ele></trkpt>
      <trkpt lat="37.877066" lon="-111.477237"><ele>2013.8</ele></trkpt>
      <trkpt lat="37.876689" lon="-111.477409"><ele>2013.0</ele></trkpt>
      <trkpt lat="37.876045" lon="-111.477350"><ele>2011.8</ele></trkpt>
      <trkpt lat="37.875558" lon="-111.477334"><ele>2012.2</ele></trkpt>
      <trkpt lat="37.874748" lon="-111.477392"><ele>2015.2</ele></trkpt>
      <trkpt lat="37.873992" lon="-111.477682"><ele>2018.5</ele></trkpt>
      <trkpt lat="37.873754" lon="-111.477639"><ele>2019.2</ele></trkpt>
      <trkpt lat="37.873471" lon="-111.477532"><ele>2020.5</ele></trkpt>
      <trkpt lat="37.873318" lon="-111.477409"><ele>2021.0</ele></trkpt>
      <trkpt lat="37.872819" lon="-111.477725"><ele>2017.8</ele></trkpt>
      <trkpt lat="37.872501" lon="-111.478009"><ele>2015.2</ele></trkpt>
      <trkpt lat="37.872255" lon="-111.478197"><ele>2013.8</ele></trkpt>
      <trkpt lat="37.871993" lon="-111.478288"><ele>2012.5</ele></trkpt>
      <trkpt lat="37.871733" lon="-111.478522"><ele>2010.8</ele></trkpt>
      <trkpt lat="37.871671" lon="-111.478578"><ele>2010.2</ele></trkpt>
      <trkpt lat="37.871049" lon="-111.479222"><ele>2005.8</ele></trkpt>
      <trkpt lat="37.870468" lon="-111.479656"><ele>1998.0</ele></trkpt>
      <trkpt lat="37.869990" lon="-111.479678"><ele>1990.5</ele></trkpt>
      <trkpt lat="37.869660" lon="-111.479962"><ele>1983.2</ele></trkpt>
      <trkpt lat="37.869564" lon="-111.480283"><ele>1979.0</ele></trkpt>
      <trkpt lat="37.869368" lon="-111.480316"><ele>1974.8</ele></trkpt>
      <trkpt lat="37.869008" lon="-111.480144"><ele>1971.2</ele></trkpt>
      <trkpt lat="37.868893" lon="-111.480200"><ele>1970.5</ele></trkpt>
      <trkpt lat="37.868766" lon="-111.480439"><ele>1968.0</ele></trkpt>
      <trkpt lat="37.868661" lon="-111.480834"><ele>1963.8</ele></trkpt>
      <trkpt lat="37.868614" lon="-111.481173"><ele>1961.5</ele></trkpt>
      <trkpt lat="37.868465" lon="-111.481507"><ele>1958.5</ele></trkpt>
      <trkpt lat="37.868415" lon="-111.481671"><ele>1957.2</ele></trkpt>
      <trkpt lat="37.868215" lon="-111.481880"><ele>1956.8</ele></trkpt>
      <trkpt lat="37.867430" lon="-111.482686"><ele>1956.0</ele></trkpt>
      <trkpt lat="37.867157" lon="-111.483073"><ele>1954.5</ele></trkpt>
      <trkpt lat="37.866774" lon="-111.483360"><ele>1953.8</ele></trkpt>
      <trkpt lat="37.866338" lon="-111.483558"><ele>1953.8</ele></trkpt>
      <trkpt lat="37.866270" lon="-111.483624"><ele>1953.2</ele></trkpt>
      <trkpt lat="37.866052" lon="-111.483837"><ele>1951.0</ele></trkpt>
      <trkpt lat="37.865889" lon="-111.483982"><ele>1948.5</ele></trkpt>
      <trkpt lat="37.865709" lon="-111.484052"><ele>1946.5</ele></trkpt>
      <trkpt lat="37.865646" lon="-111.484042"><ele>1946.2</ele></trkpt>
      <trkpt lat="37.865620" lon="-111.483979"><ele>1947.0</ele></trkpt>
      <trkpt lat="37.865578" lon="-111.483926"><ele>1947.5</ele></trkpt>
      <trkpt lat="37.865537" lon="-111.483888"><ele>1947.8</ele></trkpt>
      <trkpt lat="37.865412" lon="-111.483920"><ele>1946.8</ele></trkpt>
      <trkpt lat="37.865318" lon="-111.484044"><ele>1944.5</ele></trkpt>
      <trkpt lat="37.865291" lon="-111.484177"><ele>1942.5</ele></trkpt>
      <trkpt lat="37.865301" lon="-111.484309"><ele>1940.5</ele></trkpt>
      <trkpt lat="37.865355" lon="-111.484416"><ele>1939.2</ele></trkpt>
      <trkpt lat="37.865332" lon="-111.484591"><ele>1936.5</ele></trkpt>
      <trkpt lat="37.865108" lon="-111.484986"><ele>1928.2</ele></trkpt>
      <trkpt lat="37.864944" lon="-111.485078"><ele>1925.5</ele></trkpt>
      <trkpt lat="37.864747" lon="-111.485144"><ele>1922.5</ele></trkpt>
      <trkpt lat="37.864565" lon="-111.485133"><ele>1920.8</ele></trkpt>
      <trkpt lat="37.864379" lon="-111.485061"><ele>1919.5</ele></trkpt>
      <trkpt lat="37.864230" lon="-111.485108"><ele>1917.5</ele></trkpt>
      <trkpt lat="37.864056" lon="-111.485281"><ele>1915.2</ele></trkpt>
      <trkpt lat="37.863817" lon="-111.485597"><ele>1912.5</ele></trkpt>
      <trkpt lat="37.863688" lon="-111.485938"><ele>1908.8</ele></trkpt>
      <trkpt lat="37.863673" lon="-111.486039"><ele>1907.5</ele></trkpt>
      <trkpt lat="37.863681" lon="-111.486163"><ele>1906.0</ele></trkpt>
      <trkpt lat="37.863678" lon="-111.486682"><ele>1899.8</ele></trkpt>
      <trkpt lat="37.863706" lon="-111.486867"><ele>1897.8</ele></trkpt>
      <trkpt lat="37.863778" lon="-111.487161"><ele>1894.2</ele></trkpt>
      <trkpt lat="37.863793" lon="-111.487225"><ele>1893.2</ele></trkpt>
      <trkpt lat="37.863847" lon="-111.487500"><ele>1889.8</ele></trkpt>
      <trkpt lat="37.863982" lon="-111.487681"><ele>1887.0</ele></trkpt>
      <trkpt lat="37.864019" lon="-111.487883"><ele>1884.2</ele></trkpt>
      <trkpt lat="37.863900" lon="-111.488663"><ele>1879.5</ele></trkpt>
      <trkpt lat="37.863873" lon="-111.488907"><ele>1879.0</ele></trkpt>
      <trkpt lat="37.863790" lon="-111.489007"><ele>1879.0</ele></trkpt>
      <trkpt lat="37.863703" lon="-111.489150"><ele>1878.5</ele></trkpt>
      <trkpt lat="37.863570" lon="-111.489205"><ele>1878.5</ele></trkpt>
      <trkpt lat="37.863275" lon="-111.489597"><ele>1876.0</ele></trkpt>
      <trkpt lat="37.863200" lon="-111.489848"><ele>1874.0</ele></trkpt>
      <trkpt lat="37.863158" lon="-111.489920"><ele>1873.2</ele></trkpt>
      <trkpt lat="37.863038" lon="-111.489902"><ele>1873.5</ele></trkpt>
      <trkpt lat="37.862891" lon="-111.489912"><ele>1873.2</ele></trkpt>
      <trkpt lat="37.862758" lon="-111.490028"><ele>1872.5</ele></trkpt>
      <trkpt lat="37.862615" lon="-111.490140"><ele>1873.0</ele></trkpt>
      <trkpt lat="37.862425" lon="-111.490056"><ele>1872.0</ele></trkpt>
      <trkpt lat="37.862353" lon="-111.490019"><ele>1871.8</ele></trkpt>
      <trkpt lat="37.862218" lon="-111.489975"><ele>1871.5</ele></trkpt>
      <trkpt lat="37.862016" lon="-111.489811"><ele>1873.0</ele></trkpt>
      <trkpt lat="37.861728" lon="-111.489792"><ele>1872.5</ele></trkpt>
      <trkpt lat="37.861597" lon="-111.489746"><ele>1873.2</ele></trkpt>
      <trkpt lat="37.861470" lon="-111.489758"><ele>1873.5</ele></trkpt>
      <trkpt lat="37.861112" lon="-111.490099"><ele>1873.5</ele></trkpt>
      <trkpt lat="37.861047" lon="-111.490230"><ele>1876.2</ele></trkpt>
      <trkpt lat="37.860906" lon="-111.490283"><ele>1878.0</ele></trkpt>
      <trkpt lat="37.860775" lon="-111.490498"><ele>1882.0</ele></trkpt>
      <trkpt lat="37.860536" lon="-111.490639"><ele>1881.8</ele></trkpt>
      <trkpt lat="37.860409" lon="-111.490751"><ele>1881.2</ele></trkpt>
      <trkpt lat="37.860236" lon="-111.490855"><ele>1879.0</ele></trkpt>
      <trkpt lat="37.860020" lon="-111.490932"><ele>1875.2</ele></trkpt>
      <trkpt lat="37.859855" lon="-111.491065"><ele>1875.8</ele></trkpt>
      <trkpt lat="37.859825" lon="-111.491191"><ele>1875.5</ele></trkpt>
      <trkpt lat="37.859743" lon="-111.491295"><ele>1875.5</ele></trkpt>
      <trkpt lat="37.859729" lon="-111.491419"><ele>1875.0</ele></trkpt>
      <trkpt lat="37.859637" lon="-111.491642"><ele>1874.0</ele></trkpt>
      <trkpt lat="37.859536" lon="-111.491917"><ele>1871.5</ele></trkpt>
      <trkpt lat="37.859536" lon="-111.492198"><ele>1869.2</ele></trkpt>
      <trkpt lat="37.859394" lon="-111.492526"><ele>1866.0</ele></trkpt>
      <trkpt lat="37.859293" lon="-111.492612"><ele>1866.8</ele></trkpt>
      <trkpt lat="37.859173" lon="-111.492651"><ele>1866.8</ele></trkpt>
      <trkpt lat="37.859030" lon="-111.492660"><ele>1867.2</ele></trkpt>
      <trkpt lat="37.858939" lon="-111.492640"><ele>1867.2</ele></trkpt>
      <trkpt lat="37.858871" lon="-111.492664"><ele>1867.8</ele></trkpt>
      <trkpt lat="37.858928" lon="-111.492880"><ele>1871.5</ele></trkpt>
      <trkpt lat="37.859123" lon="-111.493251"><ele>1878.2</ele></trkpt>
      <trkpt lat="37.859182" lon="-111.493448"><ele>1881.5</ele></trkpt>
      <trkpt lat="37.859194" lon="-111.493755"><ele>1885.8</ele></trkpt>
      <trkpt lat="37.859157" lon="-111.493979"><ele>1889.0</ele></trkpt>
      <trkpt lat="37.859153" lon="-111.494164"><ele>1891.8</ele></trkpt>
      <trkpt lat="37.859188" lon="-111.494266"><ele>1892.0</ele></trkpt>
      <trkpt lat="37.859332" lon="-111.494447"><ele>1892.2</ele></trkpt>
      <trkpt lat="37.859433" lon="-111.494641"><ele>1892.8</ele></trkpt>
      <trkpt lat="37.859491" lon="-111.494733"><ele>1893.0</ele></trkpt>
      <trkpt lat="37.859575" lon="-111.494902"><ele>1893.8</ele></trkpt>
      <trkpt lat="37.859673" lon="-111.495010"><ele>1894.5</ele></trkpt>
      <trkpt lat="37.859772" lon="-111.495302"><ele>1898.8</ele></trkpt>
      <trkpt lat="37.859892" lon="-111.495497"><ele>1901.8</ele></trkpt>
      <trkpt lat="37.860043" lon="-111.495617"><ele>1903.0</ele></trkpt>
      <trkpt lat="37.860214" lon="-111.495738"><ele>1902.2</ele></trkpt>
      <trkpt lat="37.860381" lon="-111.495996"><ele>1902.5</ele></trkpt>
      <trkpt lat="37.860434" lon="-111.496186"><ele>1903.5</ele></trkpt>
      <trkpt lat="37.860461" lon="-111.496377"><ele>1904.8</ele></trkpt>
      <trkpt lat="37.860449" lon="-111.496892"><ele>1909.8</ele></trkpt>
      <trkpt lat="37.860414" lon="-111.497037"><ele>1911.5</ele></trkpt>
      <trkpt lat="37.860429" lon="-111.497128"><ele>1912.0</ele></trkpt>
      <trkpt lat="37.860490" lon="-111.497247"><ele>1911.8</ele></trkpt>
      <trkpt lat="37.860498" lon="-111.497377"><ele>1912.8</ele></trkpt>
      <trkpt lat="37.860542" lon="-111.497495"><ele>1912.8</ele></trkpt>
      <trkpt lat="37.860525" lon="-111.497590"><ele>1913.8</ele></trkpt>
      <trkpt lat="37.860567" lon="-111.497715"><ele>1913.5</ele></trkpt>
      <trkpt lat="37.860609" lon="-111.498009"><ele>1914.2</ele></trkpt>
      <trkpt lat="37.860537" lon="-111.498250"><ele>1917.2</ele></trkpt>
      <trkpt lat="37.860381" lon="-111.498469"><ele>1922.0</ele></trkpt>
      <trkpt lat="37.860345" lon="-111.498659"><ele>1924.0</ele></trkpt>
      <trkpt lat="37.860362" lon="-111.498890"><ele>1925.0</ele></trkpt>
      <trkpt lat="37.860470" lon="-111.499209"><ele>1924.5</ele></trkpt>
      <trkpt lat="37.860521" lon="-111.499384"><ele>1925.2</ele></trkpt>
      <trkpt lat="37.860474" lon="-111.499600"><ele>1928.5</ele></trkpt>
      <trkpt lat="37.860360" lon="-111.499671"><ele>1931.8</ele></trkpt>
      <trkpt lat="37.860228" lon="-111.499666"><ele>1934.2</ele></trkpt>
      <trkpt lat="37.859868" lon="-111.499843"><ele>1943.2</ele></trkpt>
      <trkpt lat="37.859771" lon="-111.499850"><ele>1945.2</ele></trkpt>
      <trkpt lat="37.859644" lon="-111.500022"><ele>1948.5</ele></trkpt>
      <trkpt lat="37.859602" lon="-111.500379"><ele>1952.2</ele></trkpt>
      <trkpt lat="37.859468" lon="-111.500510"><ele>1954.2</ele></trkpt>
      <trkpt lat="37.859087" lon="-111.500516"><ele>1958.2</ele></trkpt>
      <trkpt lat="37.859019" lon="-111.500591"><ele>1959.2</ele></trkpt>
      <trkpt lat="37.858912" lon="-111.500912"><ele>1960.5</ele></trkpt>
      <trkpt lat="37.858789" lon="-111.501022"><ele>1962.0</ele></trkpt>
      <trkpt lat="37.858513" lon="-111.501629"><ele>1963.5</ele></trkpt>
      <trkpt lat="37.858204" lon="-111.502005"><ele>1966.8</ele></trkpt>
      <trkpt lat="37.857977" lon="-111.502171"><ele>1969.5</ele></trkpt>
      <trkpt lat="37.857795" lon="-111.502460"><ele>1971.8</ele></trkpt>
      <trkpt lat="37.857558" lon="-111.502670"><ele>1973.0</ele></trkpt>
      <trkpt lat="37.857238" lon="-111.502943"><ele>1972.8</ele></trkpt>
      <trkpt lat="37.857289" lon="-111.503117"><ele>1972.8</ele></trkpt>
      <trkpt lat="37.857247" lon="-111.503233"><ele>1972.8</ele></trkpt>
      <trkpt lat="37.856988" lon="-111.503504"><ele>1974.8</ele></trkpt>
      <trkpt lat="37.856806" lon="-111.503748"><ele>1977.0</ele></trkpt>
      <trkpt lat="37.856565" lon="-111.503743"><ele>1978.0</ele></trkpt>
      <trkpt lat="37.856425" lon="-111.503925"><ele>1979.8</ele></trkpt>
      <trkpt lat="37.856353" lon="-111.504086"><ele>1981.5</ele></trkpt>
      <trkpt lat="37.856119" lon="-111.504320"><ele>1985.0</ele></trkpt>
      <trkpt lat="37.856006" lon="-111.504365"><ele>1986.0</ele></trkpt>
      <trkpt lat="37.855896" lon="-111.504339"><ele>1986.5</ele></trkpt>
      <trkpt lat="37.855737" lon="-111.504356"><ele>1987.0</ele></trkpt>
      <trkpt lat="37.855693" lon="-111.504593"><ele>1989.8</ele></trkpt>
      <trkpt lat="37.855719" lon="-111.504790"><ele>1991.8</ele></trkpt>
      <trkpt lat="37.855817" lon="-111.505046"><ele>1994.2</ele></trkpt>
      <trkpt lat="37.855796" lon="-111.505189"><ele>1995.8</ele></trkpt>
      <trkpt lat="37.855737" lon="-111.505269"><ele>1996.8</ele></trkpt>
      <trkpt lat="37.855625" lon="-111.505263"><ele>1997.2</ele></trkpt>
      <trkpt lat="37.855565" lon="-111.505290"><ele>1997.8</ele></trkpt>
      <trkpt lat="37.855497" lon="-111.505418"><ele>1999.5</ele></trkpt>
      <trkpt lat="37.855310" lon="-111.505388"><ele>2000.0</ele></trkpt>
      <trkpt lat="37.855194" lon="-111.505464"><ele>2001.5</ele></trkpt>
      <trkpt lat="37.855063" lon="-111.505630"><ele>2004.5</ele></trkpt>
      <trkpt lat="37.854983" lon="-111.505765"><ele>2007.0</ele></trkpt>
      <trkpt lat="37.854901" lon="-111.505927"><ele>2008.8</ele></trkpt>
      <trkpt lat="37.854873" lon="-111.506140"><ele>2009.8</ele></trkpt>
      <trkpt lat="37.854697" lon="-111.506410"><ele>2011.5</ele></trkpt>
      <trkpt lat="37.854602" lon="-111.506634"><ele>2012.8</ele></trkpt>
      <trkpt lat="37.854112" lon="-111.506972"><ele>2014.2</ele></trkpt>
      <trkpt lat="37.853939" lon="-111.507272"><ele>2014.8</ele></trkpt>
      <trkpt lat="37.853757" lon="-111.507385"><ele>2015.2</ele></trkpt>
      <trkpt lat="37.853582" lon="-111.507691"><ele>2015.8</ele></trkpt>
      <trkpt lat="37.853508" lon="-111.507756"><ele>2015.8</ele></trkpt>
      <trkpt lat="37.853480" lon="-111.507936"><ele>2015.8</ele></trkpt>
      <trkpt lat="37.853386" lon="-111.508025"><ele>2015.8</ele></trkpt>
      <trkpt lat="37.853328" lon="-111.508091"><ele>2016.0</ele></trkpt>
      <trkpt lat="37.853272" lon="-111.508393"><ele>2015.8</ele></trkpt>
      <trkpt lat="37.852833" lon="-111.509059"><ele>2014.0</ele></trkpt>
      <trkpt lat="37.852753" lon="-111.509402"><ele>2013.5</ele></trkpt>
      <trkpt lat="37.852751" lon="-111.509740"><ele>2013.8</ele></trkpt>
      <trkpt lat="37.852628" lon="-111.510251"><ele>2014.5</ele></trkpt>
      <trkpt lat="37.852592" lon="-111.510442"><ele>2015.2</ele></trkpt>
      <trkpt lat="37.852460" lon="-111.510743"><ele>2016.0</ele></trkpt>
      <trkpt lat="37.852145" lon="-111.511046"><ele>2014.2</ele></trkpt>
      <trkpt lat="37.851971" lon="-111.511134"><ele>2013.2</ele></trkpt>
      <trkpt lat="37.851855" lon="-111.511317"><ele>2013.2</ele></trkpt>
      <trkpt lat="37.851626" lon="-111.511730"><ele>2013.2</ele></trkpt>
      <trkpt lat="37.851253" lon="-111.512047"><ele>2009.2</ele></trkpt>
      <trkpt lat="37.851075" lon="-111.512331"><ele>2009.8</ele></trkpt>
      <trkpt lat="37.850847" lon="-111.512656"><ele>2011.2</ele></trkpt>
      <trkpt lat="37.850516" lon="-111.512846"><ele>2008.2</ele></trkpt>
      <trkpt lat="37.849688" lon="-111.513857"><ele>2008.8</ele></trkpt>
      <trkpt lat="37.849178" lon="-111.514131"><ele>2006.8</ele></trkpt>
      <trkpt lat="37.848436" lon="-111.514128"><ele>2002.5</ele></trkpt>
      <trkpt lat="37.847992" lon="-111.514310"><ele>2001.0</ele></trkpt>
      <trkpt lat="37.847373" lon="-111.514332"><ele>1999.8</ele></trkpt>
      <trkpt lat="37.847098" lon="-111.514310"><ele>1999.0</ele></trkpt>
      <trkpt lat="37.846628" lon="-111.514101"><ele>1998.0</ele></trkpt>
      <trkpt lat="37.845853" lon="-111.513612"><ele>1996.2</ele></trkpt>
      <trkpt lat="37.845463" lon="-111.513447"><ele>1995.0</ele></trkpt>
      <trkpt lat="37.844654" lon="-111.512629"><ele>1991.8</ele></trkpt>
      <trkpt lat="37.843756" lon="-111.511942"><ele>1989.0</ele></trkpt>
      <trkpt lat="37.843323" lon="-111.512092"><ele>1989.8</ele></trkpt>
      <trkpt lat="37.843207" lon="-111.512250"><ele>1989.2</ele></trkpt>
      <trkpt lat="37.842906" lon="-111.513399"><ele>1978.2</ele></trkpt>
      <trkpt lat="37.842819" lon="-111.513614"><ele>1976.0</ele></trkpt>
      <trkpt lat="37.842836" lon="-111.513730"><ele>1975.2</ele></trkpt>
      <trkpt lat="37.842925" lon="-111.513837"><ele>1975.0</ele></trkpt>
      <trkpt lat="37.843143" lon="-111.514078"><ele>1974.0</ele></trkpt>
      <trkpt lat="37.843247" lon="-111.514144"><ele>1973.8</ele></trkpt>
      <trkpt lat="37.843311" lon="-111.514286"><ele>1971.0</ele></trkpt>
      <trkpt lat="37.843383" lon="-111.514557"><ele>1966.0</ele></trkpt>
      <trkpt lat="37.843719" lon="-111.514922"><ele>1964.8</ele></trkpt>
      <trkpt lat="37.843921" lon="-111.515019"><ele>1967.0</ele></trkpt>
      <trkpt lat="37.844355" lon="-111.515509"><ele>1962.8</ele></trkpt>
      <trkpt lat="37.844400" lon="-111.515728"><ele>1958.0</ele></trkpt>
      <trkpt lat="37.844383" lon="-111.516187"><ele>1942.2</ele></trkpt>
      <trkpt lat="37.844495" lon="-111.516577"><ele>1929.8</ele></trkpt>
      <trkpt lat="37.845130" lon="-111.517095"><ele>1914.5</ele></trkpt>
      <trkpt lat="37.845334" lon="-111.517095"><ele>1924.5</ele></trkpt>
      <trkpt lat="37.845404" lon="-111.517088"><ele>1928.2</ele></trkpt>
      <trkpt lat="37.845367" lon="-111.517357"><ele>1914.0</ele></trkpt>
      <trkpt lat="37.845300" lon="-111.517553"><ele>1901.8</ele></trkpt>
      <trkpt lat="37.845399" lon="-111.518130"><ele>1889.8</ele></trkpt>
      <trkpt lat="37.845427" lon="-111.518232"><ele>1888.8</ele></trkpt>
      <trkpt lat="37.845397" lon="-111.518339"><ele>1883.0</ele></trkpt>
      <trkpt lat="37.845414" lon="-111.518438"><ele>1883.0</ele></trkpt>
      <trkpt lat="37.845475" lon="-111.518618"><ele>1885.2</ele></trkpt>
      <trkpt lat="37.845380" lon="-111.518615"><ele>1877.5</ele></trkpt>
      <trkpt lat="37.845380" lon="-111.519031"><ele>1871.0</ele></trkpt>
      <trkpt lat="37.845389" lon="-111.519643"><ele>1863.5</ele></trkpt>
      <trkpt lat="37.845160" lon="-111.519573"><ele>1849.0</ele></trkpt>
      <trkpt lat="37.845014" lon="-111.519173"><ele>1841.0</ele></trkpt>
      <trkpt lat="37.844906" lon="-111.518739"><ele>1838.8</ele></trkpt>
      <trkpt lat="37.844777" lon="-111.518446"><ele>1834.0</ele></trkpt>
      <trkpt lat="37.844652" lon="-111.518315"><ele>1828.0</ele></trkpt>
      <trkpt lat="37.844598" lon="-111.518350"><ele>1823.8</ele></trkpt>
      <trkpt lat="37.844557" lon="-111.518591"><ele>1819.0</ele></trkpt>
      <trkpt lat="37.844525" lon="-111.518845"><ele>1815.0</ele></trkpt>
      <trkpt lat="37.844410" lon="-111.518767"><ele>1808.8</ele></trkpt>
      <trkpt lat="37.844366" lon="-111.518781"><ele>1806.0</ele></trkpt>
      <trkpt lat="37.844317" lon="-111.518885"><ele>1802.5</ele></trkpt>
      <trkpt lat="37.844207" lon="-111.518743"><ele>1796.8</ele></trkpt>
      <trkpt lat="37.844098" lon="-111.518676"><ele>1794.2</ele></trkpt>
      <trkpt lat="37.844016" lon="-111.518764"><ele>1793.5</ele></trkpt>
      <trkpt lat="37.843956" lon="-111.519144"><ele>1792.2</ele></trkpt>
      <trkpt lat="37.843912" lon="-111.519299"><ele>1792.8</ele></trkpt>
      <trkpt lat="37.843808" lon="-111.519343"><ele>1793.5</ele></trkpt>
      <trkpt lat="37.843723" lon="-111.519348"><ele>1793.8</ele></trkpt>
      <trkpt lat="37.843678" lon="-111.519171"><ele>1792.5</ele></trkpt>
      <trkpt lat="37.843596" lon="-111.518800"><ele>1791.2</ele></trkpt>
      <trkpt lat="37.843526" lon="-111.518807"><ele>1790.8</ele></trkpt>
    </trkseg>
    <trkseg>
      <trkpt lat="37.843526" lon="-111.518807"/>
      <trkpt lat="37.843535" lon="-111.518668"/>
      <trkpt lat="37.843432" lon="-111.518329"/>
      <trkpt lat="37.843320" lon="-111.518174"/>
      <trkpt lat="37.843150" lon="-111.518068"/>
      <trkpt lat="37.842880" lon="-111.518224"/>
      <trkpt lat="37.842780" lon="-111.518338"/>
      <trkpt lat="37.842675" lon="-111.518702"/>
      <trkpt lat="37.842844" lon="-111.519085"/>
      <trkpt lat="37.842829" lon="-111.519284"/>
      <trkpt lat="37.842842" lon="-111.519739"/>
      <trkpt lat="37.842735" lon="-111.520002"/>
      <trkpt lat="37.842670" lon="-111.520018"/>
      <trkpt lat="37.842390" lon="-111.519940"/>
      <trkpt lat="37.842275" lon="-111.519930"/>
      <trkpt lat="37.842023" lon="-111.519768"/>
      <trkpt lat="37.841818" lon="-111.519440"/>
      <trkpt lat="37.841743" lon="-111.519258"/>
      <trkpt lat="37.841590" lon="-111.518968"/>
      <trkpt lat="37.841415" lon="-111.518725"/>
      <trkpt lat="37.841323" lon="-111.518702"/>
      <trkpt lat="37.841154" lon="-111.518764"/>
      <trkpt lat="37.841054" lon="-111.519043"/>
      <trkpt lat="37.841054" lon="-111.519147"/>
      <trkpt lat="37.841113" lon="-111.519358"/>
      <trkpt lat="37.840995" lon="-111.519566"/>
      <trkpt lat="37.840838" lon="-111.519582"/>
      <trkpt lat="37.840597" lon="-111.519488"/>
      <trkpt lat="37.840463" lon="-111.519336"/>
      <trkpt lat="37.840348" lon="-111.519037"/>
      <trkpt lat="37.840399" lon="-111.518825"/>
      <trkpt lat="37.840392" lon="-111.518621"/>
      <trkpt lat="37.840209" lon="-111.518033"/>
      <trkpt lat="37.839937" lon="-111.517727"/>
      <trkpt lat="37.839791" lon="-111.517688"/>
      <trkpt lat="37.839547" lon="-111.517750"/>
      <trkpt lat="37.839291" lon="-111.517968"/>
      <trkpt lat="37.839178" lon="-111.518078"/>
      <trkpt lat="37.838839" lon="-111.518195"/>
      <trkpt lat="37.838621" lon="-111.518130"/>
      <trkpt lat="37.838521" lon="-111.517994"/>
      <trkpt lat="37.838429" lon="-111.517675"/>
      <trkpt lat="37.838411" lon="-111.517461"/>
      <trkpt lat="37.838277" lon="-111.516876"/>
      <trkpt lat="37.837964" lon="-111.516525"/>
      <trkpt lat="37.837869" lon="-111.516408"/>
      <trkpt lat="37.837641" lon="-111.516320"/>
      <trkpt lat="37.837556" lon="-111.516044"/>
      <trkpt lat="37.837477" lon="-111.515846"/>
      <trkpt lat="37.837273" lon="-111.515476"/>
      <trkpt lat="37.837225" lon="-111.515303"/>
      <trkpt lat="37.837145" lon="-111.515251"/>
      <trkpt lat="37.836881" lon="-111.515443"/>
      <trkpt lat="37.836830" lon="-111.515682"/>
      <trkpt lat="37.836840" lon="-111.515869"/>
      <trkpt lat="37.836789" lon="-111.516203"/>
      <trkpt lat="37.836678" lon="-111.516385"/>
      <trkpt lat="37.836312" lon="-111.516876"/>
      <trkpt lat="37.836127" lon="-111.516983"/>
      <trkpt lat="37.836004" lon="-111.516970"/>
      <trkpt lat="37.835852" lon="-111.516879"/>
      <trkpt lat="37.835850" lon="-111.517194"/>
      <trkpt lat="37.835901" lon="-111.517477"/>
      <trkpt lat="37.836055" lon="-111.517815"/>
      <trkpt lat="37.836206" lon="-111.518189"/>
      <trkpt lat="37.836228" lon="-111.518300"/>
      <trkpt lat="37.836190" lon="-111.518506"/>
      <trkpt lat="37.835999" lon="-111.518540"/>
      <trkpt lat="37.835916" lon="-111.518560"/>
      <trkpt lat="37.835700" lon="-111.518547"/>
      <trkpt lat="37.835596" lon="-111.518550"/>
      <trkpt lat="37.835294" lon="-111.518521"/>
      <trkpt lat="37.835032" lon="-111.518500"/>
      <trkpt lat="37.834932" lon="-111.518439"/>
      <trkpt lat="37.834805" lon="-111.518245"/>
      <trkpt lat="37.834768" lon="-111.517889"/>
      <trkpt lat="37.834737" lon="-111.517772"/>
      <trkpt lat="37.834745" lon="-111.517467"/>
      <trkpt lat="37.834649" lon="-111.517230"/>
      <trkpt lat="37.834476" lon="-111.517060"/>
      <trkpt lat="37.834212" lon="-111.516908"/>
      <trkpt lat="37.834073" lon="-111.516956"/>
      <trkpt lat="37.833986" lon="-111.517136"/>
      <trkpt lat="37.833973" lon="-111.517445"/>
      <trkpt lat="37.833926" lon="-111.517617"/>
      <trkpt lat="37.834073" lon="-111.517991"/>
      <trkpt lat="37.834307" lon="-111.518415"/>
      <trkpt lat="37.834307" lon="-111.518581"/>
      <trkpt lat="37.834180" lon="-111.518837"/>
      <trkpt lat="37.834010" lon="-111.518894"/>
      <trkpt lat="37.833894" lon="-111.518974"/>
      <trkpt lat="37.833735" lon="-111.519103"/>
      <trkpt lat="37.833428" lon="-111.519115"/>
      <trkpt lat="37.833255" lon="-111.519084"/>
      <trkpt lat="37.832966" lon="-111.519157"/>
      <trkpt lat="37.832791" lon="-111.519291"/>
      <trkpt lat="37.832755" lon="-111.519408"/>
      <trkpt lat="37.832833" lon="-111.519754"/>
      <trkpt lat="37.832865" lon="-111.520055"/>
      <trkpt lat="37.832953" lon="-111.520480"/>
      <trkpt lat="37.833093" lon="-111.520773"/>
      <trkpt lat="37.833103" lon="-111.520900"/>
      <trkpt lat="37.833050" lon="-111.521101"/>
      <trkpt lat="37.832906" lon="-111.521166"/>
      <trkpt lat="37.832788" lon="-111.521150"/>
      <trkpt lat="37.832531" lon="-111.521101"/>
      <trkpt lat="37.832280" lon="-111.520904"/>
      <trkpt lat="37.832207" lon="-111.520810"/>
      <trkpt lat="37.831997" lon="-111.520599"/>
      <trkpt lat="37.831815" lon="-111.520392"/>
      <trkpt lat="37.831703" lon="-111.520296"/>
      <trkpt lat="37.831585" lon="-111.520048"/>
      <trkpt lat="37.831514" lon="-111.519915"/>
      <trkpt lat="37.831428" lon="-111.519526"/>
      <trkpt lat="37.831359" lon="-111.519219"/>
      <trkpt lat="37.831365" lon="-111.519119"/>
      <trkpt lat="37.831200" lon="-111.518851"/>
      <trkpt lat="37.830967" lon="-111.518712"/>
      <trkpt lat="37.830878" lon="-111.518732"/>
      <trkpt lat="37.830736" lon="-111.518910"/>
      <trkpt lat="37.830568" lon="-111.519191"/>
      <trkpt lat="37.830457" lon="-111.519283"/>
      <trkpt lat="37.830305" lon="-111.519558"/>
      <trkpt lat="37.830237" lon="-111.519637"/>
      <trkpt lat="37.830052" lon="-111.519700"/>
      <trkpt lat="37.829928" lon="-111.519522"/>
      <trkpt lat="37.829934" lon="-111.519338"/>
      <trkpt lat="37.829904" lon="-111.519002"/>
      <trkpt lat="37.830018" lon="-111.518771"/>
      <trkpt lat="37.830009" lon="-111.518536"/>
      <trkpt lat="37.830065" lon="-111.518161"/>
      <trkpt lat="37.829952" lon="-111.517803"/>
      <trkpt lat="37.829921" lon="-111.517686"/>
      <trkpt lat="37.829850" lon="-111.517281"/>
      <trkpt lat="37.829674" lon="-111.517001"/>
      <trkpt lat="37.829286" lon="-111.516839"/>
      <trkpt lat="37.829094" lon="-111.516902"/>
      <trkpt lat="37.829000" lon="-111.516845"/>
      <trkpt lat="37.828778" lon="-111.516892"/>
      <trkpt lat="37.828458" lon="-111.516825"/>
      <trkpt lat="37.828318" lon="-111.516853"/>
      <trkpt lat="37.828119" lon="-111.517017"/>
      <trkpt lat="37.828046" lon="-111.517353"/>
      <trkpt lat="37.827990" lon="-111.517533"/>
      <trkpt lat="37.827983" lon="-111.517770"/>
      <trkpt lat="37.827833" lon="-111.517946"/>
      <trkpt lat="37.827752" lon="-111.518000"/>
      <trkpt lat="37.827483" lon="-111.517899"/>
      <trkpt lat="37.827277" lon="-111.517782"/>
      <trkpt lat="37.827199" lon="-111.517604"/>
      <trkpt lat="37.826982" lon="-111.517512"/>
      <trkpt lat="37.826833" lon="-111.517525"/>
      <trkpt lat="37.826685" lon="-111.517682"/>
      <trkpt lat="37.826656" lon="-111.518010"/>
      <trkpt lat="37.826682" lon="-111.518132"/>
      <trkpt lat="37.826761" lon="-111.518358"/>
      <trkpt lat="37.826680" lon="-111.518609"/>
      <trkpt lat="37.826562" lon="-111.518671"/>
      <trkpt lat="37.826416" lon="-111.518548"/>
      <trkpt lat="37.826193" lon="-111.518536"/>
      <trkpt lat="37.826109" lon="-111.518399"/>
      <trkpt lat="37.825901" lon="-111.518231"/>
      <trkpt lat="37.825716" lon="-111.518068"/>
      <trkpt lat="37.825640" lon="-111.518024"/>
      <trkpt lat="37.825506" lon="-111.518051"/>
      <trkpt lat="37.825441" lon="-111.518174"/>
      <trkpt lat="37.825390" lon="-111.518380"/>
      <trkpt lat="37.825403" lon="-111.518722"/>
      <trkpt lat="37.825377" lon="-111.518841"/>
      <trkpt lat="37.825177" lon="-111.518999"/>
      <trkpt lat="37.824923" lon="-111.519079"/>
      <trkpt lat="37.824819" lon="-111.519042"/>
      <trkpt lat="37.824572" lon="-111.518847"/>
      <trkpt lat="37.824452" lon="-111.518655"/>
      <trkpt lat="37.824229" lon="-111.518522"/>
      <trkpt lat="37.823987" lon="-111.518438"/>
      <trkpt lat="37.823558" lon="-111.518565"/>
      <trkpt lat="37.823251" lon="-111.518759"/>
      <trkpt lat="37.822900" lon="-111.518935"/>
      <trkpt lat="37.822792" lon="-111.518985"/>
      <trkpt lat="37.822448" lon="-111.519040"/>
      <trkpt lat="37.822139" lon="-111.519222"/>
      <trkpt lat="37.822027" lon="-111.519336"/>
      <trkpt lat="37.821894" lon="-111.519500"/>
      <trkpt lat="37.821605" lon="-111.519674"/>
      <trkpt lat="37.821456" lon="-111.519701"/>
      <trkpt lat="37.821204" lon="-111.519635"/>
      <trkpt lat="37.821102" lon="-111.519488"/>
      <trkpt lat="37.821089" lon="-111.519396"/>
      <trkpt lat="37.821025" lon="-111.519062"/>
      <trkpt lat="37.820876" lon="-111.518716"/>
      <trkpt lat="37.820804" lon="-111.518353"/>
      <trkpt lat="37.820608" lon="-111.517934"/>
      <trkpt lat="37.820525" lon="-111.517887"/>
      <trkpt lat="37.820250" lon="-111.517943"/>
      <trkpt lat="37.819894" lon="-111.518182"/>
      <trkpt lat="37.819776" lon="-111.518334"/>
      <trkpt lat="37.819466" lon="-111.518557"/>
      <trkpt lat="37.819247" lon="-111.518812"/>
      <trkpt lat="37.819202" lon="-111.518839"/>
      <trkpt lat="37.819151" lon="-111.518690"/>
      <trkpt lat="37.818915" lon="-111.518184"/>
      <trkpt lat="37.818840" lon="-111.517983"/>
      <trkpt lat="37.818798" lon="-111.517699"/>
      <trkpt lat="37.818701" lon="-111.517386"/>
      <trkpt lat="37.818654" lon="-111.517306"/>
      <trkpt lat="37.818478" lon="-111.517296"/>
      <trkpt lat="37.818446" lon="-111.517349"/>
      <trkpt lat="37.818405" lon="-111.517666"/>
      <trkpt lat="37.818219" lon="-111.518035"/>
      <trkpt lat="37.818166" lon="-111.518213"/>
      <trkpt lat="37.818184" lon="-111.518749"/>
      <trkpt lat="37.818159" lon="-111.519077"/>
      <trkpt lat="37.818205" lon="-111.519310"/>
      <trkpt lat="37.818287" lon="-111.519695"/>
      <trkpt lat="37.818416" lon="-111.520024"/>
      <trkpt lat="37.818481" lon="-111.520072"/>
      <trkpt lat="37.818538" lon="-111.520305"/>
      <trkpt lat="37.818357" lon="-111.520485"/>
      <trkpt lat="37.818205" lon="-111.520487"/>
      <trkpt lat="37.817920" lon="-111.520305"/>
      <trkpt lat="37.817865" lon="-111.520163"/>
      <trkpt lat="37.817697" lon="-111.519963"/>
      <trkpt lat="37.817673" lon="-111.519783"/>
      <trkpt lat="37.817618" lon="-111.519707"/>
      <trkpt lat="37.817453" lon="-111.519771"/>
      <trkpt lat="37.817366" lon="-111.520075"/>
      <trkpt lat="37.817385" lon="-111.520252"/>
      <trkpt lat="37.817477" lon="-111.520636"/>
      <trkpt lat="37.817538" lon="-111.521072"/>
      <trkpt lat="37.817526" lon="-111.521179"/>
      <trkpt lat="37.817480" lon="-111.521347"/>
      <trkpt lat="37.817344" lon="-111.521404"/>
      <trkpt lat="37.816932" lon="-111.521293"/>
      <trkpt lat="37.816549" lon="-111.521222"/>
      <trkpt lat="37.816402" lon="-111.521142"/>
      <trkpt lat="37.816182" lon="-111.520966"/>
      <trkpt lat="37.815990" lon="-111.520767"/>
      <trkpt lat="37.815946" lon="-111.520634"/>
      <trkpt lat="37.815732" lon="-111.520297"/>
      <trkpt lat="37.815459" lon="-111.520178"/>
      <trkpt lat="37.815304" lon="-111.520178"/>
      <trkpt lat="37.815069" lon="-111.520309"/>
      <trkpt lat="37.814901" lon="-111.520622"/>
      <trkpt lat="37.814854" lon="-111.520829"/>
      <trkpt lat="37.814701" lon="-111.521070"/>
      <trkpt lat="37.814670" lon="-111.521123"/>
      <trkpt lat="37.814586" lon="-111.521314"/>
      <trkpt lat="37.814311" lon="-111.521433"/>
      <trkpt lat="37.814117" lon="-111.521428"/>
      <trkpt lat="37.813845" lon="-111.521459"/>
      <trkpt lat="37.813536" lon="-111.521389"/>
      <trkpt lat="37.813399" lon="-111.521312"/>
      <trkpt lat="37.813207" lon="-111.521031"/>
      <trkpt lat="37.813058" lon="-111.520667"/>
      <trkpt lat="37.812932" lon="-111.520538"/>
      <trkpt lat="37.812854" lon="-111.520323"/>
      <trkpt lat="37.812707" lon="-111.520256"/>
      <trkpt lat="37.812504" lon="-111.520241"/>
      <trkpt lat="37.812170" lon="-111.520282"/>
      <trkpt lat="37.811986" lon="-111.520250"/>
      <trkpt lat="37.811766" lon="-111.520182"/>
      <trkpt lat="37.811376" lon="-111.520035"/>
      <trkpt lat="37.811195" lon="-111.519890"/>
      <trkpt lat="37.810692" lon="-111.519408"/>
      <trkpt lat="37.810552" lon="-111.519530"/>
      <trkpt lat="37.810430" lon="-111.519544"/>
      <trkpt lat="37.810158" lon="-111.519352"/>
      <trkpt lat="37.809897" lon="-111.519163"/>
      <trkpt lat="37.809706" lon="-111.519093"/>
      <trkpt lat="37.809168" lon="-111.519134"/>
      <trkpt lat="37.808845" lon="-111.519388"/>
      <trkpt lat="37.808726" lon="-111.519423"/>
      <trkpt lat="37.808351" lon="-111.519590"/>
      <trkpt lat="37.808248" lon="-111.519562"/>
      <trkpt lat="37.808126" lon="-111.519252"/>
      <trkpt lat="37.808204" lon="-111.518977"/>
      <trkpt lat="37.808207" lon="-111.518850"/>
      <trkpt lat="37.808091" lon="-111.518534"/>
      <trkpt lat="37.807948" lon="-111.518386"/>
      <trkpt lat="37.807873" lon="-111.518354"/>
      <trkpt lat="37.807691" lon="-111.518190"/>
      <trkpt lat="37.807370" lon="-111.518368"/>
      <trkpt lat="37.807315" lon="-111.518687"/>
      <trkpt lat="37.807214" lon="-111.519004"/>
      <trkpt lat="37.807142" lon="-111.519243"/>
      <trkpt lat="37.807051" lon="-111.519407"/>
      <trkpt lat="37.806790" lon="-111.519622"/>
      <trkpt lat="37.806702" lon="-111.519672"/>
      <trkpt lat="37.806351" lon="-111.519527"/>
      <trkpt lat="37.806061" lon="-111.519357"/>
      <trkpt lat="37.805969" lon="-111.519292"/>
      <trkpt lat="37.805681" lon="-111.519025"/>
      <trkpt lat="37.805387" lon="-111.518653"/>
      <trkpt lat="37.804979" lon="-111.518248"/>
      <trkpt lat="37.804679" lon="-111.518020"/>
      <trkpt lat="37.804477" lon="-111.517721"/>
      <trkpt lat="37.804449" lon="-111.517570"/>
      <trkpt lat="37.804606" lon="-111.517421"/>
      <trkpt lat="37.804765" lon="-111.516985"/>
      <trkpt lat="37.805172" lon="-111.516673"/>
      <trkpt lat="37.805584" lon="-111.516479"/>
      <trkpt lat="37.805761" lon="-111.516394"/>
      <trkpt lat="37.806212" lon="-111.516156"/>
      <trkpt lat="37.806628" lon="-111.515745"/>
      <trkpt lat="37.806779" lon="-111.515559"/>
      <trkpt lat="37.807006" lon="-111.515075"/>
      <trkpt lat="37.807099" lon="-111.514795"/>
      <trkpt lat="37.807108" lon="-111.514663"/>
      <trkpt lat="37.807070" lon="-111.514362"/>
      <trkpt lat="37.806524" lon="-111.514248"/>
      <trkpt lat="37.806241" lon="-111.514338"/>
      <trkpt lat="37.805952" lon="-111.514186"/>
      <trkpt lat="37.805759" lon="-111.513764"/>
      <trkpt lat="37.805698" lon="-111.513619"/>
      <trkpt lat="37.805403" lon="-111.512844"/>
      <trkpt lat="37.805276" lon="-111.512642"/>
      <trkpt lat="37.805071" lon="-111.512203"/>
      <trkpt lat="37.804831" lon="-111.511986"/>
      <trkpt lat="37.804621" lon="-111.511986"/>
      <trkpt lat="37.804428" lon="-111.512173"/>
      <trkpt lat="37.804051" lon="-111.512512"/>
      <trkpt lat="37.803731" lon="-111.512374"/>
      <trkpt lat="37.803401" lon="-111.512332"/>
      <trkpt lat="37.803017" lon="-111.512489"/>
      <trkpt lat="37.802849" lon="-111.512514"/>
      <trkpt lat="37.802669" lon="-111.512754"/>
      <trkpt lat="37.802295" lon="-111.513028"/>
      <trkpt lat="37.801864" lon="-111.513140"/>
      <trkpt lat="37.801539" lon="-111.513421"/>
      <trkpt lat="37.801390" lon="-111.513504"/>
      <trkpt lat="37.801037" lon="-111.513497"/>
      <trkpt lat="37.800929" lon="-111.513131"/>
      <trkpt lat="37.800906" lon="-111.512972"/>
      <trkpt lat="37.800615" lon="-111.512869"/>
      <trkpt lat="37.800468" lon="-111.512591"/>
      <trkpt lat="37.800415" lon="-111.512465"/>
      <trkpt lat="37.800419" lon="-111.511971"/>
      <trkpt lat="37.800343" lon="-111.511448"/>
      <trkpt lat="37.800394" lon="-111.511265"/>
      <trkpt lat="37.800518" lon="-111.510833"/>
      <trkpt lat="37.800517" lon="-111.510617"/>
      <trkpt lat="37.800382" lon="-111.510234"/>
      <trkpt lat="37.800080" lon="-111.509964"/>
      <trkpt lat="37.799720" lon="-111.509852"/>
      <trkpt lat="37.799190" lon="-111.509838"/>
      <trkpt lat="37.798946" lon="-111.509928"/>
      <trkpt lat="37.798790" lon="-111.510041"/>
      <trkpt lat="37.798598" lon="-111.510376"/>
      <trkpt lat="37.798510" lon="-111.510658"/>
      <trkpt lat="37.798464" lon="-111.510812"/>
      <trkpt lat="37.798329" lon="-111.511083"/>
      <trkpt lat="37.798040" lon="-111.511316"/>
      <trkpt lat="37.797964" lon="-111.511419"/>
      <trkpt lat="37.797652" lon="-111.511554"/>
      <trkpt lat="37.797516" lon="-111.511648"/>
      <trkpt lat="37.797290" lon="-111.511713"/>
      <trkpt lat="37.796902" lon="-111.511828"/>
      <trkpt lat="37.796674" lon="-111.511621"/>
      <trkpt lat="37.796164" lon="-111.511494"/>
      <trkpt lat="37.795912" lon="-111.511527"/>
      <trkpt lat="37.795890" lon="-111.511506"/>
      <trkpt lat="37.795840" lon="-111.511029"/>
      <trkpt lat="37.795817" lon="-111.510777"/>
      <trkpt lat="37.795828" lon="-111.510547"/>
      <trkpt lat="37.795680" lon="-111.510329"/>
      <trkpt lat="37.795411" lon="-111.510101"/>
      <trkpt lat="37.795344" lon="-111.510035"/>
      <trkpt lat="37.795076" lon="-111.509937"/>
      <trkpt lat="37.794999" lon="-111.509862"/>
      <trkpt lat="37.794898" lon="-111.509564"/>
      <trkpt lat="37.795023" lon="-111.509387"/>
      <trkpt lat="37.795105" lon="-111.509332"/>
      <trkpt lat="37.795420" lon="-111.509084"/>
      <trkpt lat="37.795984" lon="-111.508832"/>
      <trkpt lat="37.796072" lon="-111.508775"/>
      <trkpt lat="37.796207" lon="-111.508536"/>
      <trkpt lat="37.796329" lon="-111.508281"/>
      <trkpt lat="37.796304" lon="-111.508135"/>
      <trkpt lat="37.796155" lon="-111.507932"/>
      <trkpt lat="37.796000" lon="-111.507754"/>
      <trkpt lat="37.795835" lon="-111.507636"/>
      <trkpt lat="37.795660" lon="-111.507568"/>
      <trkpt lat="37.795313" lon="-111.507518"/>
      <trkpt lat="37.795113" lon="-111.507415"/>
      <trkpt lat="37.794492" lon="-111.507221"/>
      <trkpt lat="37.794306" lon="-111.507155"/>
      <trkpt lat="37.793938" lon="-111.507172"/>
      <trkpt lat="37.793777" lon="-111.507363"/>
      <trkpt lat="37.793697" lon="-111.507487"/>
      <trkpt lat="37.793755" lon="-111.507677"/>
      <trkpt lat="37.793784" lon="-111.507905"/>
      <trkpt lat="37.793746" lon="-111.508180"/>
      <trkpt lat="37.793610" lon="-111.508442"/>
      <trkpt lat="37.793498" lon="-111.508432"/>
      <trkpt lat="37.793396" lon="-111.508472"/>
      <trkpt lat="37.793190" lon="-111.508542"/>
      <trkpt lat="37.793076" lon="-111.508616"/>
      <trkpt lat="37.792784" lon="-111.508663"/>
      <trkpt lat="37.792563" lon="-111.508609"/>
      <trkpt lat="37.792411" lon="-111.508594"/>
      <trkpt lat="37.791962" lon="-111.508595"/>
      <trkpt lat="37.791606" lon="-111.508417"/>
      <trkpt lat="37.791522" lon="-111.508359"/>
      <trkpt lat="37.791278" lon="-111.508248"/>
      <trkpt lat="37.790806" lon="-111.508429"/>
      <trkpt lat="37.790652" lon="-111.508616"/>
      <trkpt lat="37.790422" lon="-111.509052"/>
      <trkpt lat="37.790323" lon="-111.509710"/>
      <trkpt lat="37.790279" lon="-111.509862"/>
      <trkpt lat="37.790155" lon="-111.510169"/>
      <trkpt lat="37.790033" lon="-111.510230"/>
      <trkpt lat="37.789728" lon="-111.510316"/>
      <trkpt lat="37.789181" lon="-111.510506"/>
      <trkpt lat="37.789098" lon="-111.510566"/>
      <trkpt lat="37.788835" lon="-111.510653"/>
      <trkpt lat="37.788304" lon="-111.510593"/>
      <trkpt lat="37.788164" lon="-111.510528"/>
      <trkpt lat="37.787695" lon="-111.510463"/>
      <trkpt lat="37.787087" lon="-111.510135"/>
      <trkpt lat="37.787008" lon="-111.510025"/>
      <trkpt lat="37.786864" lon="-111.509775"/>
      <trkpt lat="37.786822" lon="-111.509476"/>
      <trkpt lat="37.786873" lon="-111.509413"/>
      <trkpt lat="37.786900" lon="-111.508999"/>
      <trkpt lat="37.786856" lon="-111.508895"/>
      <trkpt lat="37.786627" lon="-111.508558"/>
      <trkpt lat="37.786384" lon="-111.508464"/>
      <trkpt lat="37.786301" lon="-111.508407"/>
      <trkpt lat="37.786137" lon="-111.508503"/>
      <trkpt lat="37.785871" lon="-111.508440"/>
      <trkpt lat="37.785797" lon="-111.508419"/>
      <trkpt lat="37.785562" lon="-111.508392"/>
      <trkpt lat="37.785336" lon="-111.508030"/>
      <trkpt lat="37.785087" lon="-111.507794"/>
      <trkpt lat="37.784605" lon="-111.507381"/>
      <trkpt lat="37.784274" lon="-111.507238"/>
      <trkpt lat="37.784150" lon="-111.507196"/>
      <trkpt lat="37.783902" lon="-111.507230"/>
      <trkpt lat="37.783822" lon="-111.507291"/>
      <trkpt lat="37.783701" lon="-111.507375"/>
      <trkpt lat="37.783558" lon="-111.507347"/>
      <trkpt lat="37.783375" lon="-111.507224"/>
      <trkpt lat="37.783061" lon="-111.506785"/>
      <trkpt lat="37.782710" lon="-111.506278"/>
      <trkpt lat="37.782556" lon="-111.506210"/>
      <trkpt lat="37.782214" lon="-111.506211"/>
      <trkpt lat="37.781648" lon="-111.505931"/>
      <trkpt lat="37.781478" lon="-111.505820"/>
      <trkpt lat="37.781212" lon="-111.505507"/>
      <trkpt lat="37.781182" lon="-111.505277"/>
    </trkseg>
    <trkseg>
      <trkpt lat="37.781043" lon="-111.505269"><ele>1669.2</ele></trkpt>
      <trkpt lat="37.781043" lon="-111.505276"><ele>1669.5</ele></trkpt>
      <trkpt lat="37.781008" lon="-111.505361"><ele>1669.8</ele></trkpt>
      <trkpt lat="37.780997" lon="-111.505463"><ele>1671.2</ele></trkpt>
      <trkpt lat="37.780928" lon="-111.505618"><ele>1671.2</ele></trkpt>
      <trkpt lat="37.780752" lon="-111.505676"><ele>1669.2</ele></trkpt>
      <trkpt lat="37.780677" lon="-111.505791"><ele>1672.5</ele></trkpt>
      <trkpt lat="37.780447" lon="-111.505936"><ele>1681.8</ele></trkpt>
      <trkpt lat="37.780214" lon="-111.506053"><ele>1688.8</ele></trkpt>
      <trkpt lat="37.780084" lon="-111.506186"><ele>1694.0</ele></trkpt>
      <trkpt lat="37.780085" lon="-111.506259"><ele>1696.2</ele></trkpt>
      <trkpt lat="37.780080" lon="-111.506408"><ele>1701.0</ele></trkpt>
      <trkpt lat="37.780006" lon="-111.506590"><ele>1705.8</ele></trkpt>
      <trkpt lat="37.779903" lon="-111.506744"><ele>1719.5</ele></trkpt>
      <trkpt lat="37.779814" lon="-111.506893"><ele>1734.0</ele></trkpt>
      <trkpt lat="37.779628" lon="-111.507103"><ele>1754.8</ele></trkpt>
      <trkpt lat="37.779492" lon="-111.507508"><ele>1777.0</ele></trkpt>
      <trkpt lat="37.779388" lon="-111.507754"><ele>1780.2</ele></trkpt>
      <trkpt lat="37.779359" lon="-111.507880"><ele>1781.2</ele></trkpt>
      <trkpt lat="37.779399" lon="-111.508327"><ele>1781.0</ele></trkpt>
      <trkpt lat="37.779433" lon="-111.508799"><ele>1766.5</ele></trkpt>
      <trkpt lat="37.779390" lon="-111.509056"><ele>1760.2</ele></trkpt>
      <trkpt lat="37.779388" lon="-111.509233"><ele>1749.8</ele></trkpt>
      <trkpt lat="37.779441" lon="-111.509387"><ele>1731.0</ele></trkpt>
      <trkpt lat="37.779410" lon="-111.509591"><ele>1709.2</ele></trkpt>
      <trkpt lat="37.779320" lon="-111.509710"><ele>1699.0</ele></trkpt>
      <trkpt lat="37.779252" lon="-111.509880"><ele>1682.8</ele></trkpt>
      <trkpt lat="37.779273" lon="-111.510269"><ele>1672.2</ele></trkpt>
      <trkpt lat="37.779277" lon="-111.510555"><ele>1676.0</ele></trkpt>
      <trkpt lat="37.779298" lon="-111.510651"><ele>1676.2</ele></trkpt>
      <trkpt lat="37.779319" lon="-111.510811"><ele>1677.2</ele></trkpt>
      <trkpt lat="37.779290" lon="-111.510985"><ele>1680.0</ele></trkpt>
      <trkpt lat="37.779317" lon="-111.511113"><ele>1679.5</ele></trkpt>
      <trkpt lat="37.779385" lon="-111.511247"><ele>1677.0</ele></trkpt>
      <trkpt lat="37.779483" lon="-111.511353"><ele>1672.8</ele></trkpt>
      <trkpt lat="37.779574" lon="-111.511394"><ele>1668.5</ele></trkpt>
      <trkpt lat="37.779564" lon="-111.511594"><ele>1670.0</ele></trkpt>
      <trkpt lat="37.779646" lon="-111.511658"><ele>1666.0</ele></trkpt>
      <trkpt lat="37.779786" lon="-111.511721"><ele>1660.2</ele></trkpt>
      <trkpt lat="37.779876" lon="-111.511807"><ele>1658.5</ele></trkpt>
      <trkpt lat="37.779892" lon="-111.511982"><ele>1663.2</ele></trkpt>
      <trkpt lat="37.779975" lon="-111.512172"><ele>1666.8</ele></trkpt>
      <trkpt lat="37.780118" lon="-111.512358"><ele>1679.8</ele></trkpt>
      <trkpt lat="37.780199" lon="-111.512596"><ele>1687.2</ele></trkpt>
      <trkpt lat="37.780134" lon="-111.512858"><ele>1690.5</ele></trkpt>
      <trkpt lat="37.780060" lon="-111.512995"><ele>1690.8</ele></trkpt>
      <trkpt lat="37.780075" lon="-111.513052"><ele>1692.5</ele></trkpt>
      <trkpt lat="37.780058" lon="-111.513197"><ele>1695.0</ele></trkpt>
      <trkpt lat="37.779992" lon="-111.513330"><ele>1695.8</ele></trkpt>
      <trkpt lat="37.779931" lon="-111.513375"><ele>1696.2</ele></trkpt>
      <trkpt lat="37.779917" lon="-111.513460"><ele>1699.5</ele></trkpt>
      <trkpt lat="37.779953" lon="-111.513528"><ele>1703.0</ele></trkpt>
      <trkpt lat="37.779938" lon="-111.513587"><ele>1705.2</ele></trkpt>
      <trkpt lat="37.779669" lon="-111.513724"><ele>1705.0</ele></trkpt>
      <trkpt lat="37.779451" lon="-111.513811"><ele>1703.5</ele></trkpt>
      <trkpt lat="37.779205" lon="-111.513856"><ele>1699.8</ele></trkpt>
      <trkpt lat="37.779115" lon="-111.513787"><ele>1695.2</ele></trkpt>
      <trkpt lat="37.778763" lon="-111.513623"><ele>1677.8</ele></trkpt>
      <trkpt lat="37.778551" lon="-111.513587"><ele>1669.0</ele></trkpt>
      <trkpt lat="37.778437" lon="-111.513503"><ele>1659.0</ele></trkpt>
      <trkpt lat="37.778359" lon="-111.513481"><ele>1654.5</ele></trkpt>
      <trkpt lat="37.778264" lon="-111.513332"><ele>1645.8</ele></trkpt>
      <trkpt lat="37.778054" lon="-111.513061"><ele>1669.5</ele></trkpt>
      <trkpt lat="37.778023" lon="-111.512993"><ele>1674.0</ele></trkpt>
      <trkpt lat="37.777769" lon="-111.512767"><ele>1697.5</ele></trkpt>
      <trkpt lat="37.777618" lon="-111.512666"><ele>1709.8</ele></trkpt>
      <trkpt lat="37.777432" lon="-111.512623"><ele>1721.8</ele></trkpt>
      <trkpt lat="37.777300" lon="-111.512661"><ele>1728.0</ele></trkpt>
      <trkpt lat="37.777079" lon="-111.512773"><ele>1736.2</ele></trkpt>
      <trkpt lat="37.776948" lon="-111.512976"><ele>1736.0</ele></trkpt>
      <trkpt lat="37.776874" lon="-111.513170"><ele>1732.8</ele></trkpt>
      <trkpt lat="37.776869" lon="-111.513323"><ele>1727.2</ele></trkpt>
      <trkpt lat="37.776902" lon="-111.513497"><ele>1726.0</ele></trkpt>
      <trkpt lat="37.776964" lon="-111.513770"><ele>1724.0</ele></trkpt>
      <trkpt lat="37.776997" lon="-111.513843"><ele>1722.5</ele></trkpt>
      <trkpt lat="37.777056" lon="-111.513976"><ele>1719.8</ele></trkpt>
      <trkpt lat="37.777326" lon="-111.514066"><ele>1704.0</ele></trkpt>
      <trkpt lat="37.777563" lon="-111.514125"><ele>1694.5</ele></trkpt>
      <trkpt lat="37.777788" lon="-111.514244"><ele>1700.5</ele></trkpt>
      <trkpt lat="37.777852" lon="-111.514390"><ele>1705.2</ele></trkpt>
      <trkpt lat="37.777927" lon="-111.514670"><ele>1714.2</ele></trkpt>
      <trkpt lat="37.777916" lon="-111.514886"><ele>1719.5</ele></trkpt>
      <trkpt lat="37.777913" lon="-111.515182"><ele>1728.2</ele></trkpt>
      <trkpt lat="37.777851" lon="-111.515368"><ele>1732.2</ele></trkpt>
      <trkpt lat="37.777780" lon="-111.515518"><ele>1735.2</ele></trkpt>
      <trkpt lat="37.777805" lon="-111.515613"><ele>1739.2</ele></trkpt>
      <trkpt lat="37.777699" lon="-111.515902"><ele>1747.2</ele></trkpt>
      <trkpt lat="37.777631" lon="-111.516159"><ele>1757.5</ele></trkpt>
      <trkpt lat="37.777617" lon="-111.516275"><ele>1762.5</ele></trkpt>
      <trkpt lat="37.777660" lon="-111.516320"><ele>1764.5</ele></trkpt>
      <trkpt lat="37.777617" lon="-111.516536"><ele>1774.5</ele></trkpt>
      <trkpt lat="37.777645" lon="-111.516725"><ele>1776.8</ele></trkpt>
      <trkpt lat="37.777712" lon="-111.516777"><ele>1773.2</ele></trkpt>
      <trkpt lat="37.777858" lon="-111.516886"><ele>1766.5</ele></trkpt>
      <trkpt lat="37.777994" lon="-111.517080"><ele>1758.2</ele></trkpt>
      <trkpt lat="37.778118" lon="-111.517285"><ele>1752.2</ele></trkpt>
      <trkpt lat="37.778172" lon="-111.517483"><ele>1747.5</ele></trkpt>
      <trkpt lat="37.778178" lon="-111.517919"><ele>1729.2</ele></trkpt>
      <trkpt lat="37.778086" lon="-111.518279"><ele>1709.5</ele></trkpt>
      <trkpt lat="37.777929" lon="-111.518566"><ele>1692.0</ele></trkpt>
      <trkpt lat="37.777880" lon="-111.518729"><ele>1685.5</ele></trkpt>
      <trkpt lat="37.777884" lon="-111.518923"><ele>1680.0</ele></trkpt>
      <trkpt lat="37.777886" lon="-111.519026"><ele>1677.0</ele></trkpt>
      <trkpt lat="37.777823" lon="-111.519121"><ele>1673.8</ele></trkpt>
      <trkpt lat="37.777790" lon="-111.519406"><ele>1671.8</ele></trkpt>
      <trkpt lat="37.777720" lon="-111.519615"><ele>1670.0</ele></trkpt>
      <trkpt lat="37.777677" lon="-111.519803"><ele>1668.5</ele></trkpt>
      <trkpt lat="37.777626" lon="-111.519945"><ele>1666.8</ele></trkpt>
      <trkpt lat="37.777574" lon="-111.520169"><ele>1665.2</ele></trkpt>
      <trkpt lat="37.777605" lon="-111.520524"><ele>1665.8</ele></trkpt>
      <trkpt lat="37.777759" lon="-111.520758"><ele>1668.2</ele></trkpt>
      <trkpt lat="37.777945" lon="-111.521120"><ele>1676.0</ele></trkpt>
      <trkpt lat="37.778178" lon="-111.521396"><ele>1675.8</ele></trkpt>
      <trkpt lat="37.778370" lon="-111.521728"><ele>1672.8</ele></trkpt>
      <trkpt lat="37.778639" lon="-111.522106"><ele>1695.5</ele></trkpt>
      <trkpt lat="37.778696" lon="-111.522285"><ele>1703.0</ele></trkpt>
      <trkpt lat="37.778765" lon="-111.522433"><ele>1710.8</ele></trkpt>
      <trkpt lat="37.778808" lon="-111.522544"><ele>1717.8</ele></trkpt>
      <trkpt lat="37.778901" lon="-111.522737"><ele>1733.8</ele></trkpt>
      <trkpt lat="37.778922" lon="-111.522780"><ele>1737.0</ele></trkpt>
      <trkpt lat="37.778781" lon="-111.523201"><ele>1756.0</ele></trkpt>
      <trkpt lat="37.778669" lon="-111.523415"><ele>1766.0</ele></trkpt>
      <trkpt lat="37.778513" lon="-111.523649"><ele>1772.5</ele></trkpt>
      <trkpt lat="37.778301" lon="-111.523863"><ele>1779.0</ele></trkpt>
      <trkpt lat="37.778235" lon="-111.523970"><ele>1783.2</ele></trkpt>
      <trkpt lat="37.778090" lon="-111.523985"><ele>1785.2</ele></trkpt>
      <trkpt lat="37.778010" lon="-111.524267"><ele>1795.5</ele></trkpt>
      <trkpt lat="37.777898" lon="-111.524441"><ele>1801.5</ele></trkpt>
      <trkpt lat="37.777659" lon="-111.525289"><ele>1820.5</ele></trkpt>
      <trkpt lat="37.777613" lon="-111.525576"><ele>1821.2</ele></trkpt>
      <trkpt lat="37.777604" lon="-111.525699"><ele>1821.5</ele></trkpt>
      <trkpt lat="37.777615" lon="-111.525828"><ele>1821.2</ele></trkpt>
      <trkpt lat="37.777674" lon="-111.525970"><ele>1816.8</ele></trkpt>
      <trkpt lat="37.777823" lon="-111.526078"><ele>1813.2</ele></trkpt>
      <trkpt lat="37.777895" lon="-111.526239"><ele>1809.8</ele></trkpt>
      <trkpt lat="37.777986" lon="-111.526333"><ele>1808.5</ele></trkpt>
      <trkpt lat="37.778081" lon="-111.526411"><ele>1807.8</ele></trkpt>
      <trkpt lat="37.778270" lon="-111.526435"><ele>1809.0</ele></trkpt>
      <trkpt lat="37.778594" lon="-111.526547"><ele>1810.0</ele></trkpt>
      <trkpt lat="37.778751" lon="-111.526652"><ele>1810.5</ele></trkpt>
      <trkpt lat="37.778827" lon="-111.526760"><ele>1810.8</ele></trkpt>
      <trkpt lat="37.778867" lon="-111.527055"><ele>1811.2</ele></trkpt>
      <trkpt lat="37.778852" lon="-111.527229"><ele>1811.2</ele></trkpt>
      <trkpt lat="37.778867" lon="-111.527801"><ele>1830.2</ele></trkpt>
      <trkpt lat="37.778826" lon="-111.528053"><ele>1843.5</ele></trkpt>
      <trkpt lat="37.778837" lon="-111.528354"><ele>1861.2</ele></trkpt>
      <trkpt lat="37.778745" lon="-111.528585"><ele>1858.2</ele></trkpt>
      <trkpt lat="37.778668" lon="-111.529085"><ele>1860.5</ele></trkpt>
      <trkpt lat="37.778575" lon="-111.529508"><ele>1847.0</ele></trkpt>
      <trkpt lat="37.778542" lon="-111.529777"><ele>1841.0</ele></trkpt>
      <trkpt lat="37.778509" lon="-111.529955"><ele>1837.8</ele></trkpt>
      <trkpt lat="37.778604" lon="-111.530244"><ele>1833.8</ele></trkpt>
      <trkpt lat="37.778628" lon="-111.530333"><ele>1832.5</ele></trkpt>
      <trkpt lat="37.778646" lon="-111.530464"><ele>1830.8</ele></trkpt>
      <trkpt lat="37.778725" lon="-111.530610"><ele>1829.8</ele></trkpt>
      <trkpt lat="37.778817" lon="-111.530675"><ele>1830.5</ele></trkpt>
      <trkpt lat="37.779033" lon="-111.530750"><ele>1833.8</ele></trkpt>
      <trkpt lat="37.779085" lon="-111.530779"><ele>1834.5</ele></trkpt>
      <trkpt lat="37.779158" lon="-111.530738"><ele>1836.0</ele></trkpt>
      <trkpt lat="37.779356" lon="-111.530862"><ele>1838.2</ele></trkpt>
      <trkpt lat="37.779528" lon="-111.531120"><ele>1840.8</ele></trkpt>
      <trkpt lat="37.779554" lon="-111.531260"><ele>1841.0</ele></trkpt>
      <trkpt lat="37.779570" lon="-111.531399"><ele>1841.5</ele></trkpt>
      <trkpt lat="37.779600" lon="-111.531538"><ele>1841.8</ele></trkpt>
      <trkpt lat="37.779654" lon="-111.531680"><ele>1842.5</ele></trkpt>
      <trkpt lat="37.779651" lon="-111.531861"><ele>1842.5</ele></trkpt>
      <trkpt lat="37.779692" lon="-111.532018"><ele>1843.2</ele></trkpt>
      <trkpt lat="37.779733" lon="-111.532101"><ele>1843.8</ele></trkpt>
      <trkpt lat="37.779803" lon="-111.532208"><ele>1844.8</ele></trkpt>
      <trkpt lat="37.779912" lon="-111.532374"><ele>1846.2</ele></trkpt>
      <trkpt lat="37.780039" lon="-111.532552"><ele>1850.0</ele></trkpt>
      <trkpt lat="37.780116" lon="-111.532687"><ele>1855.0</ele></trkpt>
      <trkpt lat="37.780405" lon="-111.532772"><ele>1861.5</ele></trkpt>
      <trkpt lat="37.780464" lon="-111.532896"><ele>1866.2</ele></trkpt>
      <trkpt lat="37.780698" lon="-111.532975"><ele>1871.8</ele></trkpt>
      <trkpt lat="37.780869" lon="-111.532966"><ele>1873.2</ele></trkpt>
      <trkpt lat="37.781068" lon="-111.532769"><ele>1866.5</ele></trkpt>
      <trkpt lat="37.781139" lon="-111.532795"><ele>1867.0</ele></trkpt>
      <trkpt lat="37.781205" lon="-111.532881"><ele>1869.2</ele></trkpt>
      <trkpt lat="37.781330" lon="-111.533120"><ele>1875.5</ele></trkpt>
      <trkpt lat="37.781337" lon="-111.533631"><ele>1883.2</ele></trkpt>
      <trkpt lat="37.781302" lon="-111.533721"><ele>1884.0</ele></trkpt>
      <trkpt lat="37.781309" lon="-111.533909"><ele>1885.2</ele></trkpt>
      <trkpt lat="37.781219" lon="-111.534556"><ele>1888.2</ele></trkpt>
      <trkpt lat="37.781127" lon="-111.535106"><ele>1889.0</ele></trkpt>
      <trkpt lat="37.781110" lon="-111.535441"><ele>1891.8</ele></trkpt>
      <trkpt lat="37.781047" lon="-111.535718"><ele>1892.5</ele></trkpt>
      <trkpt lat="37.780901" lon="-111.535885"><ele>1888.2</ele></trkpt>
      <trkpt lat="37.780877" lon="-111.536110"><ele>1885.2</ele></trkpt>
      <trkpt lat="37.780870" lon="-111.536180"><ele>1884.2</ele></trkpt>
      <trkpt lat="37.780878" lon="-111.536288"><ele>1883.2</ele></trkpt>
      <trkpt lat="37.780755" lon="-111.536590"><ele>1877.8</ele></trkpt>
      <trkpt lat="37.780711" lon="-111.536825"><ele>1871.5</ele></trkpt>
      <trkpt lat="37.780785" lon="-111.537133"><ele>1863.0</ele></trkpt>
      <trkpt lat="37.780557" lon="-111.537484"><ele>1848.0</ele></trkpt>
      <trkpt lat="37.780317" lon="-111.537696"><ele>1833.5</ele></trkpt>
      <trkpt lat="37.780132" lon="-111.538201"><ele>1803.8</ele></trkpt>
      <trkpt lat="37.780155" lon="-111.538502"><ele>1790.2</ele></trkpt>
      <trkpt lat="37.780101" lon="-111.538555"><ele>1786.0</ele></trkpt>
      <trkpt lat="37.780059" lon="-111.538635"><ele>1781.0</ele></trkpt>
      <trkpt lat="37.780201" lon="-111.539596"><ele>1748.8</ele></trkpt>
      <trkpt lat="37.780130" lon="-111.540027"><ele>1731.5</ele></trkpt>
      <trkpt lat="37.780038" lon="-111.540171"><ele>1725.5</ele></trkpt>
      <trkpt lat="37.779839" lon="-111.540305"><ele>1726.8</ele></trkpt>
      <trkpt lat="37.779759" lon="-111.540428"><ele>1727.5</ele></trkpt>
      <trkpt lat="37.779747" lon="-111.540566"><ele>1726.2</ele></trkpt>
      <trkpt lat="37.779690" lon="-111.540638"><ele>1726.8</ele></trkpt>
      <trkpt lat="37.779371" lon="-111.540762"><ele>1732.0</ele></trkpt>
      <trkpt lat="37.779045" lon="-111.540988"><ele>1730.5</ele></trkpt>
      <trkpt lat="37.778867" lon="-111.541378"><ele>1719.5</ele></trkpt>
      <trkpt lat="37.778903" lon="-111.541576"><ele>1708.5</ele></trkpt>
      <trkpt lat="37.778996" lon="-111.541734"><ele>1698.8</ele></trkpt>
      <trkpt lat="37.779098" lon="-111.541954"><ele>1692.5</ele></trkpt>
      <trkpt lat="37.779185" lon="-111.542167"><ele>1687.5</ele></trkpt>
      <trkpt lat="37.779348" lon="-111.542245"><ele>1688.5</ele></trkpt>
      <trkpt lat="37.779352" lon="-111.542433"><ele>1687.0</ele></trkpt>
      <trkpt lat="37.779398" lon="-111.542667"><ele>1689.8</ele></trkpt>
      <trkpt lat="37.779523" lon="-111.542920"><ele>1692.2</ele></trkpt>
      <trkpt lat="37.779516" lon="-111.543082"><ele>1695.0</ele></trkpt>
      <trkpt lat="37.779508" lon="-111.543281"><ele>1698.2</ele></trkpt>
      <trkpt lat="37.779720" lon="-111.543875"><ele>1696.0</ele></trkpt>
      <trkpt lat="37.779761" lon="-111.544006"><ele>1694.8</ele></trkpt>
      <trkpt lat="37.779761" lon="-111.544114"><ele>1695.5</ele></trkpt>
      <trkpt lat="37.779724" lon="-111.544572"><ele>1729.0</ele></trkpt>
      <trkpt lat="37.779759" lon="-111.544797"><ele>1745.0</ele></trkpt>
      <trkpt lat="37.779681" lon="-111.544992"><ele>1761.2</ele></trkpt>
      <trkpt lat="37.779514" lon="-111.545351"><ele>1756.0</ele></trkpt>
      <trkpt lat="37.779348" lon="-111.545590"><ele>1748.0</ele></trkpt>
      <trkpt lat="37.779219" lon="-111.545791"><ele>1738.8</ele></trkpt>
      <trkpt lat="37.779050" lon="-111.545919"><ele>1729.5</ele></trkpt>
      <trkpt lat="37.778901" lon="-111.545979"><ele>1722.8</ele></trkpt>
      <trkpt lat="37.778808" lon="-111.546029"><ele>1718.8</ele></trkpt>
      <trkpt lat="37.778526" lon="-111.546126"><ele>1708.2</ele></trkpt>
      <trkpt lat="37.778441" lon="-111.546306"><ele>1704.8</ele></trkpt>
      <trkpt lat="37.778277" lon="-111.546396"><ele>1703.0</ele></trkpt>
      <trkpt lat="37.777862" lon="-111.546324"><ele>1712.8</ele></trkpt>
      <trkpt lat="37.777687" lon="-111.546370"><ele>1715.5</ele></trkpt>
      <trkpt lat="37.777534" lon="-111.546586"><ele>1710.0</ele></trkpt>
      <trkpt lat="37.777501" lon="-111.546740"><ele>1705.5</ele></trkpt>
      <trkpt lat="37.777572" lon="-111.546953"><ele>1701.5</ele></trkpt>
      <trkpt lat="37.777641" lon="-111.547127"><ele>1698.2</ele></trkpt>
      <trkpt lat="37.777965" lon="-111.547618"><ele>1693.8</ele></trkpt>
      <trkpt lat="37.778136" lon="-111.547840"><ele>1694.8</ele></trkpt>
      <trkpt lat="37.778404" lon="-111.548103"><ele>1695.0</ele></trkpt>
      <trkpt lat="37.778492" lon="-111.548309"><ele>1696.0</ele></trkpt>
      <trkpt lat="37.778646" lon="-111.548510"><ele>1698.5</ele></trkpt>
      <trkpt lat="37.778833" lon="-111.548835"><ele>1698.2</ele></trkpt>
      <trkpt lat="37.779004" lon="-111.548953"><ele>1695.8</ele></trkpt>
      <trkpt lat="37.779407" lon="-111.549205"><ele>1692.5</ele></trkpt>
      <trkpt lat="37.780125" lon="-111.549248"><ele>1696.5</ele></trkpt>
      <trkpt lat="37.780425" lon="-111.549366"><ele>1699.8</ele></trkpt>
      <trkpt lat="37.780694" lon="-111.549729"><ele>1697.2</ele></trkpt>
      <trkpt lat="37.780782" lon="-111.550017"><ele>1693.2</ele></trkpt>
      <trkpt lat="37.780849" lon="-111.550392"><ele>1702.8</ele></trkpt>
      <trkpt lat="37.781016" lon="-111.550896"><ele>1714.2</ele></trkpt>
      <trkpt lat="37.781072" lon="-111.551160"><ele>1719.5</ele></trkpt>
      <trkpt lat="37.781146" lon="-111.551449"><ele>1724.5</ele></trkpt>
      <trkpt lat="37.781177" lon="-111.551655"><ele>1728.2</ele></trkpt>
      <trkpt lat="37.781145" lon="-111.551942"><ele>1729.5</ele></trkpt>
      <trkpt lat="37.781240" lon="-111.552234"><ele>1729.2</ele></trkpt>
      <trkpt lat="37.781383" lon="-111.552634"><ele>1727.8</ele></trkpt>
      <trkpt lat="37.781424" lon="-111.552967"><ele>1724.2</ele></trkpt>
      <trkpt lat="37.781308" lon="-111.553269"><ele>1718.2</ele></trkpt>
      <trkpt lat="37.781188" lon="-111.553507"><ele>1717.5</ele></trkpt>
      <trkpt lat="37.781076" lon="-111.553607"><ele>1716.8</ele></trkpt>
      <trkpt lat="37.780954" lon="-111.553684"><ele>1715.8</ele></trkpt>
      <trkpt lat="37.780691" lon="-111.553719"><ele>1718.8</ele></trkpt>
      <trkpt lat="37.780536" lon="-111.553707"><ele>1724.2</ele></trkpt>
      <trkpt lat="37.780424" lon="-111.553677"><ele>1727.5</ele></trkpt>
      <trkpt lat="37.780208" lon="-111.553641"><ele>1734.8</ele></trkpt>
      <trkpt lat="37.779975" lon="-111.553566"><ele>1742.8</ele></trkpt>
      <trkpt lat="37.779805" lon="-111.553522"><ele>1752.5</ele></trkpt>
      <trkpt lat="37.779680" lon="-111.553518"><ele>1760.2</ele></trkpt>
      <trkpt lat="37.779349" lon="-111.553565"><ele>1782.0</ele></trkpt>
      <trkpt lat="37.779172" lon="-111.553726"><ele>1796.5</ele></trkpt>
      <trkpt lat="37.779044" lon="-111.554243"><ele>1817.5</ele></trkpt>
      <trkpt lat="37.778999" lon="-111.554587"><ele>1831.0</ele></trkpt>
      <trkpt lat="37.778975" lon="-111.554960"><ele>1844.0</ele></trkpt>
      <trkpt lat="37.779009" lon="-111.555268"><ele>1850.5</ele></trkpt>
      <trkpt lat="37.779108" lon="-111.555541"><ele>1850.8</ele></trkpt>
      <trkpt lat="37.779138" lon="-111.555643"><ele>1851.5</ele></trkpt>
      <trkpt lat="37.779186" lon="-111.555738"><ele>1849.5</ele></trkpt>
      <trkpt lat="37.779387" lon="-111.556075"><ele>1834.5</ele></trkpt>
      <trkpt lat="37.779528" lon="-111.556357"><ele>1832.5</ele></trkpt>
      <trkpt lat="37.779658" lon="-111.556453"><ele>1825.8</ele></trkpt>
      <trkpt lat="37.779866" lon="-111.556548"><ele>1813.8</ele></trkpt>
      <trkpt lat="37.779971" lon="-111.556516"><ele>1801.8</ele></trkpt>
      <trkpt lat="37.780037" lon="-111.556559"><ele>1801.5</ele></trkpt>
      <trkpt lat="37.780186" lon="-111.556610"><ele>1798.8</ele></trkpt>
      <trkpt lat="37.780263" lon="-111.556575"><ele>1793.0</ele></trkpt>
      <trkpt lat="37.780363" lon="-111.556555"><ele>1787.5</ele></trkpt>
      <trkpt lat="37.780482" lon="-111.556566"><ele>1783.0</ele></trkpt>
      <trkpt lat="37.780611" lon="-111.556602"><ele>1778.2</ele></trkpt>
      <trkpt lat="37.780684" lon="-111.556615"><ele>1775.0</ele></trkpt>
      <trkpt lat="37.780910" lon="-111.556736"><ele>1766.5</ele></trkpt>
      <trkpt lat="37.781018" lon="-111.556784"><ele>1764.2</ele></trkpt>
      <trkpt lat="37.781274" lon="-111.556986"><ele>1757.5</ele></trkpt>
      <trkpt lat="37.781371" lon="-111.557104"><ele>1753.8</ele></trkpt>
      <trkpt lat="37.781558" lon="-111.557284"><ele>1746.0</ele></trkpt>
      <trkpt lat="37.781646" lon="-111.557463"><ele>1740.2</ele></trkpt>
      <trkpt lat="37.781669" lon="-111.557633"><ele>1735.5</ele></trkpt>
      <trkpt lat="37.781650" lon="-111.557962"><ele>1727.5</ele></trkpt>
      <trkpt lat="37.781619" lon="-111.558093"><ele>1725.5</ele></trkpt>
      <trkpt lat="37.781576" lon="-111.558164"><ele>1725.8</ele></trkpt>
      <trkpt lat="37.781508" lon="-111.558218"><ele>1727.8</ele></trkpt>
      <trkpt lat="37.781089" lon="-111.558376"><ele>1747.5</ele></trkpt>
      <trkpt lat="37.780823" lon="-111.558659"><ele>1766.8</ele></trkpt>
      <trkpt lat="37.780673" lon="-111.558828"><ele>1783.8</ele></trkpt>
      <trkpt lat="37.780578" lon="-111.558900"><ele>1794.0</ele></trkpt>
      <trkpt lat="37.780459" lon="-111.559022"><ele>1807.5</ele></trkpt>
      <trkpt lat="37.780321" lon="-111.559217"><ele>1824.5</ele></trkpt>
      <trkpt lat="37.780238" lon="-111.559481"><ele>1838.8</ele></trkpt>
      <trkpt lat="37.780097" lon="-111.559933"><ele>1862.8</ele></trkpt>
      <trkpt lat="37.780159" lon="-111.560298"><ele>1864.8</ele></trkpt>
      <trkpt lat="37.780210" lon="-111.560472"><ele>1863.5</ele></trkpt>
      <trkpt lat="37.780347" lon="-111.560668"><ele>1854.0</ele></trkpt>
      <trkpt lat="37.780646" lon="-111.560871"><ele>1828.2</ele></trkpt>
      <trkpt lat="37.780759" lon="-111.560911"><ele>1817.8</ele></trkpt>
      <trkpt lat="37.780952" lon="-111.560944"><ele>1801.8</ele></trkpt>
      <trkpt lat="37.781093" lon="-111.561006"><ele>1791.8</ele></trkpt>
      <trkpt lat="37.781182" lon="-111.561081"><ele>1786.0</ele></trkpt>
    </trkseg>
    <trkseg>
      <trkpt lat="37.781182" lon="-111.561081"><ele>1786.0</ele></trkpt>
      <trkpt lat="37.781210" lon="-111.561169"><ele>1785.5</ele></trkpt>
      <trkpt lat="37.781299" lon="-111.561181"><ele>1778.5</ele></trkpt>
      <trkpt lat="37.781413" lon="-111.561211"><ele>1770.0</ele></trkpt>
      <trkpt lat="37.781574" lon="-111.561275"><ele>1758.2</ele></trkpt>
      <trkpt lat="37.781740" lon="-111.561373"><ele>1749.5</ele></trkpt>
      <trkpt lat="37.781936" lon="-111.561415"><ele>1742.2</ele></trkpt>
      <trkpt lat="37.782096" lon="-111.561507"><ele>1736.5</ele></trkpt>
      <trkpt lat="37.782280" lon="-111.561722"><ele>1730.2</ele></trkpt>
      <trkpt lat="37.782537" lon="-111.561904"><ele>1722.0</ele></trkpt>
      <trkpt lat="37.782657" lon="-111.561944"><ele>1723.5</ele></trkpt>
      <trkpt lat="37.782736" lon="-111.562033"><ele>1724.5</ele></trkpt>
      <trkpt lat="37.782776" lon="-111.562142"><ele>1725.0</ele></trkpt>
      <trkpt lat="37.782831" lon="-111.562332"><ele>1725.5</ele></trkpt>
      <trkpt lat="37.782791" lon="-111.562573"><ele>1726.5</ele></trkpt>
      <trkpt lat="37.782663" lon="-111.562801"><ele>1730.2</ele></trkpt>
      <trkpt lat="37.782558" lon="-111.562957"><ele>1733.2</ele></trkpt>
      <trkpt lat="37.782449" lon="-111.563153"><ele>1739.5</ele></trkpt>
      <trkpt lat="37.782367" lon="-111.563284"><ele>1745.8</ele></trkpt>
      <trkpt lat="37.782235" lon="-111.563338"><ele>1753.2</ele></trkpt>
      <trkpt lat="37.781763" lon="-111.563430"><ele>1778.8</ele></trkpt>
      <trkpt lat="37.781663" lon="-111.563570"><ele>1786.5</ele></trkpt>
      <trkpt lat="37.781643" lon="-111.563729"><ele>1790.8</ele></trkpt>
      <trkpt lat="37.781594" lon="-111.563958"><ele>1798.8</ele></trkpt>
      <trkpt lat="37.781544" lon="-111.564279"><ele>1807.0</ele></trkpt>
      <trkpt lat="37.781478" lon="-111.564377"><ele>1812.8</ele></trkpt>
      <trkpt lat="37.781235" lon="-111.564622"><ele>1833.0</ele></trkpt>
      <trkpt lat="37.781228" lon="-111.564769"><ele>1834.8</ele></trkpt>
      <trkpt lat="37.781245" lon="-111.564964"><ele>1835.0</ele></trkpt>
      <trkpt lat="37.781415" lon="-111.565377"><ele>1820.2</ele></trkpt>
      <trkpt lat="37.781520" lon="-111.565647"><ele>1811.0</ele></trkpt>
      <trkpt lat="37.781636" lon="-111.565775"><ele>1801.5</ele></trkpt>
      <trkpt lat="37.782347" lon="-111.566033"><ele>1759.2</ele></trkpt>
      <trkpt lat="37.782559" lon="-111.566186"><ele>1748.8</ele></trkpt>
      <trkpt lat="37.782769" lon="-111.566505"><ele>1743.0</ele></trkpt>
      <trkpt lat="37.782851" lon="-111.566745"><ele>1739.5</ele></trkpt>
      <trkpt lat="37.782949" lon="-111.567201"><ele>1734.5</ele></trkpt>
      <trkpt lat="37.782992" lon="-111.567839"><ele>1733.5</ele></trkpt>
      <trkpt lat="37.782935" lon="-111.568104"><ele>1733.8</ele></trkpt>
      <trkpt lat="37.782793" lon="-111.568218"><ele>1731.5</ele></trkpt>
      <trkpt lat="37.782706" lon="-111.568251"><ele>1729.8</ele></trkpt>
      <trkpt lat="37.782650" lon="-111.568306"><ele>1728.2</ele></trkpt>
      <trkpt lat="37.782527" lon="-111.568281"><ele>1726.0</ele></trkpt>
      <trkpt lat="37.782409" lon="-111.568228"><ele>1729.8</ele></trkpt>
      <trkpt lat="37.782311" lon="-111.568216"><ele>1734.0</ele></trkpt>
      <trkpt lat="37.782238" lon="-111.568299"><ele>1735.8</ele></trkpt>
      <trkpt lat="37.782175" lon="-111.568336"><ele>1737.8</ele></trkpt>
      <trkpt lat="37.782072" lon="-111.568373"><ele>1741.5</ele></trkpt>
      <trkpt lat="37.781949" lon="-111.568367"><ele>1746.2</ele></trkpt>
      <trkpt lat="37.781795" lon="-111.568262"><ele>1754.2</ele></trkpt>
      <trkpt lat="37.781521" lon="-111.568053"><ele>1773.8</ele></trkpt>
      <trkpt lat="37.781271" lon="-111.567878"><ele>1795.2</ele></trkpt>
      <trkpt lat="37.781180" lon="-111.567816"><ele>1803.0</ele></trkpt>
      <trkpt lat="37.780997" lon="-111.567848"><ele>1815.0</ele></trkpt>
      <trkpt lat="37.780727" lon="-111.567875"><ele>1834.0</ele></trkpt>
      <trkpt lat="37.780556" lon="-111.568127"><ele>1834.8</ele></trkpt>
      <trkpt lat="37.780421" lon="-111.568216"><ele>1837.0</ele></trkpt>
      <trkpt lat="37.780341" lon="-111.568278"><ele>1836.8</ele></trkpt>
      <trkpt lat="37.780288" lon="-111.568396"><ele>1833.5</ele></trkpt>
      <trkpt lat="37.780304" lon="-111.568569"><ele>1828.8</ele></trkpt>
      <trkpt lat="37.780376" lon="-111.568694"><ele>1823.5</ele></trkpt>
      <trkpt lat="37.780440" lon="-111.568772"><ele>1820.0</ele></trkpt>
      <trkpt lat="37.780522" lon="-111.568842"><ele>1816.2</ele></trkpt>
      <trkpt lat="37.780691" lon="-111.568944"><ele>1810.5</ele></trkpt>
      <trkpt lat="37.780911" lon="-111.569036"><ele>1800.5</ele></trkpt>
      <trkpt lat="37.781085" lon="-111.569009"><ele>1788.5</ele></trkpt>
      <trkpt lat="37.781207" lon="-111.569096"><ele>1778.8</ele></trkpt>
      <trkpt lat="37.781417" lon="-111.569198"><ele>1762.8</ele></trkpt>
      <trkpt lat="37.781598" lon="-111.569323"><ele>1749.2</ele></trkpt>
      <trkpt lat="37.781974" lon="-111.569721"><ele>1736.0</ele></trkpt>
      <trkpt lat="37.782183" lon="-111.570062"><ele>1733.0</ele></trkpt>
      <trkpt lat="37.782282" lon="-111.570287"><ele>1732.8</ele></trkpt>
      <trkpt lat="37.782296" lon="-111.570606"><ele>1734.5</ele></trkpt>
      <trkpt lat="37.782232" lon="-111.570776"><ele>1736.2</ele></trkpt>
      <trkpt lat="37.782147" lon="-111.570839"><ele>1737.0</ele></trkpt>
      <trkpt lat="37.781995" lon="-111.571052"><ele>1738.8</ele></trkpt>
      <trkpt lat="37.781951" lon="-111.571113"><ele>1739.2</ele></trkpt>
      <trkpt lat="37.781822" lon="-111.571155"><ele>1739.5</ele></trkpt>
      <trkpt lat="37.781479" lon="-111.571121"><ele>1744.0</ele></trkpt>
      <trkpt lat="37.781243" lon="-111.571250"><ele>1747.0</ele></trkpt>
      <trkpt lat="37.781143" lon="-111.571377"><ele>1745.8</ele></trkpt>
      <trkpt lat="37.781120" lon="-111.571509"><ele>1743.0</ele></trkpt>
      <trkpt lat="37.781133" lon="-111.571771"><ele>1739.5</ele></trkpt>
      <trkpt lat="37.781106" lon="-111.572242"><ele>1740.8</ele></trkpt>
      <trkpt lat="37.781135" lon="-111.572376"><ele>1741.0</ele></trkpt>
      <trkpt lat="37.781146" lon="-111.572469"><ele>1741.0</ele></trkpt>
      <trkpt lat="37.781312" lon="-111.572845"><ele>1741.2</ele></trkpt>
      <trkpt lat="37.781467" lon="-111.573675"><ele>1738.8</ele></trkpt>
      <trkpt lat="37.781454" lon="-111.573967"><ele>1738.5</ele></trkpt>
      <trkpt lat="37.781387" lon="-111.574217"><ele>1739.2</ele></trkpt>
      <trkpt lat="37.781320" lon="-111.574379"><ele>1743.0</ele></trkpt>
      <trkpt lat="37.781238" lon="-111.574576"><ele>1747.0</ele></trkpt>
      <trkpt lat="37.781060" lon="-111.574558"><ele>1746.0</ele></trkpt>
      <trkpt lat="37.780940" lon="-111.574361"><ele>1742.2</ele></trkpt>
      <trkpt lat="37.780451" lon="-111.574192"><ele>1739.2</ele></trkpt>
      <trkpt lat="37.780180" lon="-111.574226"><ele>1739.5</ele></trkpt>
      <trkpt lat="37.780109" lon="-111.574215"><ele>1739.5</ele></trkpt>
      <trkpt lat="37.780050" lon="-111.574166"><ele>1739.0</ele></trkpt>
      <trkpt lat="37.780002" lon="-111.574141"><ele>1740.0</ele></trkpt>
      <trkpt lat="37.779922" lon="-111.574285"><ele>1740.2</ele></trkpt>
      <trkpt lat="37.779873" lon="-111.574484"><ele>1741.8</ele></trkpt>
      <trkpt lat="37.779681" lon="-111.574742"><ele>1743.2</ele></trkpt>
      <trkpt lat="37.779527" lon="-111.574720"><ele>1742.5</ele></trkpt>
      <trkpt lat="37.779319" lon="-111.574743"><ele>1741.8</ele></trkpt>
      <trkpt lat="37.779207" lon="-111.574756"><ele>1741.2</ele></trkpt>
      <trkpt lat="37.779022" lon="-111.574674"><ele>1742.0</ele></trkpt>
      <trkpt lat="37.778725" lon="-111.574498"><ele>1745.2</ele></trkpt>
      <trkpt lat="37.778308" lon="-111.574472"><ele>1750.5</ele></trkpt>
      <trkpt lat="37.778178" lon="-111.574477"><ele>1757.0</ele></trkpt>
      <trkpt lat="37.778029" lon="-111.574501"><ele>1763.2</ele></trkpt>
      <trkpt lat="37.777923" lon="-111.574510"><ele>1767.8</ele></trkpt>
      <trkpt lat="37.777749" lon="-111.574607"><ele>1769.0</ele></trkpt>
      <trkpt lat="37.777692" lon="-111.574929"><ele>1746.5</ele></trkpt>
      <trkpt lat="37.777658" lon="-111.574990"><ele>1742.0</ele></trkpt>
      <trkpt lat="37.777612" lon="-111.575073"><ele>1742.0</ele></trkpt>
      <trkpt lat="37.777589" lon="-111.575241"><ele>1743.8</ele></trkpt>
      <trkpt lat="37.777518" lon="-111.575349"><ele>1745.0</ele></trkpt>
      <trkpt lat="37.777510" lon="-111.575465"><ele>1746.2</ele></trkpt>
      <trkpt lat="37.777332" lon="-111.575700"><ele>1747.5</ele></trkpt>
    </trkseg>
  </trk>
</gpx>
