<?xml version="1.0" encoding="UTF-8"?>
<gpx version="1.1" creator="pathbeaters26" xmlns="http://www.topografix.com/GPX/1/1" xmlns:xsi="http://www.w3.org/2001/XMLSchema-instance" xsi:schemaLocation="http://www.topografix.com/GPX/1/1 http://www.topografix.com/GPX/1/1/gpx.xsd">
  <metadata><name>Grand Gulch: Kane Gulch → Bullet Canyon</name></metadata>
  <wpt lat="37.524601" lon="-109.896085">
    <ele>1965.8</ele>
    <name>Kane Gulch Ranger Station (TH)</name>
    <desc>Trailhead, BLM Cedar Mesa permit station</desc>
  </wpt>
  <wpt lat="37.513242" lon="-109.938183">
    <ele>1822.5</ele>
    <name>Junction Ruin</name>
    <desc>Kane Gulch / Grand Gulch confluence</desc>
  </wpt>
  <wpt lat="37.488605" lon="-109.958449">
    <ele>1761.5</ele>
    <name>Fri camp · Todie Canyon</name>
    <desc>Grand Gulch at the mouth of Todie Canyon</desc>
  </wpt>
  <wpt lat="37.474955" lon="-109.993740">
    <ele>1710.8</ele>
    <name>Split Level Ruin (approx.)</name>
    <desc>Position estimated by trail mileage; not mapped in OSM</desc>
  </wpt>
  <wpt lat="37.452719" lon="-110.024832">
    <ele>1714.0</ele>
    <name>Sheiks Canyon</name>
    <desc>Mouth of Sheiks Canyon (Green Mask side trip)</desc>
  </wpt>
  <wpt lat="37.445319" lon="-110.042366">
    <ele>1648.2</ele>
    <name>Sat camp · Bullet Canyon junction</name>
    <desc>Grand Gulch at the mouth of Bullet Canyon</desc>
  </wpt>
  <wpt lat="37.437888" lon="-110.012958">
    <ele>1706.8</ele>
    <name>Jailhouse Ruin</name>
    <desc>Bullet Canyon</desc>
  </wpt>
  <wpt lat="37.436798" lon="-110.009052">
    <ele>1752.2</ele>
    <name>Perfect Kiva</name>
    <desc>Bullet Canyon</desc>
  </wpt>
  <wpt lat="37.425559" lon="-109.974470">
    <ele>1846.8</ele>
    <name>Sun camp · upper Bullet Canyon</name>
    <desc>Near the rim, ~1.8 mi below the trailhead</desc>
  </wpt>
  <wpt lat="37.430755" lon="-109.949508">
    <ele>1952.8</ele>
    <name>Bullet Canyon Trailhead</name>
    <desc>Exit trailhead</desc>
  </wpt>
  <trk>
    <name>Grand Gulch: Kane Gulch → Bullet Canyon</name>
    <trkseg>
      <trkpt lat="37.524601" lon="-109.896085"><ele>1965.8</ele></trkpt>
      <trkpt lat="37.524514" lon="-109.896380"><ele>1964.5</ele></trkpt>
      <trkpt lat="37.524440" lon="-109.896540"><ele>1964.0</ele></trkpt>
      <trkpt lat="37.524299" lon="-109.896774"><ele>1962.8</ele></trkpt>
      <trkpt lat="37.524261" lon="-109.896882"><ele>1962.5</ele></trkpt>
      <trkpt lat="37.524204" lon="-109.896980"><ele>1962.2</ele></trkpt>
      <trkpt lat="37.524132" lon="-109.897046"><ele>1962.0</ele></trkpt>
      <trkpt lat="37.524050" lon="-109.897204"><ele>1962.0</ele></trkpt>
      <trkpt lat="37.523963" lon="-109.897589"><ele>1961.0</ele></trkpt>
      <trkpt lat="37.523961" lon="-109.897659"><ele>1960.5</ele></trkpt>
      <trkpt lat="37.523976" lon="-109.897735"><ele>1960.0</ele></trkpt>
      <trkpt lat="37.523915" lon="-109.897885"><ele>1959.2</ele></trkpt>
      <trkpt lat="37.523878" lon="-109.897952"><ele>1958.8</ele></trkpt>
      <trkpt lat="37.523832" lon="-109.897997"><ele>1958.5</ele></trkpt>
      <trkpt lat="37.523828" lon="-109.898047"><ele>1958.2</ele></trkpt>
      <trkpt lat="37.523816" lon="-109.898143"><ele>1957.8</ele></trkpt>
      <trkpt lat="37.523764" lon="-109.898196"><ele>1957.2</ele></trkpt>
      <trkpt lat="37.523690" lon="-109.898389"><ele>1956.2</ele></trkpt>
      <trkpt lat="37.523668" lon="-109.898448"><ele>1956.2</ele></trkpt>
      <trkpt lat="37.523579" lon="-109.898843"><ele>1955.0</ele></trkpt>
      <trkpt lat="37.523469" lon="-109.899421"><ele>1955.0</ele></trkpt>
      <trkpt lat="37.523344" lon="-109.899607"><ele>1955.0</ele></trkpt>
      <trkpt lat="37.523218" lon="-109.899674"><ele>1955.2</ele></trkpt>
      <trkpt lat="37.522926" lon="-109.899752"><ele>1954.8</ele></trkpt>
      <trkpt lat="37.522881" lon="-109.899786"><ele>1954.8</ele></trkpt>
      <trkpt lat="37.522611" lon="-109.899995"><ele>1953.5</ele></trkpt>
      <trkpt lat="37.522402" lon="-109.900302"><ele>1954.2</ele></trkpt>
      <trkpt lat="37.522306" lon="-109.900596"><ele>1955.0</ele></trkpt>
      <trkpt lat="37.522260" lon="-109.900810"><ele>1955.5</ele></trkpt>
      <trkpt lat="37.522244" lon="-109.901015"><ele>1955.5</ele></trkpt>
      <trkpt lat="37.522206" lon="-109.901251"><ele>1955.5</ele></trkpt>
      <trkpt lat="37.522214" lon="-109.901296"><ele>1955.5</ele></trkpt>
      <trkpt lat="37.522252" lon="-109.901513"><ele>1955.5</ele></trkpt>
      <trkpt lat="37.522298" lon="-109.901619"><ele>1955.0</ele></trkpt>
      <trkpt lat="37.522338" lon="-109.901711"><ele>1954.8</ele></trkpt>
      <trkpt lat="37.522333" lon="-109.902082"><ele>1954.8</ele></trkpt>
      <trkpt lat="37.522414" lon="-109.902479"><ele>1954.2</ele></trkpt>
      <trkpt lat="37.522414" lon="-109.902618"><ele>1954.2</ele></trkpt>
      <trkpt lat="37.522399" lon="-109.902699"><ele>1954.2</ele></trkpt>
      <trkpt lat="37.522354" lon="-109.902946"><ele>1954.2</ele></trkpt>
      <trkpt lat="37.522329" lon="-109.903364"><ele>1954.2</ele></trkpt>
      <trkpt lat="37.522249" lon="-109.903632"><ele>1954.5</ele></trkpt>
      <trkpt lat="37.522069" lon="-109.904110"><ele>1954.5</ele></trkpt>
      <trkpt lat="37.521946" lon="-109.904517"><ele>1952.5</ele></trkpt>
      <trkpt lat="37.521886" lon="-109.904743"><ele>1950.8</ele></trkpt>
      <trkpt lat="37.521804" lon="-109.904978"><ele>1948.5</ele></trkpt>
      <trkpt lat="37.521736" lon="-109.905110"><ele>1948.5</ele></trkpt>
      <trkpt lat="37.521603" lon="-109.905229"><ele>1948.8</ele></trkpt>
      <trkpt lat="37.521466" lon="-109.905289"><ele>1949.8</ele></trkpt>
      <trkpt lat="37.521258" lon="-109.905238"><ele>1950.2</ele></trkpt>
      <trkpt lat="37.521136" lon="-109.905247"><ele>1950.8</ele></trkpt>
      <trkpt lat="37.521037" lon="-109.905299"><ele>1951.2</ele></trkpt>
      <trkpt lat="37.520923" lon="-109.905300"><ele>1951.5</ele></trkpt>
      <trkpt lat="37.520589" lon="-109.905239"><ele>1951.5</ele></trkpt>
      <trkpt lat="37.520370" lon="-109.905215"><ele>1951.5</ele></trkpt>
      <trkpt lat="37.520047" lon="-109.905268"><ele>1951.0</ele></trkpt>
      <trkpt lat="37.519834" lon="-109.905292"><ele>1951.5</ele></trkpt>
      <trkpt lat="37.519753" lon="-109.905354"><ele>1951.8</ele></trkpt>
      <trkpt lat="37.519711" lon="-109.905426"><ele>1952.0</ele></trkpt>
      <trkpt lat="37.519651" lon="-109.905829"><ele>1951.8</ele></trkpt>
      <trkpt lat="37.519644" lon="-109.906124"><ele>1951.5</ele></trkpt>
      <trkpt lat="37.519649" lon="-109.906451"><ele>1951.2</ele></trkpt>
      <trkpt lat="37.519634" lon="-109.906942"><ele>1950.2</ele></trkpt>
      <trkpt lat="37.519583" lon="-109.907122"><ele>1950.0</ele></trkpt>
      <trkpt lat="37.519584" lon="-109.907352"><ele>1949.2</ele></trkpt>
      <trkpt lat="37.519617" lon="-109.907494"><ele>1948.8</ele></trkpt>
      <trkpt lat="37.519650" lon="-109.907560"><ele>1948.5</ele></trkpt>
      <trkpt lat="37.519715" lon="-109.907666"><ele>1948.2</ele></trkpt>
      <trkpt lat="37.519773" lon="-109.907793"><ele>1947.8</ele></trkpt>
      <trkpt lat="37.519766" lon="-109.907945"><ele>1947.5</ele></trkpt>
      <trkpt lat="37.519775" lon="-109.908092"><ele>1947.2</ele></trkpt>
      <trkpt lat="37.519844" lon="-109.908340"><ele>1946.8</ele></trkpt>
      <trkpt lat="37.519541" lon="-109.908875"><ele>1947.5</ele></trkpt>
      <trkpt lat="37.519242" lon="-109.909163"><ele>1945.5</ele></trkpt>
      <trkpt lat="37.518959" lon="-109.909345"><ele>1945.5</ele></trkpt>
      <trkpt lat="37.518834" lon="-109.909461"><ele>1945.8</ele></trkpt>
      <trkpt lat="37.518740" lon="-109.909531"><ele>1945.5</ele></trkpt>
      <trkpt lat="37.518655" lon="-109.909632"><ele>1945.5</ele></trkpt>
      <trkpt lat="37.518568" lon="-109.909874"><ele>1945.0</ele></trkpt>
      <trkpt lat="37.518540" lon="-109.909997"><ele>1944.8</ele></trkpt>
      <trkpt lat="37.518551" lon="-109.910088"><ele>1944.8</ele></trkpt>
      <trkpt lat="37.518597" lon="-109.910172"><ele>1945.0</ele></trkpt>
      <trkpt lat="37.518581" lon="-109.910268"><ele>1944.8</ele></trkpt>
      <trkpt lat="37.518592" lon="-109.910332"><ele>1944.8</ele></trkpt>
      <trkpt lat="37.518622" lon="-109.910367"><ele>1945.0</ele></trkpt>
      <trkpt lat="37.518670" lon="-109.910378"><ele>1945.2</ele></trkpt>
      <trkpt lat="37.518658" lon="-109.910454"><ele>1945.0</ele></trkpt>
      <trkpt lat="37.518621" lon="-109.910530"><ele>1944.8</ele></trkpt>
      <trkpt lat="37.518565" lon="-109.910592"><ele>1944.5</ele></trkpt>
      <trkpt lat="37.518564" lon="-109.910786"><ele>1944.2</ele></trkpt>
      <trkpt lat="37.518536" lon="-109.910893"><ele>1944.2</ele></trkpt>
      <trkpt lat="37.518504" lon="-109.910960"><ele>1944.5</ele></trkpt>
      <trkpt lat="37.518449" lon="-109.911000"><ele>1944.5</ele></trkpt>
      <trkpt lat="37.518477" lon="-109.911158"><ele>1945.5</ele></trkpt>
      <trkpt lat="37.518593" lon="-109.911261"><ele>1946.0</ele></trkpt>
      <trkpt lat="37.518717" lon="-109.911468"><ele>1946.0</ele></trkpt>
      <trkpt lat="37.518721" lon="-109.911475"><ele>1946.0</ele></trkpt>
      <trkpt lat="37.518755" lon="-109.911485"><ele>1945.8</ele></trkpt>
      <trkpt lat="37.519004" lon="-109.911560"><ele>1944.0</ele></trkpt>
      <trkpt lat="37.519266" lon="-109.911717"><ele>1942.5</ele></trkpt>
      <trkpt lat="37.519627" lon="-109.911813"><ele>1943.5</ele></trkpt>
      <trkpt lat="37.519908" lon="-109.912001"><ele>1943.5</ele></trkpt>
      <trkpt lat="37.520014" lon="-109.912312"><ele>1942.0</ele></trkpt>
      <trkpt lat="37.520036" lon="-109.912596"><ele>1941.5</ele></trkpt>
      <trkpt lat="37.519993" lon="-109.912822"><ele>1940.5</ele></trkpt>
      <trkpt lat="37.519904" lon="-109.912929"><ele>1941.2</ele></trkpt>
      <trkpt lat="37.519802" lon="-109.913224"><ele>1942.0</ele></trkpt>
      <trkpt lat="37.519819" lon="-109.913304"><ele>1941.8</ele></trkpt>
      <trkpt lat="37.519802" lon="-109.913637"><ele>1942.0</ele></trkpt>
      <trkpt lat="37.519736" lon="-109.913685"><ele>1942.2</ele></trkpt>
      <trkpt lat="37.519685" lon="-109.913795"><ele>1942.2</ele></trkpt>
      <trkpt lat="37.519665" lon="-109.913906"><ele>1942.0</ele></trkpt>
      <trkpt lat="37.519604" lon="-109.914042"><ele>1941.8</ele></trkpt>
      <trkpt lat="37.519581" lon="-109.914135"><ele>1941.5</ele></trkpt>
      <trkpt lat="37.519470" lon="-109.914275"><ele>1941.2</ele></trkpt>
      <trkpt lat="37.519419" lon="-109.914379"><ele>1941.0</ele></trkpt>
      <trkpt lat="37.519285" lon="-109.914479"><ele>1939.5</ele></trkpt>
      <trkpt lat="37.519206" lon="-109.914511"><ele>1938.8</ele></trkpt>
      <trkpt lat="37.519109" lon="-109.914618"><ele>1938.2</ele></trkpt>
      <trkpt lat="37.519028" lon="-109.914696"><ele>1938.5</ele></trkpt>
      <trkpt lat="37.518953" lon="-109.914723"><ele>1939.0</ele></trkpt>
      <trkpt lat="37.518743" lon="-109.914865"><ele>1939.8</ele></trkpt>
      <trkpt lat="37.518643" lon="-109.915055"><ele>1939.5</ele></trkpt>
      <trkpt lat="37.518596" lon="-109.915203"><ele>1939.0</ele></trkpt>
      <trkpt lat="37.518479" lon="-109.915391"><ele>1938.0</ele></trkpt>
      <trkpt lat="37.518472" lon="-109.915461"><ele>1937.5</ele></trkpt>
      <trkpt lat="37.518477" lon="-109.915538"><ele>1937.0</ele></trkpt>
      <trkpt lat="37.518447" lon="-109.915587"><ele>1936.5</ele></trkpt>
      <trkpt lat="37.518477" lon="-109.915694"><ele>1936.0</ele></trkpt>
      <trkpt lat="37.518504" lon="-109.915750"><ele>1935.8</ele></trkpt>
      <trkpt lat="37.518449" lon="-109.915839"><ele>1934.8</ele></trkpt>
      <trkpt lat="37.518351" lon="-109.915952"><ele>1934.0</ele></trkpt>
      <trkpt lat="37.518292" lon="-109.915994"><ele>1934.5</ele></trkpt>
      <trkpt lat="37.518126" lon="-109.916337"><ele>1936.8</ele></trkpt>
      <trkpt lat="37.518049" lon="-109.916413"><ele>1937.5</ele></trkpt>
      <trkpt lat="37.517979" lon="-109.916646"><ele>1937.2</ele></trkpt>
      <trkpt lat="37.517938" lon="-109.916748"><ele>1937.8</ele></trkpt>
      <trkpt lat="37.517919" lon="-109.916885"><ele>1937.8</ele></trkpt>
      <trkpt lat="37.517885" lon="-109.916968"><ele>1938.0</ele></trkpt>
      <trkpt lat="37.517879" lon="-109.917035"><ele>1938.0</ele></trkpt>
      <trkpt lat="37.517911" lon="-109.917180"><ele>1937.8</ele></trkpt>
      <trkpt lat="37.517870" lon="-109.917341"><ele>1937.5</ele></trkpt>
      <trkpt lat="37.517691" lon="-109.917886"><ele>1934.5</ele></trkpt>
      <trkpt lat="37.517562" lon="-109.918041"><ele>1931.2</ele></trkpt>
      <trkpt lat="37.517421" lon="-109.918159"><ele>1930.2</ele></trkpt>
      <trkpt lat="37.517362" lon="-109.918229"><ele>1930.2</ele></trkpt>
      <trkpt lat="37.517266" lon="-109.918540"><ele>1931.8</ele></trkpt>
      <trkpt lat="37.517189" lon="-109.918618"><ele>1932.5</ele></trkpt>
      <trkpt lat="37.517071" lon="-109.918709"><ele>1932.5</ele></trkpt>
      <trkpt lat="37.517017" lon="-109.918801"><ele>1932.2</ele></trkpt>
      <trkpt lat="37.516947" lon="-109.918962"><ele>1931.5</ele></trkpt>
      <trkpt lat="37.516815" lon="-109.919143"><ele>1928.5</ele></trkpt>
      <trkpt lat="37.516731" lon="-109.919205"><ele>1927.2</ele></trkpt>
      <trkpt lat="37.516693" lon="-109.919233"><ele>1926.8</ele></trkpt>
      <trkpt lat="37.516596" lon="-109.919431"><ele>1928.0</ele></trkpt>
      <trkpt lat="37.516498" lon="-109.919490"><ele>1928.2</ele></trkpt>
      <trkpt lat="37.516376" lon="-109.919529"><ele>1928.5</ele></trkpt>
      <trkpt lat="37.516251" lon="-109.919635"><ele>1928.0</ele></trkpt>
      <trkpt lat="37.516205" lon="-109.919708"><ele>1927.2</ele></trkpt>
      <trkpt lat="37.516150" lon="-109.919796"><ele>1926.5</ele></trkpt>
      <trkpt lat="37.516087" lon="-109.919859"><ele>1925.5</ele></trkpt>
      <trkpt lat="37.516013" lon="-109.919871"><ele>1924.5</ele></trkpt>
      <trkpt lat="37.515955" lon="-109.919865"><ele>1924.2</ele></trkpt>
      <trkpt lat="37.515933" lon="-109.919890"><ele>1923.5</ele></trkpt>
      <trkpt lat="37.515878" lon="-109.920039"><ele>1922.5</ele></trkpt>
      <trkpt lat="37.515802" lon="-109.920087"><ele>1922.8</ele></trkpt>
      <trkpt lat="37.515659" lon="-109.920060"><ele>1921.2</ele></trkpt>
      <trkpt lat="37.515561" lon="-109.920091"><ele>1921.2</ele></trkpt>
      <trkpt lat="37.515401" lon="-109.920079"><ele>1919.8</ele></trkpt>
      <trkpt lat="37.515340" lon="-109.920134"><ele>1921.0</ele></trkpt>
      <trkpt lat="37.515315" lon="-109.920171"><ele>1921.8</ele></trkpt>
      <trkpt lat="37.515225" lon="-109.920176"><ele>1921.2</ele></trkpt>
      <trkpt lat="37.515152" lon="-109.920144"><ele>1920.0</ele></trkpt>
      <trkpt lat="37.515049" lon="-109.920117"><ele>1918.5</ele></trkpt>
      <trkpt lat="37.514553" lon="-109.920129"><ele>1912.5</ele></trkpt>
      <trkpt lat="37.514019" lon="-109.920270"><ele>1909.5</ele></trkpt>
      <trkpt lat="37.513543" lon="-109.920427"><ele>1903.8</ele></trkpt>
      <trkpt lat="37.513185" lon="-109.920718"><ele>1897.8</ele></trkpt>
      <trkpt lat="37.513067" lon="-109.920827"><ele>1896.2</ele></trkpt>
      <trkpt lat="37.512827" lon="-109.921235"><ele>1896.5</ele></trkpt>
      <trkpt lat="37.512531" lon="-109.921642"><ele>1889.8</ele></trkpt>
      <trkpt lat="37.512277" lon="-109.922425"><ele>1893.2</ele></trkpt>
      <trkpt lat="37.512037" lon="-109.922927"><ele>1888.5</ele></trkpt>
      <trkpt lat="37.511958" lon="-109.923696"><ele>1878.8</ele></trkpt>
      <trkpt lat="37.511867" lon="-109.923889"><ele>1874.2</ele></trkpt>
      <trkpt lat="37.511837" lon="-109.924161"><ele>1870.0</ele></trkpt>
      <trkpt lat="37.511722" lon="-109.924296"><ele>1867.0</ele></trkpt>
      <trkpt lat="37.511751" lon="-109.924865"><ele>1868.8</ele></trkpt>
      <trkpt lat="37.512108" lon="-109.925767"><ele>1857.2</ele></trkpt>
      <trkpt lat="37.512319" lon="-109.926270"><ele>1848.5</ele></trkpt>
      <trkpt lat="37.512285" lon="-109.926392"><ele>1848.5</ele></trkpt>
      <trkpt lat="37.512135" lon="-109.926443"><ele>1849.5</ele></trkpt>
      <trkpt lat="37.512047" lon="-109.926465"><ele>1850.0</ele></trkpt>
      <trkpt lat="37.511914" lon="-109.926621"><ele>1848.0</ele></trkpt>
      <trkpt lat="37.511823" lon="-109.926680"><ele>1847.0</ele></trkpt>
      <trkpt lat="37.511546" lon="-109.926799"><ele>1847.8</ele></trkpt>
      <trkpt lat="37.511122" lon="-109.926997"><ele>1850.8</ele></trkpt>
      <trkpt lat="37.511038" lon="-109.927259"><ele>1846.8</ele></trkpt>
      <trkpt lat="37.511025" lon="-109.927496"><ele>1842.2</ele></trkpt>
      <trkpt lat="37.511125" lon="-109.927973"><ele>1843.8</ele></trkpt>
      <trkpt lat="37.511599" lon="-109.929161"><ele>1836.8</ele></trkpt>
      <trkpt lat="37.511715" lon="-109.929490"><ele>1839.5</ele></trkpt>
      <trkpt lat="37.512355" lon="-109.930184"><ele>1836.0</ele></trkpt>
      <trkpt lat="37.512643" lon="-109.930505"><ele>1834.8</ele></trkpt>
      <trkpt lat="37.512738" lon="-109.931078"><ele>1855.0</ele></trkpt>
      <trkpt lat="37.512655" lon="-109.931228"><ele>1864.5</ele></trkpt>
      <trkpt lat="37.511950" lon="-109.931743"><ele>1893.0</ele></trkpt>
      <trkpt lat="37.511405" lon="-109.931942"><ele>1886.2</ele></trkpt>
      <trkpt lat="37.510500" lon="-109.931999"><ele>1866.0</ele></trkpt>
      <trkpt lat="37.509184" lon="-109.932081"><ele>1838.0</ele></trkpt>
      <trkpt lat="37.508971" lon="-109.932256"><ele>1837.0</ele></trkpt>
      <trkpt lat="37.508951" lon="-109.932649"><ele>1834.0</ele></trkpt>
      <trkpt lat="37.509071" lon="-109.932961"><ele>1834.5</ele></trkpt>
      <trkpt lat="37.509557" lon="-109.933444"><ele>1830.0</ele></trkpt>
      <trkpt lat="37.510437" lon="-109.934723"><ele>1826.0</ele></trkpt>
      <trkpt lat="37.510850" lon="-109.935323"><ele>1820.0</ele></trkpt>
      <trkpt lat="37.511235" lon="-109.935637"><ele>1832.8</ele></trkpt>
      <trkpt lat="37.511379" lon="-109.936065"><ele>1827.8</ele></trkpt>
      <trkpt lat="37.511157" lon="-109.937338"><ele>1822.8</ele></trkpt>
      <trkpt lat="37.511686" lon="-109.938021"><ele>1809.5</ele></trkpt>
      <trkpt lat="37.511759" lon="-109.938117"><ele>1810.2</ele></trkpt>
      <trkpt lat="37.511854" lon="-109.938238"><ele>1810.2</ele></trkpt>
      <trkpt lat="37.512273" lon="-109.938881"><ele>1822.5</ele></trkpt>
      <trkpt lat="37.512224" lon="-109.939031"><ele>1826.0</ele></trkpt>
      <trkpt lat="37.511907" lon="-109.939990"><ele>1822.0</ele></trkpt>
      <trkpt lat="37.511889" lon="-109.940043"><ele>1822.0</ele></trkpt>
      <trkpt lat="37.512016" lon="-109.940969"><ele>1816.8</ele></trkpt>
      <trkpt lat="37.512635" lon="-109.941609"><ele>1803.8</ele></trkpt>
      <trkpt lat="37.512906" lon="-109.942484"><ele>1800.5</ele></trkpt>
      <trkpt lat="37.511871" lon="-109.943320"><ele>1801.2</ele></trkpt>
      <trkpt lat="37.511386" lon="-109.943713"><ele>1806.8</ele></trkpt>
      <trkpt lat="37.511127" lon="-109.943922"><ele>1814.5</ele></trkpt>
      <trkpt lat="37.510090" lon="-109.944095"><ele>1807.8</ele></trkpt>
      <trkpt lat="37.509459" lon="-109.944201"><ele>1801.2</ele></trkpt>
      <trkpt lat="37.509097" lon="-109.944490"><ele>1802.8</ele></trkpt>
      <trkpt lat="37.508850" lon="-109.944687"><ele>1807.8</ele></trkpt>
      <trkpt lat="37.508625" lon="-109.944867"><ele>1810.0</ele></trkpt>
      <trkpt lat="37.509557" lon="-109.946684"><ele>1873.2</ele></trkpt>
      <trkpt lat="37.509681" lon="-109.946927"><ele>1891.0</ele></trkpt>
      <trkpt lat="37.509476" lon="-109.946904"><ele>1880.8</ele></trkpt>
      <trkpt lat="37.508780" lon="-109.946830"><ele>1838.0</ele></trkpt>
      <trkpt lat="37.508063" lon="-109.946755"><ele>1804.0</ele></trkpt>
      <trkpt lat="37.507861" lon="-109.946354"><ele>1800.0</ele></trkpt>
      <trkpt lat="37.507508" lon="-109.945658"><ele>1797.5</ele></trkpt>
      <trkpt lat="37.507351" lon="-109.945348"><ele>1797.2</ele></trkpt>
      <trkpt lat="37.507161" lon="-109.944974"><ele>1799.5</ele></trkpt>
      <trkpt lat="37.506123" lon="-109.945403"><ele>1796.5</ele></trkpt>
      <trkpt lat="37.505886" lon="-109.945871"><ele>1792.2</ele></trkpt>
      <trkpt lat="37.505518" lon="-109.946594"><ele>1800.2</ele></trkpt>
      <trkpt lat="37.505306" lon="-109.947012"><ele>1811.0</ele></trkpt>
      <trkpt lat="37.506532" lon="-109.948750"><ele>1812.0</ele></trkpt>
      <trkpt lat="37.506273" lon="-109.949096"><ele>1804.0</ele></trkpt>
      <trkpt lat="37.505622" lon="-109.949970"><ele>1793.2</ele></trkpt>
      <trkpt lat="37.505476" lon="-109.950167"><ele>1795.2</ele></trkpt>
      <trkpt lat="37.504361" lon="-109.951585"><ele>1782.8</ele></trkpt>
      <trkpt lat="37.503959" lon="-109.952096"><ele>1784.8</ele></trkpt>
      <trkpt lat="37.503587" lon="-109.952570"><ele>1786.0</ele></trkpt>
      <trkpt lat="37.501169" lon="-109.953600"><ele>1785.8</ele></trkpt>
      <trkpt lat="37.499848" lon="-109.954968"><ele>1775.0</ele></trkpt>
      <trkpt lat="37.499450" lon="-109.955381"><ele>1774.0</ele></trkpt>
      <trkpt lat="37.498373" lon="-109.955990"><ele>1774.0</ele></trkpt>
      <trkpt lat="37.497782" lon="-109.956325"><ele>1776.0</ele></trkpt>
      <trkpt lat="37.497349" lon="-109.956353"><ele>1776.8</ele></trkpt>
      <trkpt lat="37.496675" lon="-109.956396"><ele>1780.0</ele></trkpt>
      <trkpt lat="37.496060" lon="-109.956436"><ele>1777.5</ele></trkpt>
      <trkpt lat="37.495741" lon="-109.956456"><ele>1777.0</ele></trkpt>
      <trkpt lat="37.495126" lon="-109.956497"><ele>1779.8</ele></trkpt>
      <trkpt lat="37.493917" lon="-109.955123"><ele>1774.8</ele></trkpt>
      <trkpt lat="37.493816" lon="-109.955372"><ele>1775.5</ele></trkpt>
      <trkpt lat="37.492964" lon="-109.957462"><ele>1773.2</ele></trkpt>
      <trkpt lat="37.490376" lon="-109.958428"><ele>1812.0</ele></trkpt>
      <trkpt lat="37.489593" lon="-109.958437"><ele>1781.2</ele></trkpt>
      <trkpt lat="37.489156" lon="-109.958442"><ele>1760.8</ele></trkpt>
      <trkpt lat="37.488605" lon="-109.958449"><ele>1761.5</ele></trkpt>
    </trkseg>
    <trkseg>
      <trkpt lat="37.488605" lon="-109.958449"><ele>1761.5</ele></trkpt>
      <trkpt lat="37.488336" lon="-109.958509"><ele>1762.5</ele></trkpt>
      <trkpt lat="37.488089" lon="-109.958600"><ele>1762.5</ele></trkpt>
      <trkpt lat="37.487860" lon="-109.958745"><ele>1762.8</ele></trkpt>
      <trkpt lat="37.487600" lon="-109.959201"><ele>1764.2</ele></trkpt>
      <trkpt lat="37.487711" lon="-109.959458"><ele>1762.5</ele></trkpt>
      <trkpt lat="37.487932" lon="-109.959651"><ele>1763.0</ele></trkpt>
      <trkpt lat="37.488162" lon="-109.959818"><ele>1764.5</ele></trkpt>
      <trkpt lat="37.488298" lon="-109.959984"><ele>1765.5</ele></trkpt>
      <trkpt lat="37.488375" lon="-109.960220"><ele>1765.8</ele></trkpt>
      <trkpt lat="37.488383" lon="-109.960296"><ele>1765.2</ele></trkpt>
      <trkpt lat="37.488400" lon="-109.960461"><ele>1765.0</ele></trkpt>
      <trkpt lat="37.488387" lon="-109.960815"><ele>1760.5</ele></trkpt>
      <trkpt lat="37.488328" lon="-109.961137"><ele>1776.5</ele></trkpt>
      <trkpt lat="37.488238" lon="-109.961357"><ele>1787.5</ele></trkpt>
      <trkpt lat="37.488132" lon="-109.961491"><ele>1789.8</ele></trkpt>
      <trkpt lat="37.487953" lon="-109.962012"><ele>1804.5</ele></trkpt>
      <trkpt lat="37.487809" lon="-109.962092"><ele>1801.0</ele></trkpt>
      <trkpt lat="37.487566" lon="-109.962001"><ele>1782.0</ele></trkpt>
      <trkpt lat="37.487349" lon="-109.961851"><ele>1766.0</ele></trkpt>
      <trkpt lat="37.487170" lon="-109.961754"><ele>1760.0</ele></trkpt>
      <trkpt lat="37.486898" lon="-109.961577"><ele>1758.0</ele></trkpt>
      <trkpt lat="37.486523" lon="-109.961459"><ele>1760.5</ele></trkpt>
      <trkpt lat="37.486259" lon="-109.961427"><ele>1762.2</ele></trkpt>
      <trkpt lat="37.485995" lon="-109.961556"><ele>1761.0</ele></trkpt>
      <trkpt lat="37.485906" lon="-109.961486"><ele>1763.0</ele></trkpt>
      <trkpt lat="37.485702" lon="-109.961395"><ele>1766.8</ele></trkpt>
      <trkpt lat="37.485314" lon="-109.961776"><ele>1762.5</ele></trkpt>
      <trkpt lat="37.485174" lon="-109.962001"><ele>1764.2</ele></trkpt>
      <trkpt lat="37.485137" lon="-109.962103"><ele>1765.0</ele></trkpt>
      <trkpt lat="37.485067" lon="-109.962296"><ele>1766.0</ele></trkpt>
      <trkpt lat="37.484837" lon="-109.962532"><ele>1766.2</ele></trkpt>
      <trkpt lat="37.484625" lon="-109.962677"><ele>1766.8</ele></trkpt>
      <trkpt lat="37.484356" lon="-109.962757"><ele>1762.2</ele></trkpt>
      <trkpt lat="37.484178" lon="-109.962934"><ele>1757.8</ele></trkpt>
      <trkpt lat="37.484020" lon="-109.963122"><ele>1757.2</ele></trkpt>
      <trkpt lat="37.483892" lon="-109.963449"><ele>1756.5</ele></trkpt>
      <trkpt lat="37.483769" lon="-109.963728"><ele>1756.2</ele></trkpt>
      <trkpt lat="37.483756" lon="-109.964061"><ele>1755.2</ele></trkpt>
      <trkpt lat="37.483824" lon="-109.964479"><ele>1752.8</ele></trkpt>
      <trkpt lat="37.483837" lon="-109.964683"><ele>1751.5</ele></trkpt>
      <trkpt lat="37.483760" lon="-109.964876"><ele>1750.2</ele></trkpt>
      <trkpt lat="37.483631" lon="-109.965119"><ele>1749.5</ele></trkpt>
      <trkpt lat="37.483569" lon="-109.965236"><ele>1750.0</ele></trkpt>
      <trkpt lat="37.483296" lon="-109.965718"><ele>1751.0</ele></trkpt>
      <trkpt lat="37.482781" lon="-109.965954"><ele>1753.2</ele></trkpt>
      <trkpt lat="37.482526" lon="-109.966056"><ele>1754.2</ele></trkpt>
      <trkpt lat="37.482275" lon="-109.966239"><ele>1755.0</ele></trkpt>
      <trkpt lat="37.482259" lon="-109.966387"><ele>1754.2</ele></trkpt>
      <trkpt lat="37.482228" lon="-109.966673"><ele>1752.5</ele></trkpt>
      <trkpt lat="37.482164" lon="-109.966941"><ele>1752.2</ele></trkpt>
      <trkpt lat="37.482215" lon="-109.967532"><ele>1751.8</ele></trkpt>
      <trkpt lat="37.482415" lon="-109.968138"><ele>1750.0</ele></trkpt>
      <trkpt lat="37.482666" lon="-109.968374"><ele>1746.8</ele></trkpt>
      <trkpt lat="37.483190" lon="-109.969044"><ele>1744.8</ele></trkpt>
      <trkpt lat="37.483288" lon="-109.969473"><ele>1747.5</ele></trkpt>
      <trkpt lat="37.483288" lon="-109.969978"><ele>1752.5</ele></trkpt>
      <trkpt lat="37.483199" lon="-109.970326"><ele>1751.5</ele></trkpt>
      <trkpt lat="37.482987" lon="-109.970991"><ele>1748.0</ele></trkpt>
      <trkpt lat="37.483284" lon="-109.971164"><ele>1746.2</ele></trkpt>
      <trkpt lat="37.483551" lon="-109.971351"><ele>1745.8</ele></trkpt>
      <trkpt lat="37.483765" lon="-109.971777"><ele>1743.0</ele></trkpt>
      <trkpt lat="37.483755" lon="-109.971905"><ele>1741.5</ele></trkpt>
      <trkpt lat="37.483747" lon="-109.972002"><ele>1740.8</ele></trkpt>
      <trkpt lat="37.483676" lon="-109.972435"><ele>1736.2</ele></trkpt>
      <trkpt lat="37.483616" lon="-109.972623"><ele>1735.0</ele></trkpt>
      <trkpt lat="37.483598" lon="-109.972702"><ele>1734.8</ele></trkpt>
      <trkpt lat="37.483557" lon="-109.972877"><ele>1734.2</ele></trkpt>
      <trkpt lat="37.483438" lon="-109.973348"><ele>1732.8</ele></trkpt>
      <trkpt lat="37.483302" lon="-109.973573"><ele>1733.2</ele></trkpt>
      <trkpt lat="37.483161" lon="-109.973592"><ele>1735.0</ele></trkpt>
      <trkpt lat="37.482993" lon="-109.973618"><ele>1736.5</ele></trkpt>
      <trkpt lat="37.482803" lon="-109.973992"><ele>1736.2</ele></trkpt>
      <trkpt lat="37.482672" lon="-109.974111"><ele>1735.5</ele></trkpt>
      <trkpt lat="37.482494" lon="-109.974216"><ele>1734.8</ele></trkpt>
      <trkpt lat="37.482227" lon="-109.974343"><ele>1740.5</ele></trkpt>
      <trkpt lat="37.481972" lon="-109.974538"><ele>1744.5</ele></trkpt>
      <trkpt lat="37.481952" lon="-109.974738"><ele>1743.0</ele></trkpt>
      <trkpt lat="37.481924" lon="-109.975024"><ele>1740.5</ele></trkpt>
      <trkpt lat="37.482120" lon="-109.975204"><ele>1736.8</ele></trkpt>
      <trkpt lat="37.482328" lon="-109.975361"><ele>1734.2</ele></trkpt>
      <trkpt lat="37.482453" lon="-109.975615"><ele>1734.0</ele></trkpt>
      <trkpt lat="37.482571" lon="-109.976401"><ele>1744.5</ele></trkpt>
      <trkpt lat="37.482471" lon="-109.976379"><ele>1739.5</ele></trkpt>
      <trkpt lat="37.482227" lon="-109.976326"><ele>1739.8</ele></trkpt>
      <trkpt lat="37.481912" lon="-109.976319"><ele>1740.2</ele></trkpt>
      <trkpt lat="37.481675" lon="-109.976296"><ele>1740.2</ele></trkpt>
      <trkpt lat="37.481425" lon="-109.976399"><ele>1739.2</ele></trkpt>
      <trkpt lat="37.481212" lon="-109.976491"><ele>1737.5</ele></trkpt>
      <trkpt lat="37.481016" lon="-109.976708"><ele>1735.8</ele></trkpt>
      <trkpt lat="37.480861" lon="-109.976850"><ele>1733.2</ele></trkpt>
      <trkpt lat="37.480683" lon="-109.977082"><ele>1735.2</ele></trkpt>
      <trkpt lat="37.480695" lon="-109.977478"><ele>1735.8</ele></trkpt>
      <trkpt lat="37.480689" lon="-109.977643"><ele>1734.8</ele></trkpt>
      <trkpt lat="37.480520" lon="-109.977965"><ele>1733.2</ele></trkpt>
      <trkpt lat="37.480374" lon="-109.978241"><ele>1731.8</ele></trkpt>
      <trkpt lat="37.480185" lon="-109.978541"><ele>1732.8</ele></trkpt>
      <trkpt lat="37.479971" lon="-109.978743"><ele>1734.2</ele></trkpt>
      <trkpt lat="37.479698" lon="-109.978952"><ele>1738.2</ele></trkpt>
      <trkpt lat="37.479735" lon="-109.979172"><ele>1737.5</ele></trkpt>
      <trkpt lat="37.479799" lon="-109.979551"><ele>1734.2</ele></trkpt>
      <trkpt lat="37.480024" lon="-109.979985"><ele>1730.2</ele></trkpt>
      <trkpt lat="37.480095" lon="-109.980307"><ele>1808.0</ele></trkpt>
      <trkpt lat="37.480202" lon="-109.980531"><ele>1863.2</ele></trkpt>
      <trkpt lat="37.480339" lon="-109.980875"><ele>1928.5</ele></trkpt>
      <trkpt lat="37.480398" lon="-109.981317"><ele>1928.0</ele></trkpt>
      <trkpt lat="37.480523" lon="-109.981564"><ele>1928.0</ele></trkpt>
      <trkpt lat="37.480539" lon="-109.981758"><ele>1927.2</ele></trkpt>
      <trkpt lat="37.480559" lon="-109.982005"><ele>1924.5</ele></trkpt>
      <trkpt lat="37.480570" lon="-109.982185"><ele>1922.5</ele></trkpt>
      <trkpt lat="37.480303" lon="-109.982297"><ele>1921.0</ele></trkpt>
      <trkpt lat="37.480095" lon="-109.982199"><ele>1921.8</ele></trkpt>
      <trkpt lat="37.479957" lon="-109.982273"><ele>1922.0</ele></trkpt>
      <trkpt lat="37.479692" lon="-109.982416"><ele>1927.5</ele></trkpt>
      <trkpt lat="37.479389" lon="-109.982551"><ele>1934.0</ele></trkpt>
      <trkpt lat="37.479128" lon="-109.982783"><ele>1933.5</ele></trkpt>
      <trkpt lat="37.478932" lon="-109.983008"><ele>1925.2</ele></trkpt>
      <trkpt lat="37.478973" lon="-109.983180"><ele>1927.8</ele></trkpt>
      <trkpt lat="37.478706" lon="-109.983427"><ele>1932.0</ele></trkpt>
      <trkpt lat="37.478665" lon="-109.983890"><ele>1927.8</ele></trkpt>
      <trkpt lat="37.478653" lon="-109.984444"><ele>1923.5</ele></trkpt>
      <trkpt lat="37.478700" lon="-109.985252"><ele>1918.0</ele></trkpt>
      <trkpt lat="37.478700" lon="-109.985604"><ele>1915.5</ele></trkpt>
      <trkpt lat="37.478534" lon="-109.985791"><ele>1902.2</ele></trkpt>
      <trkpt lat="37.478201" lon="-109.985993"><ele>1873.8</ele></trkpt>
      <trkpt lat="37.477916" lon="-109.986262"><ele>1849.2</ele></trkpt>
      <trkpt lat="37.477697" lon="-109.986434"><ele>1831.2</ele></trkpt>
      <trkpt lat="37.477459" lon="-109.987242"><ele>1788.5</ele></trkpt>
      <trkpt lat="37.476974" lon="-109.987897"><ele>1746.5</ele></trkpt>
      <trkpt lat="37.476717" lon="-109.988237"><ele>1727.8</ele></trkpt>
      <trkpt lat="37.476497" lon="-109.988499"><ele>1723.0</ele></trkpt>
      <trkpt lat="37.476278" lon="-109.988664"><ele>1722.0</ele></trkpt>
      <trkpt lat="37.476205" lon="-109.988883"><ele>1719.5</ele></trkpt>
      <trkpt lat="37.476099" lon="-109.989203"><ele>1718.5</ele></trkpt>
      <trkpt lat="37.476278" lon="-109.989741"><ele>1776.0</ele></trkpt>
      <trkpt lat="37.476330" lon="-109.990191"><ele>1818.5</ele></trkpt>
      <trkpt lat="37.476379" lon="-109.990602"><ele>1842.0</ele></trkpt>
      <trkpt lat="37.476509" lon="-109.991081"><ele>1881.5</ele></trkpt>
      <trkpt lat="37.476533" lon="-109.991814"><ele>1874.5</ele></trkpt>
      <trkpt lat="37.476503" lon="-109.992151"><ele>1837.5</ele></trkpt>
      <trkpt lat="37.476260" lon="-109.992173"><ele>1811.5</ele></trkpt>
      <trkpt lat="37.476048" lon="-109.992423"><ele>1780.5</ele></trkpt>
      <trkpt lat="37.475803" lon="-109.992712"><ele>1759.5</ele></trkpt>
      <trkpt lat="37.475512" lon="-109.993018"><ele>1739.8</ele></trkpt>
      <trkpt lat="37.475268" lon="-109.993295"><ele>1723.2</ele></trkpt>
      <trkpt lat="37.475102" lon="-109.993430"><ele>1714.2</ele></trkpt>
      <trkpt lat="37.474953" lon="-109.993737"><ele>1710.8</ele></trkpt>
      <trkpt lat="37.475238" lon="-109.994253"><ele>1717.5</ele></trkpt>
      <trkpt lat="37.475607" lon="-109.994612"><ele>1734.0</ele></trkpt>
      <trkpt lat="37.475621" lon="-109.994758"><ele>1735.0</ele></trkpt>
      <trkpt lat="37.475642" lon="-109.994971"><ele>1736.5</ele></trkpt>
      <trkpt lat="37.475541" lon="-109.995226"><ele>1733.5</ele></trkpt>
      <trkpt lat="37.475451" lon="-109.995575"><ele>1731.2</ele></trkpt>
      <trkpt lat="37.475405" lon="-109.995757"><ele>1730.5</ele></trkpt>
      <trkpt lat="37.475351" lon="-109.996303"><ele>1728.5</ele></trkpt>
      <trkpt lat="37.475387" lon="-109.996834"><ele>1725.5</ele></trkpt>
      <trkpt lat="37.475316" lon="-109.997642"><ele>1711.2</ele></trkpt>
      <trkpt lat="37.475262" lon="-109.998346"><ele>1706.8</ele></trkpt>
      <trkpt lat="37.475387" lon="-109.999004"><ele>1708.0</ele></trkpt>
      <trkpt lat="37.475379" lon="-109.999273"><ele>1710.5</ele></trkpt>
      <trkpt lat="37.475363" lon="-109.999805"><ele>1719.8</ele></trkpt>
      <trkpt lat="37.475280" lon="-110.000276"><ele>1732.2</ele></trkpt>
      <trkpt lat="37.475031" lon="-110.000418"><ele>1730.8</ele></trkpt>
      <trkpt lat="37.474936" lon="-110.000672"><ele>1738.5</ele></trkpt>
      <trkpt lat="37.474657" lon="-110.000710"><ele>1728.5</ele></trkpt>
      <trkpt lat="37.474609" lon="-110.000966"><ele>1742.0</ele></trkpt>
      <trkpt lat="37.474562" lon="-110.001226"><ele>1760.8</ele></trkpt>
      <trkpt lat="37.474615" lon="-110.001877"><ele>1815.0</ele></trkpt>
      <trkpt lat="37.474692" lon="-110.002326"><ele>1835.8</ele></trkpt>
      <trkpt lat="37.474668" lon="-110.002461"><ele>1833.5</ele></trkpt>
      <trkpt lat="37.474573" lon="-110.002588"><ele>1818.8</ele></trkpt>
      <trkpt lat="37.474371" lon="-110.002857"><ele>1786.2</ele></trkpt>
      <trkpt lat="37.474057" lon="-110.002932"><ele>1751.5</ele></trkpt>
      <trkpt lat="37.473901" lon="-110.003190"><ele>1739.8</ele></trkpt>
      <trkpt lat="37.473760" lon="-110.003426"><ele>1727.2</ele></trkpt>
      <trkpt lat="37.473540" lon="-110.003860"><ele>1710.2</ele></trkpt>
      <trkpt lat="37.473410" lon="-110.004279"><ele>1700.8</ele></trkpt>
      <trkpt lat="37.473332" lon="-110.004698"><ele>1697.0</ele></trkpt>
      <trkpt lat="37.473481" lon="-110.005057"><ele>1703.0</ele></trkpt>
      <trkpt lat="37.473473" lon="-110.005270"><ele>1702.5</ele></trkpt>
      <trkpt lat="37.473463" lon="-110.005558"><ele>1702.0</ele></trkpt>
      <trkpt lat="37.473558" lon="-110.005872"><ele>1707.5</ele></trkpt>
      <trkpt lat="37.473635" lon="-110.006254"><ele>1721.8</ele></trkpt>
      <trkpt lat="37.473522" lon="-110.006628"><ele>1728.5</ele></trkpt>
      <trkpt lat="37.473326" lon="-110.006815"><ele>1726.8</ele></trkpt>
      <trkpt lat="37.472828" lon="-110.007212"><ele>1728.0</ele></trkpt>
      <trkpt lat="37.472608" lon="-110.007361"><ele>1725.5</ele></trkpt>
      <trkpt lat="37.472275" lon="-110.007376"><ele>1724.2</ele></trkpt>
      <trkpt lat="37.472026" lon="-110.007571"><ele>1722.2</ele></trkpt>
      <trkpt lat="37.471913" lon="-110.007840"><ele>1715.5</ele></trkpt>
      <trkpt lat="37.471753" lon="-110.008087"><ele>1704.2</ele></trkpt>
      <trkpt lat="37.471575" lon="-110.008394"><ele>1693.0</ele></trkpt>
      <trkpt lat="37.471486" lon="-110.008686"><ele>1694.2</ele></trkpt>
      <trkpt lat="37.471290" lon="-110.009090"><ele>1695.0</ele></trkpt>
      <trkpt lat="37.470927" lon="-110.009247"><ele>1695.0</ele></trkpt>
      <trkpt lat="37.470737" lon="-110.009554"><ele>1694.8</ele></trkpt>
      <trkpt lat="37.470375" lon="-110.009988"><ele>1693.5</ele></trkpt>
      <trkpt lat="37.470102" lon="-110.010302"><ele>1697.2</ele></trkpt>
      <trkpt lat="37.469835" lon="-110.010773"><ele>1701.8</ele></trkpt>
      <trkpt lat="37.469574" lon="-110.010736"><ele>1703.5</ele></trkpt>
      <trkpt lat="37.469354" lon="-110.010674"><ele>1705.0</ele></trkpt>
      <trkpt lat="37.469116" lon="-110.010609"><ele>1705.8</ele></trkpt>
      <trkpt lat="37.468879" lon="-110.010579"><ele>1702.8</ele></trkpt>
      <trkpt lat="37.468701" lon="-110.010945"><ele>1700.0</ele></trkpt>
      <trkpt lat="37.468445" lon="-110.011289"><ele>1703.2</ele></trkpt>
      <trkpt lat="37.468184" lon="-110.011551"><ele>1703.8</ele></trkpt>
      <trkpt lat="37.468052" lon="-110.011573"><ele>1701.2</ele></trkpt>
      <trkpt lat="37.467917" lon="-110.011596"><ele>1698.8</ele></trkpt>
      <trkpt lat="37.467180" lon="-110.011297"><ele>1695.2</ele></trkpt>
      <trkpt lat="37.466913" lon="-110.011379"><ele>1696.8</ele></trkpt>
      <trkpt lat="37.466676" lon="-110.011491"><ele>1695.8</ele></trkpt>
      <trkpt lat="37.466588" lon="-110.011597"><ele>1694.2</ele></trkpt>
      <trkpt lat="37.466414" lon="-110.011806"><ele>1697.2</ele></trkpt>
      <trkpt lat="37.466331" lon="-110.012419"><ele>1705.8</ele></trkpt>
      <trkpt lat="37.466248" lon="-110.012733"><ele>1716.5</ele></trkpt>
      <trkpt lat="37.466082" lon="-110.012995"><ele>1725.0</ele></trkpt>
      <trkpt lat="37.465915" lon="-110.013317"><ele>1734.5</ele></trkpt>
      <trkpt lat="37.465387" lon="-110.013549"><ele>1740.2</ele></trkpt>
      <trkpt lat="37.465108" lon="-110.013871"><ele>1742.8</ele></trkpt>
      <trkpt lat="37.464686" lon="-110.014080"><ele>1721.2</ele></trkpt>
      <trkpt lat="37.464360" lon="-110.014140"><ele>1700.8</ele></trkpt>
      <trkpt lat="37.464205" lon="-110.014177"><ele>1690.5</ele></trkpt>
      <trkpt lat="37.464015" lon="-110.014233"><ele>1688.0</ele></trkpt>
      <trkpt lat="37.463795" lon="-110.014297"><ele>1688.0</ele></trkpt>
      <trkpt lat="37.463588" lon="-110.014418"><ele>1688.0</ele></trkpt>
      <trkpt lat="37.463463" lon="-110.014492"><ele>1688.0</ele></trkpt>
      <trkpt lat="37.463243" lon="-110.014507"><ele>1687.2</ele></trkpt>
      <trkpt lat="37.462899" lon="-110.014424"><ele>1685.5</ele></trkpt>
      <trkpt lat="37.462673" lon="-110.014320"><ele>1684.2</ele></trkpt>
      <trkpt lat="37.462138" lon="-110.014402"><ele>1684.2</ele></trkpt>
      <trkpt lat="37.461853" lon="-110.014656"><ele>1684.0</ele></trkpt>
      <trkpt lat="37.461372" lon="-110.015045"><ele>1687.2</ele></trkpt>
      <trkpt lat="37.461194" lon="-110.015524"><ele>1686.0</ele></trkpt>
      <trkpt lat="37.460808" lon="-110.016265"><ele>1683.5</ele></trkpt>
      <trkpt lat="37.460589" lon="-110.016461"><ele>1683.5</ele></trkpt>
      <trkpt lat="37.460084" lon="-110.016916"><ele>1681.0</ele></trkpt>
      <trkpt lat="37.459775" lon="-110.016856"><ele>1680.5</ele></trkpt>
      <trkpt lat="37.459359" lon="-110.016953"><ele>1680.2</ele></trkpt>
      <trkpt lat="37.458706" lon="-110.017485"><ele>1684.0</ele></trkpt>
      <trkpt lat="37.457981" lon="-110.018240"><ele>1678.2</ele></trkpt>
      <trkpt lat="37.457684" lon="-110.018210"><ele>1678.5</ele></trkpt>
      <trkpt lat="37.457262" lon="-110.018480"><ele>1680.2</ele></trkpt>
      <trkpt lat="37.457025" lon="-110.018427"><ele>1678.8</ele></trkpt>
      <trkpt lat="37.456803" lon="-110.018626"><ele>1681.0</ele></trkpt>
      <trkpt lat="37.456573" lon="-110.018831"><ele>1682.5</ele></trkpt>
      <trkpt lat="37.456158" lon="-110.018906"><ele>1681.2</ele></trkpt>
      <trkpt lat="37.455938" lon="-110.019018"><ele>1680.8</ele></trkpt>
      <trkpt lat="37.455647" lon="-110.019093"><ele>1680.8</ele></trkpt>
      <trkpt lat="37.455528" lon="-110.019542"><ele>1682.0</ele></trkpt>
      <trkpt lat="37.455677" lon="-110.020156"><ele>1679.2</ele></trkpt>
      <trkpt lat="37.455664" lon="-110.020470"><ele>1677.8</ele></trkpt>
      <trkpt lat="37.455647" lon="-110.020889"><ele>1677.8</ele></trkpt>
      <trkpt lat="37.455647" lon="-110.021405"><ele>1693.5</ele></trkpt>
      <trkpt lat="37.455611" lon="-110.021847"><ele>1704.0</ele></trkpt>
      <trkpt lat="37.455564" lon="-110.021951"><ele>1704.8</ele></trkpt>
      <trkpt lat="37.455374" lon="-110.022116"><ele>1703.0</ele></trkpt>
      <trkpt lat="37.455130" lon="-110.022280"><ele>1698.0</ele></trkpt>
      <trkpt lat="37.454876" lon="-110.022497"><ele>1693.5</ele></trkpt>
      <trkpt lat="37.454691" lon="-110.022655"><ele>1695.2</ele></trkpt>
      <trkpt lat="37.454340" lon="-110.022999"><ele>1694.0</ele></trkpt>
      <trkpt lat="37.454162" lon="-110.023590"><ele>1698.2</ele></trkpt>
      <trkpt lat="37.453889" lon="-110.024136"><ele>1709.0</ele></trkpt>
      <trkpt lat="37.453818" lon="-110.024585"><ele>1722.8</ele></trkpt>
      <trkpt lat="37.453841" lon="-110.024974"><ele>1736.2</ele></trkpt>
      <trkpt lat="37.453714" lon="-110.025059"><ele>1736.8</ele></trkpt>
      <trkpt lat="37.453473" lon="-110.025221"><ele>1736.8</ele></trkpt>
      <trkpt lat="37.453170" lon="-110.025139"><ele>1729.5</ele></trkpt>
      <trkpt lat="37.453040" lon="-110.025056"><ele>1726.2</ele></trkpt>
      <trkpt lat="37.452719" lon="-110.024832"><ele>1714.0</ele></trkpt>
      <trkpt lat="37.452618" lon="-110.025243"><ele>1727.8</ele></trkpt>
      <trkpt lat="37.452475" lon="-110.025655"><ele>1736.5</ele></trkpt>
      <trkpt lat="37.452457" lon="-110.026081"><ele>1743.8</ele></trkpt>
      <trkpt lat="37.452446" lon="-110.026605"><ele>1749.5</ele></trkpt>
      <trkpt lat="37.452303" lon="-110.027331"><ele>1749.5</ele></trkpt>
      <trkpt lat="37.452273" lon="-110.028034"><ele>1756.0</ele></trkpt>
      <trkpt lat="37.452250" lon="-110.028326"><ele>1759.0</ele></trkpt>
      <trkpt lat="37.452030" lon="-110.028476"><ele>1759.8</ele></trkpt>
      <trkpt lat="37.451727" lon="-110.028446"><ele>1748.8</ele></trkpt>
      <trkpt lat="37.451460" lon="-110.028221"><ele>1731.0</ele></trkpt>
      <trkpt lat="37.451293" lon="-110.027997"><ele>1724.5</ele></trkpt>
      <trkpt lat="37.450978" lon="-110.027862"><ele>1715.0</ele></trkpt>
      <trkpt lat="37.450735" lon="-110.027795"><ele>1705.8</ele></trkpt>
      <trkpt lat="37.450527" lon="-110.027944"><ele>1693.0</ele></trkpt>
      <trkpt lat="37.450260" lon="-110.028109"><ele>1675.2</ele></trkpt>
      <trkpt lat="37.450052" lon="-110.028131"><ele>1662.0</ele></trkpt>
      <trkpt lat="37.449589" lon="-110.028341"><ele>1656.5</ele></trkpt>
      <trkpt lat="37.449345" lon="-110.028266"><ele>1658.5</ele></trkpt>
      <trkpt lat="37.449238" lon="-110.028476"><ele>1659.5</ele></trkpt>
      <trkpt lat="37.449072" lon="-110.028513"><ele>1659.8</ele></trkpt>
      <trkpt lat="37.448953" lon="-110.028887"><ele>1662.2</ele></trkpt>
      <trkpt lat="37.448603" lon="-110.029104"><ele>1660.0</ele></trkpt>
      <trkpt lat="37.448234" lon="-110.029411"><ele>1657.2</ele></trkpt>
      <trkpt lat="37.447872" lon="-110.029643"><ele>1658.2</ele></trkpt>
      <trkpt lat="37.447557" lon="-110.029897"><ele>1658.2</ele></trkpt>
      <trkpt lat="37.447325" lon="-110.030234"><ele>1658.8</ele></trkpt>
      <trkpt lat="37.447195" lon="-110.030496"><ele>1659.5</ele></trkpt>
      <trkpt lat="37.446951" lon="-110.031154"><ele>1660.2</ele></trkpt>
      <trkpt lat="37.446969" lon="-110.031588"><ele>1659.2</ele></trkpt>
      <trkpt lat="37.446957" lon="-110.032291"><ele>1657.8</ele></trkpt>
      <trkpt lat="37.446904" lon="-110.032987"><ele>1652.5</ele></trkpt>
      <trkpt lat="37.446761" lon="-110.033511"><ele>1649.5</ele></trkpt>
      <trkpt lat="37.446476" lon="-110.033833"><ele>1653.8</ele></trkpt>
      <trkpt lat="37.446262" lon="-110.034521"><ele>1665.0</ele></trkpt>
      <trkpt lat="37.446078" lon="-110.035015"><ele>1671.8</ele></trkpt>
      <trkpt lat="37.446286" lon="-110.035554"><ele>1677.2</ele></trkpt>
      <trkpt lat="37.446333" lon="-110.035928"><ele>1676.2</ele></trkpt>
      <trkpt lat="37.446292" lon="-110.036339"><ele>1661.2</ele></trkpt>
      <trkpt lat="37.446084" lon="-110.036863"><ele>1653.5</ele></trkpt>
      <trkpt lat="37.446036" lon="-110.037312"><ele>1663.5</ele></trkpt>
      <trkpt lat="37.446096" lon="-110.037746"><ele>1667.5</ele></trkpt>
      <trkpt lat="37.446345" lon="-110.038225"><ele>1660.5</ele></trkpt>
      <trkpt lat="37.446601" lon="-110.038659"><ele>1649.5</ele></trkpt>
      <trkpt lat="37.446595" lon="-110.038980"><ele>1649.2</ele></trkpt>
      <trkpt lat="37.446607" lon="-110.039437"><ele>1648.5</ele></trkpt>
      <trkpt lat="37.446333" lon="-110.039945"><ele>1647.8</ele></trkpt>
      <trkpt lat="37.446161" lon="-110.040065"><ele>1648.0</ele></trkpt>
      <trkpt lat="37.446155" lon="-110.040088"><ele>1648.2</ele></trkpt>
      <trkpt lat="37.446103" lon="-110.040290"><ele>1649.8</ele></trkpt>
      <trkpt lat="37.446035" lon="-110.040596"><ele>1651.0</ele></trkpt>
      <trkpt lat="37.446018" lon="-110.041277"><ele>1651.8</ele></trkpt>
      <trkpt lat="37.446035" lon="-110.041631"><ele>1652.2</ele></trkpt>
      <trkpt lat="37.445886" lon="-110.041701"><ele>1647.2</ele></trkpt>
      <trkpt lat="37.445775" lon="-110.041712"><ele>1645.5</ele></trkpt>
      <trkpt lat="37.445715" lon="-110.041851"><ele>1647.0</ele></trkpt>
      <trkpt lat="37.445728" lon="-110.042018"><ele>1648.8</ele></trkpt>
      <trkpt lat="37.445681" lon="-110.042163"><ele>1650.0</ele></trkpt>
      <trkpt lat="37.445549" lon="-110.042286"><ele>1650.0</ele></trkpt>
      <trkpt lat="37.445319" lon="-110.042366"><ele>1648.2</ele></trkpt>
    </trkseg>
    <trkseg>
      <trkpt lat="37.445319" lon="-110.042366"><ele>1648.2</ele></trkpt>
      <trkpt lat="37.445157" lon="-110.042104"><ele>1646.8</ele></trkpt>
      <trkpt lat="37.444889" lon="-110.041583"><ele>1650.8</ele></trkpt>
      <trkpt lat="37.444570" lon="-110.041052"><ele>1656.0</ele></trkpt>
      <trkpt lat="37.444276" lon="-110.040698"><ele>1652.2</ele></trkpt>
      <trkpt lat="37.444115" lon="-110.040341"><ele>1649.0</ele></trkpt>
      <trkpt lat="37.444046" lon="-110.040188"><ele>1649.5</ele></trkpt>
      <trkpt lat="37.443982" lon="-110.039797"><ele>1652.8</ele></trkpt>
      <trkpt lat="37.443869" lon="-110.039645"><ele>1656.2</ele></trkpt>
      <trkpt lat="37.443795" lon="-110.039545"><ele>1657.5</ele></trkpt>
      <trkpt lat="37.443447" lon="-110.039140"><ele>1653.5</ele></trkpt>
      <trkpt lat="37.443273" lon="-110.038863"><ele>1653.2</ele></trkpt>
      <trkpt lat="37.443186" lon="-110.038708"><ele>1655.2</ele></trkpt>
      <trkpt lat="37.442845" lon="-110.038112"><ele>1656.8</ele></trkpt>
      <trkpt lat="37.442792" lon="-110.037930"><ele>1656.0</ele></trkpt>
      <trkpt lat="37.442787" lon="-110.037833"><ele>1655.8</ele></trkpt>
      <trkpt lat="37.442711" lon="-110.037707"><ele>1653.8</ele></trkpt>
      <trkpt lat="37.442630" lon="-110.037428"><ele>1651.2</ele></trkpt>
      <trkpt lat="37.442470" lon="-110.037128"><ele>1652.5</ele></trkpt>
      <trkpt lat="37.442334" lon="-110.036889"><ele>1657.0</ele></trkpt>
      <trkpt lat="37.442238" lon="-110.036726"><ele>1659.0</ele></trkpt>
      <trkpt lat="37.442202" lon="-110.036664"><ele>1659.2</ele></trkpt>
      <trkpt lat="37.441925" lon="-110.036597"><ele>1661.5</ele></trkpt>
      <trkpt lat="37.441727" lon="-110.036594"><ele>1662.2</ele></trkpt>
      <trkpt lat="37.441527" lon="-110.036592"><ele>1664.5</ele></trkpt>
      <trkpt lat="37.441370" lon="-110.036552"><ele>1666.8</ele></trkpt>
      <trkpt lat="37.441194" lon="-110.036506"><ele>1669.0</ele></trkpt>
      <trkpt lat="37.441015" lon="-110.036203"><ele>1666.8</ele></trkpt>
      <trkpt lat="37.440890" lon="-110.036075"><ele>1664.8</ele></trkpt>
      <trkpt lat="37.440677" lon="-110.035843"><ele>1662.0</ele></trkpt>
      <trkpt lat="37.440626" lon="-110.035769"><ele>1662.2</ele></trkpt>
      <trkpt lat="37.440590" lon="-110.035717"><ele>1662.5</ele></trkpt>
      <trkpt lat="37.440415" lon="-110.035578"><ele>1662.8</ele></trkpt>
      <trkpt lat="37.440357" lon="-110.035385"><ele>1661.0</ele></trkpt>
      <trkpt lat="37.440385" lon="-110.035344"><ele>1660.5</ele></trkpt>
      <trkpt lat="37.440377" lon="-110.035291"><ele>1660.0</ele></trkpt>
      <trkpt lat="37.440345" lon="-110.035269"><ele>1659.5</ele></trkpt>
      <trkpt lat="37.440257" lon="-110.035133"><ele>1657.0</ele></trkpt>
      <trkpt lat="37.440245" lon="-110.035071"><ele>1656.0</ele></trkpt>
      <trkpt lat="37.440213" lon="-110.035039"><ele>1655.0</ele></trkpt>
      <trkpt lat="37.440191" lon="-110.034993"><ele>1654.2</ele></trkpt>
      <trkpt lat="37.440162" lon="-110.034977"><ele>1653.8</ele></trkpt>
      <trkpt lat="37.440127" lon="-110.034993"><ele>1653.0</ele></trkpt>
      <trkpt lat="37.440074" lon="-110.034990"><ele>1652.2</ele></trkpt>
      <trkpt lat="37.439950" lon="-110.034870"><ele>1653.0</ele></trkpt>
      <trkpt lat="37.439880" lon="-110.034803"><ele>1655.0</ele></trkpt>
      <trkpt lat="37.439795" lon="-110.034703"><ele>1656.8</ele></trkpt>
      <trkpt lat="37.439702" lon="-110.034540"><ele>1657.8</ele></trkpt>
      <trkpt lat="37.439653" lon="-110.034486"><ele>1657.8</ele></trkpt>
      <trkpt lat="37.439567" lon="-110.034304"><ele>1657.0</ele></trkpt>
      <trkpt lat="37.439506" lon="-110.034290"><ele>1656.8</ele></trkpt>
      <trkpt lat="37.439503" lon="-110.034229"><ele>1656.2</ele></trkpt>
      <trkpt lat="37.439461" lon="-110.034221"><ele>1656.0</ele></trkpt>
      <trkpt lat="37.439433" lon="-110.034178"><ele>1655.2</ele></trkpt>
      <trkpt lat="37.439416" lon="-110.034119"><ele>1655.5</ele></trkpt>
      <trkpt lat="37.439384" lon="-110.034084"><ele>1655.5</ele></trkpt>
      <trkpt lat="37.439327" lon="-110.034073"><ele>1655.2</ele></trkpt>
      <trkpt lat="37.439222" lon="-110.034108"><ele>1654.2</ele></trkpt>
      <trkpt lat="37.439226" lon="-110.034017"><ele>1654.5</ele></trkpt>
      <trkpt lat="37.439205" lon="-110.033936"><ele>1654.2</ele></trkpt>
      <trkpt lat="37.439144" lon="-110.033826"><ele>1654.5</ele></trkpt>
      <trkpt lat="37.439101" lon="-110.033786"><ele>1655.5</ele></trkpt>
      <trkpt lat="37.439091" lon="-110.033745"><ele>1655.5</ele></trkpt>
      <trkpt lat="37.439075" lon="-110.033684"><ele>1655.8</ele></trkpt>
      <trkpt lat="37.438990" lon="-110.033606"><ele>1657.2</ele></trkpt>
      <trkpt lat="37.438879" lon="-110.033545"><ele>1658.8</ele></trkpt>
      <trkpt lat="37.438826" lon="-110.033416"><ele>1658.8</ele></trkpt>
      <trkpt lat="37.438816" lon="-110.033362"><ele>1658.2</ele></trkpt>
      <trkpt lat="37.438828" lon="-110.033268"><ele>1659.2</ele></trkpt>
      <trkpt lat="37.438813" lon="-110.033228"><ele>1660.2</ele></trkpt>
      <trkpt lat="37.438816" lon="-110.033166"><ele>1661.5</ele></trkpt>
      <trkpt lat="37.438781" lon="-110.033145"><ele>1662.0</ele></trkpt>
      <trkpt lat="37.438779" lon="-110.033073"><ele>1663.5</ele></trkpt>
      <trkpt lat="37.438824" lon="-110.033038"><ele>1664.0</ele></trkpt>
      <trkpt lat="37.438833" lon="-110.033000"><ele>1664.8</ele></trkpt>
      <trkpt lat="37.438720" lon="-110.032893"><ele>1666.8</ele></trkpt>
      <trkpt lat="37.438705" lon="-110.032837"><ele>1667.8</ele></trkpt>
      <trkpt lat="37.438607" lon="-110.032676"><ele>1669.5</ele></trkpt>
      <trkpt lat="37.438528" lon="-110.032528"><ele>1670.2</ele></trkpt>
      <trkpt lat="37.438456" lon="-110.032477"><ele>1670.0</ele></trkpt>
      <trkpt lat="37.438394" lon="-110.032367"><ele>1671.0</ele></trkpt>
      <trkpt lat="37.438253" lon="-110.032254"><ele>1672.0</ele></trkpt>
      <trkpt lat="37.438183" lon="-110.032155"><ele>1673.5</ele></trkpt>
      <trkpt lat="37.438119" lon="-110.032002"><ele>1675.0</ele></trkpt>
      <trkpt lat="37.437968" lon="-110.031769"><ele>1676.2</ele></trkpt>
      <trkpt lat="37.437972" lon="-110.031723"><ele>1676.5</ele></trkpt>
      <trkpt lat="37.437913" lon="-110.031597"><ele>1676.2</ele></trkpt>
      <trkpt lat="37.437974" lon="-110.031364"><ele>1676.0</ele></trkpt>
      <trkpt lat="37.437987" lon="-110.031198"><ele>1675.8</ele></trkpt>
      <trkpt lat="37.438045" lon="-110.030916"><ele>1675.2</ele></trkpt>
      <trkpt lat="37.438036" lon="-110.030862"><ele>1675.0</ele></trkpt>
      <trkpt lat="37.438002" lon="-110.030763"><ele>1674.8</ele></trkpt>
      <trkpt lat="37.437968" lon="-110.030744"><ele>1674.8</ele></trkpt>
      <trkpt lat="37.437931" lon="-110.030643"><ele>1674.8</ele></trkpt>
      <trkpt lat="37.437893" lon="-110.030538"><ele>1675.0</ele></trkpt>
      <trkpt lat="37.437893" lon="-110.030417"><ele>1675.2</ele></trkpt>
      <trkpt lat="37.437851" lon="-110.030125"><ele>1676.0</ele></trkpt>
      <trkpt lat="37.437785" lon="-110.029972"><ele>1676.5</ele></trkpt>
      <trkpt lat="37.437740" lon="-110.029900"><ele>1677.0</ele></trkpt>
      <trkpt lat="37.437710" lon="-110.029757"><ele>1677.2</ele></trkpt>
      <trkpt lat="37.437706" lon="-110.029661"><ele>1677.5</ele></trkpt>
      <trkpt lat="37.437683" lon="-110.029519"><ele>1677.8</ele></trkpt>
      <trkpt lat="37.437648" lon="-110.029406"><ele>1677.8</ele></trkpt>
      <trkpt lat="37.437627" lon="-110.029258"><ele>1678.0</ele></trkpt>
      <trkpt lat="37.437629" lon="-110.029138"><ele>1678.0</ele></trkpt>
      <trkpt lat="37.437610" lon="-110.029041"><ele>1677.8</ele></trkpt>
      <trkpt lat="37.437621" lon="-110.028937"><ele>1677.5</ele></trkpt>
      <trkpt lat="37.437576" lon="-110.028886"><ele>1677.0</ele></trkpt>
      <trkpt lat="37.437576" lon="-110.028837"><ele>1676.8</ele></trkpt>
      <trkpt lat="37.437561" lon="-110.028797"><ele>1676.5</ele></trkpt>
      <trkpt lat="37.437568" lon="-110.028719"><ele>1676.2</ele></trkpt>
      <trkpt lat="37.437538" lon="-110.028601"><ele>1675.5</ele></trkpt>
      <trkpt lat="37.437512" lon="-110.028591"><ele>1675.2</ele></trkpt>
      <trkpt lat="37.437423" lon="-110.028443"><ele>1677.5</ele></trkpt>
      <trkpt lat="37.437404" lon="-110.028352"><ele>1678.0</ele></trkpt>
      <trkpt lat="37.437269" lon="-110.028129"><ele>1682.8</ele></trkpt>
      <trkpt lat="37.437252" lon="-110.028009"><ele>1682.8</ele></trkpt>
      <trkpt lat="37.437220" lon="-110.027976"><ele>1683.8</ele></trkpt>
      <trkpt lat="37.437129" lon="-110.027813"><ele>1685.0</ele></trkpt>
      <trkpt lat="37.436850" lon="-110.027123"><ele>1684.0</ele></trkpt>
      <trkpt lat="37.436718" lon="-110.026735"><ele>1679.5</ele></trkpt>
      <trkpt lat="37.436635" lon="-110.026531"><ele>1678.5</ele></trkpt>
      <trkpt lat="37.436601" lon="-110.026423"><ele>1679.2</ele></trkpt>
      <trkpt lat="37.436567" lon="-110.026254"><ele>1679.5</ele></trkpt>
      <trkpt lat="37.436522" lon="-110.026107"><ele>1679.8</ele></trkpt>
      <trkpt lat="37.436360" lon="-110.025680"><ele>1680.8</ele></trkpt>
      <trkpt lat="37.436200" lon="-110.025305"><ele>1681.8</ele></trkpt>
      <trkpt lat="37.436081" lon="-110.024940"><ele>1680.5</ele></trkpt>
      <trkpt lat="37.435945" lon="-110.024476"><ele>1679.0</ele></trkpt>
      <trkpt lat="37.435904" lon="-110.024366"><ele>1678.2</ele></trkpt>
      <trkpt lat="37.435864" lon="-110.024103"><ele>1677.5</ele></trkpt>
      <trkpt lat="37.435885" lon="-110.024055"><ele>1678.0</ele></trkpt>
      <trkpt lat="37.435885" lon="-110.023999"><ele>1678.2</ele></trkpt>
      <trkpt lat="37.435870" lon="-110.023921"><ele>1678.2</ele></trkpt>
      <trkpt lat="37.435819" lon="-110.023851"><ele>1678.0</ele></trkpt>
      <trkpt lat="37.435811" lon="-110.023736"><ele>1678.2</ele></trkpt>
      <trkpt lat="37.435768" lon="-110.023591"><ele>1679.2</ele></trkpt>
      <trkpt lat="37.435732" lon="-110.023406"><ele>1679.8</ele></trkpt>
      <trkpt lat="37.435711" lon="-110.023332"><ele>1680.0</ele></trkpt>
      <trkpt lat="37.435696" lon="-110.023274"><ele>1680.8</ele></trkpt>
      <trkpt lat="37.435627" lon="-110.023258"><ele>1681.5</ele></trkpt>
      <trkpt lat="37.435434" lon="-110.023132"><ele>1683.5</ele></trkpt>
      <trkpt lat="37.435193" lon="-110.022904"><ele>1683.8</ele></trkpt>
      <trkpt lat="37.434961" lon="-110.022805"><ele>1683.2</ele></trkpt>
      <trkpt lat="37.434871" lon="-110.022741"><ele>1684.2</ele></trkpt>
      <trkpt lat="37.434841" lon="-110.022658"><ele>1683.8</ele></trkpt>
      <trkpt lat="37.434844" lon="-110.022497"><ele>1681.5</ele></trkpt>
      <trkpt lat="37.434763" lon="-110.022242"><ele>1684.8</ele></trkpt>
      <trkpt lat="37.434703" lon="-110.022175"><ele>1685.5</ele></trkpt>
      <trkpt lat="37.434658" lon="-110.022137"><ele>1685.8</ele></trkpt>
      <trkpt lat="37.434767" lon="-110.021893"><ele>1688.0</ele></trkpt>
      <trkpt lat="37.434995" lon="-110.021311"><ele>1691.2</ele></trkpt>
      <trkpt lat="37.435116" lon="-110.020844"><ele>1695.0</ele></trkpt>
      <trkpt lat="37.435133" lon="-110.020708"><ele>1694.5</ele></trkpt>
      <trkpt lat="37.435123" lon="-110.020576"><ele>1692.8</ele></trkpt>
      <trkpt lat="37.435057" lon="-110.020447"><ele>1688.8</ele></trkpt>
      <trkpt lat="37.434988" lon="-110.020313"><ele>1686.0</ele></trkpt>
      <trkpt lat="37.434803" lon="-110.020016"><ele>1688.5</ele></trkpt>
      <trkpt lat="37.434724" lon="-110.019970"><ele>1690.5</ele></trkpt>
      <trkpt lat="37.434692" lon="-110.019868"><ele>1691.2</ele></trkpt>
      <trkpt lat="37.434686" lon="-110.019773"><ele>1691.2</ele></trkpt>
      <trkpt lat="37.434682" lon="-110.019707"><ele>1691.5</ele></trkpt>
      <trkpt lat="37.434688" lon="-110.019565"><ele>1691.2</ele></trkpt>
      <trkpt lat="37.434616" lon="-110.019519"><ele>1692.0</ele></trkpt>
      <trkpt lat="37.434582" lon="-110.019425"><ele>1692.2</ele></trkpt>
      <trkpt lat="37.434567" lon="-110.019238"><ele>1691.8</ele></trkpt>
      <trkpt lat="37.434482" lon="-110.019128"><ele>1691.8</ele></trkpt>
      <trkpt lat="37.434447" lon="-110.018951"><ele>1692.5</ele></trkpt>
      <trkpt lat="37.434237" lon="-110.018645"><ele>1691.0</ele></trkpt>
      <trkpt lat="37.434041" lon="-110.018393"><ele>1692.8</ele></trkpt>
      <trkpt lat="37.434015" lon="-110.018162"><ele>1693.0</ele></trkpt>
      <trkpt lat="37.434079" lon="-110.017953"><ele>1690.8</ele></trkpt>
      <trkpt lat="37.434245" lon="-110.017653"><ele>1689.0</ele></trkpt>
      <trkpt lat="37.434301" lon="-110.017411"><ele>1689.8</ele></trkpt>
      <trkpt lat="37.434475" lon="-110.017127"><ele>1692.5</ele></trkpt>
      <trkpt lat="37.434637" lon="-110.016950"><ele>1692.5</ele></trkpt>
      <trkpt lat="37.434820" lon="-110.016692"><ele>1690.2</ele></trkpt>
      <trkpt lat="37.434991" lon="-110.016564"><ele>1689.8</ele></trkpt>
      <trkpt lat="37.435225" lon="-110.016505"><ele>1693.0</ele></trkpt>
      <trkpt lat="37.435629" lon="-110.016505"><ele>1697.0</ele></trkpt>
      <trkpt lat="37.435936" lon="-110.016542"><ele>1702.8</ele></trkpt>
      <trkpt lat="37.436060" lon="-110.016392"><ele>1704.5</ele></trkpt>
      <trkpt lat="37.436285" lon="-110.016167"><ele>1704.2</ele></trkpt>
      <trkpt lat="37.436469" lon="-110.016140"><ele>1706.0</ele></trkpt>
      <trkpt lat="37.436545" lon="-110.016156"><ele>1707.5</ele></trkpt>
      <trkpt lat="37.436618" lon="-110.016118"><ele>1707.0</ele></trkpt>
      <trkpt lat="37.436767" lon="-110.015973"><ele>1703.8</ele></trkpt>
      <trkpt lat="37.436839" lon="-110.015941"><ele>1704.2</ele></trkpt>
      <trkpt lat="37.437005" lon="-110.015711"><ele>1701.8</ele></trkpt>
      <trkpt lat="37.437044" lon="-110.015528"><ele>1701.2</ele></trkpt>
      <trkpt lat="37.437099" lon="-110.015314"><ele>1700.2</ele></trkpt>
      <trkpt lat="37.437176" lon="-110.015212"><ele>1700.2</ele></trkpt>
      <trkpt lat="37.437274" lon="-110.015169"><ele>1701.0</ele></trkpt>
      <trkpt lat="37.437367" lon="-110.015078"><ele>1700.8</ele></trkpt>
      <trkpt lat="37.437469" lon="-110.015003"><ele>1700.8</ele></trkpt>
      <trkpt lat="37.437461" lon="-110.014804"><ele>1700.2</ele></trkpt>
      <trkpt lat="37.437597" lon="-110.014461"><ele>1701.0</ele></trkpt>
      <trkpt lat="37.437568" lon="-110.014370"><ele>1700.8</ele></trkpt>
      <trkpt lat="37.437559" lon="-110.014305"><ele>1700.5</ele></trkpt>
      <trkpt lat="37.437435" lon="-110.014117"><ele>1700.0</ele></trkpt>
      <trkpt lat="37.437440" lon="-110.013919"><ele>1701.0</ele></trkpt>
      <trkpt lat="37.437580" lon="-110.013576"><ele>1704.5</ele></trkpt>
      <trkpt lat="37.437563" lon="-110.013340"><ele>1706.0</ele></trkpt>
      <trkpt lat="37.437509" lon="-110.013215"><ele>1706.8</ele></trkpt>
      <trkpt lat="37.437487" lon="-110.013163"><ele>1706.8</ele></trkpt>
      <trkpt lat="37.437323" lon="-110.012970"><ele>1706.8</ele></trkpt>
      <trkpt lat="37.437295" lon="-110.012937"><ele>1706.8</ele></trkpt>
      <trkpt lat="37.437286" lon="-110.012857"><ele>1707.5</ele></trkpt>
      <trkpt lat="37.437125" lon="-110.012733"><ele>1706.5</ele></trkpt>
      <trkpt lat="37.437061" lon="-110.012637"><ele>1706.2</ele></trkpt>
      <trkpt lat="37.436916" lon="-110.012567"><ele>1704.5</ele></trkpt>
      <trkpt lat="37.436835" lon="-110.012460"><ele>1704.0</ele></trkpt>
      <trkpt lat="37.436656" lon="-110.012363"><ele>1702.2</ele></trkpt>
      <trkpt lat="37.436332" lon="-110.012159"><ele>1702.0</ele></trkpt>
      <trkpt lat="37.436187" lon="-110.012229"><ele>1700.8</ele></trkpt>
      <trkpt lat="37.436026" lon="-110.012116"><ele>1700.2</ele></trkpt>
      <trkpt lat="37.435859" lon="-110.012106"><ele>1699.0</ele></trkpt>
      <trkpt lat="37.435779" lon="-110.011929"><ele>1700.0</ele></trkpt>
      <trkpt lat="37.435685" lon="-110.011821"><ele>1701.5</ele></trkpt>
      <trkpt lat="37.435693" lon="-110.011623"><ele>1701.8</ele></trkpt>
      <trkpt lat="37.435727" lon="-110.011424"><ele>1702.0</ele></trkpt>
      <trkpt lat="37.435717" lon="-110.011272"><ele>1702.2</ele></trkpt>
      <trkpt lat="37.435706" lon="-110.011108"><ele>1702.8</ele></trkpt>
      <trkpt lat="37.435736" lon="-110.010942"><ele>1703.0</ele></trkpt>
      <trkpt lat="37.435540" lon="-110.010572"><ele>1704.8</ele></trkpt>
      <trkpt lat="37.435583" lon="-110.010234"><ele>1705.2</ele></trkpt>
      <trkpt lat="37.435655" lon="-110.009671"><ele>1710.2</ele></trkpt>
      <trkpt lat="37.435851" lon="-110.009580"><ele>1712.2</ele></trkpt>
      <trkpt lat="37.436575" lon="-110.009193"><ele>1745.8</ele></trkpt>
      <trkpt lat="37.436798" lon="-110.009052"><ele>1752.2</ele></trkpt>
      <trkpt lat="37.436575" lon="-110.009193"><ele>1745.8</ele></trkpt>
      <trkpt lat="37.435851" lon="-110.009580"><ele>1712.2</ele></trkpt>
      <trkpt lat="37.435655" lon="-110.009671"><ele>1710.2</ele></trkpt>
      <trkpt lat="37.435583" lon="-110.010234"><ele>1705.2</ele></trkpt>
      <trkpt lat="37.435510" lon="-110.010196"><ele>1705.0</ele></trkpt>
      <trkpt lat="37.435374" lon="-110.010148"><ele>1704.8</ele></trkpt>
      <trkpt lat="37.435250" lon="-110.010073"><ele>1704.2</ele></trkpt>
      <trkpt lat="37.435089" lon="-110.010115"><ele>1703.8</ele></trkpt>
      <trkpt lat="37.434986" lon="-110.010142"><ele>1703.8</ele></trkpt>
      <trkpt lat="37.434718" lon="-110.010191"><ele>1708.8</ele></trkpt>
      <trkpt lat="37.434603" lon="-110.010260"><ele>1712.0</ele></trkpt>
      <trkpt lat="37.434450" lon="-110.010271"><ele>1715.2</ele></trkpt>
      <trkpt lat="37.434326" lon="-110.010223"><ele>1716.5</ele></trkpt>
      <trkpt lat="37.434164" lon="-110.010121"><ele>1716.0</ele></trkpt>
      <trkpt lat="37.434075" lon="-110.009906"><ele>1714.5</ele></trkpt>
      <trkpt lat="37.434058" lon="-110.009697"><ele>1714.5</ele></trkpt>
      <trkpt lat="37.433806" lon="-110.009381"><ele>1717.0</ele></trkpt>
      <trkpt lat="37.433802" lon="-110.009263"><ele>1716.0</ele></trkpt>
      <trkpt lat="37.433764" lon="-110.009102"><ele>1715.2</ele></trkpt>
      <trkpt lat="37.433742" lon="-110.008769"><ele>1715.0</ele></trkpt>
      <trkpt lat="37.433687" lon="-110.008662"><ele>1715.0</ele></trkpt>
      <trkpt lat="37.433679" lon="-110.008485"><ele>1714.8</ele></trkpt>
      <trkpt lat="37.433631" lon="-110.008252"><ele>1714.5</ele></trkpt>
      <trkpt lat="37.433576" lon="-110.007981"><ele>1714.5</ele></trkpt>
      <trkpt lat="37.433653" lon="-110.007852"><ele>1714.8</ele></trkpt>
      <trkpt lat="37.433657" lon="-110.007632"><ele>1714.8</ele></trkpt>
      <trkpt lat="37.433640" lon="-110.007482"><ele>1714.8</ele></trkpt>
      <trkpt lat="37.433666" lon="-110.007342"><ele>1715.2</ele></trkpt>
      <trkpt lat="37.433563" lon="-110.007052"><ele>1715.0</ele></trkpt>
      <trkpt lat="37.433427" lon="-110.006811"><ele>1713.2</ele></trkpt>
      <trkpt lat="37.433240" lon="-110.006639"><ele>1713.0</ele></trkpt>
      <trkpt lat="37.433018" lon="-110.006575"><ele>1714.8</ele></trkpt>
      <trkpt lat="37.432942" lon="-110.006430"><ele>1716.5</ele></trkpt>
      <trkpt lat="37.432869" lon="-110.006318"><ele>1717.5</ele></trkpt>
      <trkpt lat="37.432861" lon="-110.006237"><ele>1718.0</ele></trkpt>
      <trkpt lat="37.432695" lon="-110.006226"><ele>1717.5</ele></trkpt>
      <trkpt lat="37.432516" lon="-110.006259"><ele>1717.0</ele></trkpt>
      <trkpt lat="37.432415" lon="-110.006238"><ele>1717.2</ele></trkpt>
      <trkpt lat="37.432328" lon="-110.006221"><ele>1717.5</ele></trkpt>
      <trkpt lat="37.432120" lon="-110.006151"><ele>1717.5</ele></trkpt>
      <trkpt lat="37.431855" lon="-110.006103"><ele>1717.2</ele></trkpt>
      <trkpt lat="37.431687" lon="-110.006121"><ele>1717.8</ele></trkpt>
      <trkpt lat="37.431608" lon="-110.006130"><ele>1719.2</ele></trkpt>
      <trkpt lat="37.431480" lon="-110.006060"><ele>1720.8</ele></trkpt>
      <trkpt lat="37.431378" lon="-110.005776"><ele>1717.8</ele></trkpt>
      <trkpt lat="37.431319" lon="-110.005529"><ele>1720.2</ele></trkpt>
      <trkpt lat="37.431254" lon="-110.005377"><ele>1721.5</ele></trkpt>
      <trkpt lat="37.431157" lon="-110.005148"><ele>1722.5</ele></trkpt>
      <trkpt lat="37.430769" lon="-110.004875"><ele>1721.8</ele></trkpt>
      <trkpt lat="37.430445" lon="-110.004724"><ele>1722.5</ele></trkpt>
      <trkpt lat="37.430232" lon="-110.004665"><ele>1722.2</ele></trkpt>
      <trkpt lat="37.430024" lon="-110.004526"><ele>1722.0</ele></trkpt>
      <trkpt lat="37.429887" lon="-110.004483"><ele>1723.0</ele></trkpt>
      <trkpt lat="37.429679" lon="-110.004348"><ele>1723.5</ele></trkpt>
      <trkpt lat="37.429483" lon="-110.004220"><ele>1722.8</ele></trkpt>
      <trkpt lat="37.429351" lon="-110.004118"><ele>1722.5</ele></trkpt>
      <trkpt lat="37.429244" lon="-110.003952"><ele>1723.0</ele></trkpt>
      <trkpt lat="37.429244" lon="-110.003822"><ele>1723.5</ele></trkpt>
      <trkpt lat="37.429244" lon="-110.003694"><ele>1724.2</ele></trkpt>
      <trkpt lat="37.429257" lon="-110.003389"><ele>1726.0</ele></trkpt>
      <trkpt lat="37.429244" lon="-110.002841"><ele>1729.8</ele></trkpt>
      <trkpt lat="37.429146" lon="-110.002632"><ele>1728.2</ele></trkpt>
      <trkpt lat="37.429096" lon="-110.002447"><ele>1729.2</ele></trkpt>
      <trkpt lat="37.429044" lon="-110.002257"><ele>1728.5</ele></trkpt>
      <trkpt lat="37.429027" lon="-110.001854"><ele>1726.5</ele></trkpt>
      <trkpt lat="37.429099" lon="-110.001216"><ele>1723.0</ele></trkpt>
      <trkpt lat="37.429095" lon="-110.000840"><ele>1722.0</ele></trkpt>
      <trkpt lat="37.428729" lon="-110.000057"><ele>1726.5</ele></trkpt>
      <trkpt lat="37.428367" lon="-109.999762"><ele>1728.8</ele></trkpt>
      <trkpt lat="37.428077" lon="-109.999381"><ele>1732.5</ele></trkpt>
      <trkpt lat="37.427774" lon="-109.998882"><ele>1733.5</ele></trkpt>
      <trkpt lat="37.427625" lon="-109.998437"><ele>1734.2</ele></trkpt>
      <trkpt lat="37.427604" lon="-109.998083"><ele>1735.0</ele></trkpt>
      <trkpt lat="37.427736" lon="-109.997488"><ele>1736.8</ele></trkpt>
      <trkpt lat="37.428017" lon="-109.997021"><ele>1735.8</ele></trkpt>
      <trkpt lat="37.428154" lon="-109.996447"><ele>1734.8</ele></trkpt>
      <trkpt lat="37.428546" lon="-109.995524"><ele>1737.0</ele></trkpt>
      <trkpt lat="37.428588" lon="-109.994226"><ele>1741.8</ele></trkpt>
      <trkpt lat="37.428486" lon="-109.993454"><ele>1740.0</ele></trkpt>
      <trkpt lat="37.427557" lon="-109.992917"><ele>1751.5</ele></trkpt>
      <trkpt lat="37.427114" lon="-109.992424"><ele>1755.0</ele></trkpt>
      <trkpt lat="37.427072" lon="-109.991630"><ele>1763.2</ele></trkpt>
      <trkpt lat="37.427659" lon="-109.990621"><ele>1762.0</ele></trkpt>
      <trkpt lat="37.428290" lon="-109.989827"><ele>1757.5</ele></trkpt>
      <trkpt lat="37.428597" lon="-109.989130"><ele>1763.0</ele></trkpt>
      <trkpt lat="37.428528" lon="-109.988626"><ele>1763.2</ele></trkpt>
      <trkpt lat="37.428324" lon="-109.988014"><ele>1766.8</ele></trkpt>
      <trkpt lat="37.428103" lon="-109.987521"><ele>1779.2</ele></trkpt>
      <trkpt lat="37.427485" lon="-109.986775"><ele>1792.8</ele></trkpt>
      <trkpt lat="37.427334" lon="-109.986539"><ele>1802.2</ele></trkpt>
      <trkpt lat="37.427306" lon="-109.986228"><ele>1797.2</ele></trkpt>
      <trkpt lat="37.427393" lon="-109.985989"><ele>1783.2</ele></trkpt>
      <trkpt lat="37.427517" lon="-109.985568"><ele>1769.2</ele></trkpt>
      <trkpt lat="37.427508" lon="-109.985351"><ele>1768.2</ele></trkpt>
      <trkpt lat="37.427444" lon="-109.985120"><ele>1770.5</ele></trkpt>
      <trkpt lat="37.427244" lon="-109.984758"><ele>1779.0</ele></trkpt>
      <trkpt lat="37.427154" lon="-109.984354"><ele>1780.5</ele></trkpt>
      <trkpt lat="37.427148" lon="-109.984329"><ele>1780.5</ele></trkpt>
      <trkpt lat="37.426935" lon="-109.983969"><ele>1783.8</ele></trkpt>
      <trkpt lat="37.426437" lon="-109.982982"><ele>1785.5</ele></trkpt>
      <trkpt lat="37.425977" lon="-109.982435"><ele>1783.5</ele></trkpt>
      <trkpt lat="37.425601" lon="-109.981837"><ele>1801.8</ele></trkpt>
      <trkpt lat="37.425495" lon="-109.981668"><ele>1808.5</ele></trkpt>
      <trkpt lat="37.425674" lon="-109.980584"><ele>1802.8</ele></trkpt>
      <trkpt lat="37.425602" lon="-109.979968"><ele>1821.8</ele></trkpt>
      <trkpt lat="37.425747" lon="-109.979495"><ele>1829.0</ele></trkpt>
      <trkpt lat="37.426143" lon="-109.979442"><ele>1814.8</ele></trkpt>
      <trkpt lat="37.426545" lon="-109.979528"><ele>1802.5</ele></trkpt>
      <trkpt lat="37.426616" lon="-109.979544"><ele>1800.8</ele></trkpt>
      <trkpt lat="37.427059" lon="-109.979125"><ele>1818.0</ele></trkpt>
      <trkpt lat="37.427097" lon="-109.978669"><ele>1815.2</ele></trkpt>
      <trkpt lat="37.426901" lon="-109.978133"><ele>1811.0</ele></trkpt>
      <trkpt lat="37.426692" lon="-109.977811"><ele>1806.2</ele></trkpt>
      <trkpt lat="37.426572" lon="-109.977742"><ele>1808.2</ele></trkpt>
      <trkpt lat="37.426396" lon="-109.977642"><ele>1812.8</ele></trkpt>
      <trkpt lat="37.426113" lon="-109.977401"><ele>1817.0</ele></trkpt>
      <trkpt lat="37.425849" lon="-109.977199"><ele>1816.2</ele></trkpt>
      <trkpt lat="37.425536" lon="-109.976585"><ele>1825.2</ele></trkpt>
      <trkpt lat="37.425399" lon="-109.976097"><ele>1833.2</ele></trkpt>
      <trkpt lat="37.425267" lon="-109.975805"><ele>1837.5</ele></trkpt>
      <trkpt lat="37.425259" lon="-109.975389"><ele>1842.8</ele></trkpt>
      <trkpt lat="37.425101" lon="-109.975005"><ele>1852.0</ele></trkpt>
      <trkpt lat="37.425178" lon="-109.974692"><ele>1859.0</ele></trkpt>
      <trkpt lat="37.425263" lon="-109.974627"><ele>1858.0</ele></trkpt>
      <trkpt lat="37.425336" lon="-109.974482"><ele>1859.5</ele></trkpt>
      <trkpt lat="37.425504" lon="-109.974458"><ele>1854.0</ele></trkpt>
      <trkpt lat="37.425559" lon="-109.974470"><ele>1846.8</ele></trkpt>
    </trkseg>
    <trkseg>
      <trkpt lat="37.425559" lon="-109.974470"><ele>1851.5</ele></trkpt>
      <trkpt lat="37.425679" lon="-109.974496"><ele>1846.8</ele></trkpt>
      <trkpt lat="37.426098" lon="-109.974788"><ele>1836.2</ele></trkpt>
      <trkpt lat="37.426149" lon="-109.974822"><ele>1835.8</ele></trkpt>
      <trkpt lat="37.426628" lon="-109.975145"><ele>1839.0</ele></trkpt>
      <trkpt lat="37.426880" lon="-109.975252"><ele>1845.8</ele></trkpt>
      <trkpt lat="37.427391" lon="-109.975282"><ele>1853.8</ele></trkpt>
      <trkpt lat="37.427566" lon="-109.975150"><ele>1854.8</ele></trkpt>
      <trkpt lat="37.427593" lon="-109.975022"><ele>1853.0</ele></trkpt>
      <trkpt lat="37.427670" lon="-109.974977"><ele>1855.5</ele></trkpt>
      <trkpt lat="37.427800" lon="-109.974804"><ele>1861.2</ele></trkpt>
      <trkpt lat="37.427913" lon="-109.974582"><ele>1865.2</ele></trkpt>
      <trkpt lat="37.427913" lon="-109.974238"><ele>1865.8</ele></trkpt>
      <trkpt lat="37.427760" lon="-109.973823"><ele>1870.2</ele></trkpt>
      <trkpt lat="37.427553" lon="-109.973294"><ele>1877.0</ele></trkpt>
      <trkpt lat="37.427574" lon="-109.972924"><ele>1878.2</ele></trkpt>
      <trkpt lat="37.427551" lon="-109.972385"><ele>1880.2</ele></trkpt>
      <trkpt lat="37.427368" lon="-109.971559"><ele>1890.5</ele></trkpt>
      <trkpt lat="37.427216" lon="-109.971293"><ele>1893.5</ele></trkpt>
      <trkpt lat="37.427261" lon="-109.971063"><ele>1893.8</ele></trkpt>
      <trkpt lat="37.427031" lon="-109.970529"><ele>1897.5</ele></trkpt>
      <trkpt lat="37.426854" lon="-109.970322"><ele>1897.0</ele></trkpt>
      <trkpt lat="37.426580" lon="-109.970065"><ele>1895.8</ele></trkpt>
      <trkpt lat="37.426239" lon="-109.969448"><ele>1900.0</ele></trkpt>
      <trkpt lat="37.426032" lon="-109.969190"><ele>1898.2</ele></trkpt>
      <trkpt lat="37.425917" lon="-109.969005"><ele>1897.8</ele></trkpt>
      <trkpt lat="37.425853" lon="-109.968686"><ele>1897.8</ele></trkpt>
      <trkpt lat="37.425887" lon="-109.968458"><ele>1898.5</ele></trkpt>
      <trkpt lat="37.426079" lon="-109.967981"><ele>1902.0</ele></trkpt>
      <trkpt lat="37.426156" lon="-109.967597"><ele>1902.8</ele></trkpt>
      <trkpt lat="37.426349" lon="-109.967289"><ele>1904.2</ele></trkpt>
      <trkpt lat="37.426528" lon="-109.966894"><ele>1904.2</ele></trkpt>
      <trkpt lat="37.426573" lon="-109.966358"><ele>1904.2</ele></trkpt>
      <trkpt lat="37.426590" lon="-109.966023"><ele>1905.2</ele></trkpt>
      <trkpt lat="37.426520" lon="-109.965623"><ele>1907.5</ele></trkpt>
      <trkpt lat="37.426460" lon="-109.965341"><ele>1909.5</ele></trkpt>
      <trkpt lat="37.426447" lon="-109.965044"><ele>1911.2</ele></trkpt>
      <trkpt lat="37.426569" lon="-109.964829"><ele>1909.0</ele></trkpt>
      <trkpt lat="37.426780" lon="-109.964601"><ele>1909.2</ele></trkpt>
      <trkpt lat="37.426918" lon="-109.964429"><ele>1912.0</ele></trkpt>
      <trkpt lat="37.426933" lon="-109.964151"><ele>1912.0</ele></trkpt>
      <trkpt lat="37.426937" lon="-109.963815"><ele>1911.8</ele></trkpt>
      <trkpt lat="37.426950" lon="-109.963574"><ele>1911.8</ele></trkpt>
      <trkpt lat="37.427008" lon="-109.963389"><ele>1911.5</ele></trkpt>
      <trkpt lat="37.427097" lon="-109.963273"><ele>1911.5</ele></trkpt>
      <trkpt lat="37.427223" lon="-109.963169"><ele>1911.2</ele></trkpt>
      <trkpt lat="37.427293" lon="-109.963134"><ele>1911.0</ele></trkpt>
      <trkpt lat="37.427366" lon="-109.963013"><ele>1910.8</ele></trkpt>
      <trkpt lat="37.427504" lon="-109.962898"><ele>1910.0</ele></trkpt>
      <trkpt lat="37.427736" lon="-109.962614"><ele>1910.8</ele></trkpt>
      <trkpt lat="37.427907" lon="-109.962471"><ele>1911.0</ele></trkpt>
      <trkpt lat="37.428094" lon="-109.962300"><ele>1912.2</ele></trkpt>
      <trkpt lat="37.428262" lon="-109.962233"><ele>1911.8</ele></trkpt>
      <trkpt lat="37.428416" lon="-109.961965"><ele>1912.2</ele></trkpt>
      <trkpt lat="37.428475" lon="-109.961664"><ele>1911.5</ele></trkpt>
      <trkpt lat="37.428556" lon="-109.961385"><ele>1913.8</ele></trkpt>
      <trkpt lat="37.428639" lon="-109.961138"><ele>1915.5</ele></trkpt>
      <trkpt lat="37.428741" lon="-109.960996"><ele>1917.2</ele></trkpt>
      <trkpt lat="37.428763" lon="-109.960792"><ele>1917.8</ele></trkpt>
      <trkpt lat="37.428718" lon="-109.960564"><ele>1918.5</ele></trkpt>
      <trkpt lat="37.428661" lon="-109.960401"><ele>1918.5</ele></trkpt>
      <trkpt lat="37.428501" lon="-109.960106"><ele>1917.0</ele></trkpt>
      <trkpt lat="37.428390" lon="-109.959880"><ele>1915.5</ele></trkpt>
      <trkpt lat="37.428262" lon="-109.959650"><ele>1915.8</ele></trkpt>
      <trkpt lat="37.428045" lon="-109.959411"><ele>1917.8</ele></trkpt>
      <trkpt lat="37.427934" lon="-109.959226"><ele>1918.0</ele></trkpt>
      <trkpt lat="37.427838" lon="-109.959033"><ele>1918.0</ele></trkpt>
      <trkpt lat="37.427753" lon="-109.958679"><ele>1917.2</ele></trkpt>
      <trkpt lat="37.427725" lon="-109.958435"><ele>1916.8</ele></trkpt>
      <trkpt lat="37.427762" lon="-109.958201"><ele>1917.5</ele></trkpt>
      <trkpt lat="37.427817" lon="-109.958003"><ele>1918.8</ele></trkpt>
      <trkpt lat="37.427796" lon="-109.957751"><ele>1920.0</ele></trkpt>
      <trkpt lat="37.427789" lon="-109.957475"><ele>1921.0</ele></trkpt>
      <trkpt lat="37.427813" lon="-109.957335"><ele>1921.8</ele></trkpt>
      <trkpt lat="37.427907" lon="-109.957091"><ele>1923.0</ele></trkpt>
      <trkpt lat="37.428066" lon="-109.956847"><ele>1923.8</ele></trkpt>
      <trkpt lat="37.428205" lon="-109.956450"><ele>1923.5</ele></trkpt>
      <trkpt lat="37.428298" lon="-109.956048"><ele>1922.0</ele></trkpt>
      <trkpt lat="37.428301" lon="-109.955852"><ele>1921.5</ele></trkpt>
      <trkpt lat="37.428267" lon="-109.955567"><ele>1921.2</ele></trkpt>
      <trkpt lat="37.428298" lon="-109.955398"><ele>1920.5</ele></trkpt>
      <trkpt lat="37.428392" lon="-109.955149"><ele>1920.0</ele></trkpt>
      <trkpt lat="37.428520" lon="-109.954854"><ele>1921.8</ele></trkpt>
      <trkpt lat="37.428908" lon="-109.954318"><ele>1923.2</ele></trkpt>
      <trkpt lat="37.429125" lon="-109.954275"><ele>1922.8</ele></trkpt>
      <trkpt lat="37.429372" lon="-109.954130"><ele>1925.2</ele></trkpt>
      <trkpt lat="37.429453" lon="-109.953921"><ele>1926.5</ele></trkpt>
      <trkpt lat="37.429487" lon="-109.953540"><ele>1926.2</ele></trkpt>
      <trkpt lat="37.429500" lon="-109.953159"><ele>1926.5</ele></trkpt>
      <trkpt lat="37.429427" lon="-109.952161"><ele>1927.2</ele></trkpt>
      <trkpt lat="37.429376" lon="-109.951550"><ele>1926.8</ele></trkpt>
      <trkpt lat="37.429551" lon="-109.951029"><ele>1930.0</ele></trkpt>
      <trkpt lat="37.429657" lon="-109.950627"><ele>1931.0</ele></trkpt>
      <trkpt lat="37.429640" lon="-109.950224"><ele>1930.5</ele></trkpt>
      <trkpt lat="37.429785" lon="-109.950053"><ele>1931.8</ele></trkpt>
      <trkpt lat="37.429943" lon="-109.950112"><ele>1933.5</ele></trkpt>
      <trkpt lat="37.430130" lon="-109.949897"><ele>1937.5</ele></trkpt>
      <trkpt lat="37.430249" lon="-109.949967"><ele>1940.8</ele></trkpt>
      <trkpt lat="37.430403" lon="-109.949591"><ele>1944.2</ele></trkpt>
      <trkpt lat="37.430569" lon="-109.949511"><ele>1948.2</ele></trkpt>
      <trkpt lat="37.430755" lon="-109.949508"><ele>1952.8</ele></trkpt>
    </trkseg>
  </trk>
</gpx>
