<?xml version="1.0" encoding="UTF-8"?>
<gpx version="1.1" creator="pathbeaters26" xmlns="http://www.topografix.com/GPX/1/1" xmlns:xsi="http://www.w3.org/2001/XMLSchema-instance" xsi:schemaLocation="http://www.topografix.com/GPX/1/1 http://www.topografix.com/GPX/1/1/gpx.xsd">
  <metadata>
    <name>Kings Peak via Henrys Fork</name>
    <desc>Routed on OpenStreetMap trails with BRouter (hiking-mountain). Waypoints from OpenStreetMap.</desc>
  </metadata>
  <wpt lat="40.908000" lon="-110.330500">
    <ele>2878.2</ele>
    <name>Henrys Fork TH</name>
    <type>Trailhead</type>
  </wpt>
  <wpt lat="40.885290" lon="-110.369190">
    <ele>3072.0</ele>
    <name>Thu camp · Alligator Lake</name>
    <type>Camp</type>
  </wpt>
  <wpt lat="40.826800" lon="-110.376340">
    <ele>3291.8</ele>
    <name>Fri camp · Dollar Lake</name>
    <type>Camp</type>
  </wpt>
  <wpt lat="40.826800" lon="-110.376340">
    <ele>3291.8</ele>
    <name>Sat camp · Dollar Lake</name>
    <type>Camp</type>
  </wpt>
  <wpt lat="40.820240" lon="-110.390630">
    <ele>3309.2</ele>
    <name>Sun camp · Henrys Fork Lake</name>
    <type>Camp</type>
  </wpt>
  <wpt lat="40.797130" lon="-110.359560">
    <ele>3623.0</ele>
    <name>Gunsight Pass</name>
    <type>Waypoint</type>
  </wpt>
  <wpt lat="40.785240" lon="-110.377750">
    <ele>3861.0</ele>
    <name>Anderson Pass</name>
    <type>Waypoint</type>
  </wpt>
  <wpt lat="40.776240" lon="-110.372800">
    <ele>4123.3</ele>
    <name>Kings Peak</name>
    <type>Waypoint</type>
  </wpt>
  <trk>
    <name>Kings Peak via Henrys Fork</name>
    <!-- Thu: walk in to Alligator Lake (3.0 mi, 665 ft up) -->
    <trkseg>
      <trkpt lat="40.909095" lon="-110.331301"><ele>2878.2</ele></trkpt>
      <trkpt lat="40.908991" lon="-110.331910"><ele>2883.8</ele></trkpt>
      <trkpt lat="40.908934" lon="-110.332208"><ele>2886.5</ele></trkpt>
      <trkpt lat="40.908783" lon="-110.332318"><ele>2885.8</ele></trkpt>
      <trkpt lat="40.908649" lon="-110.332513"><ele>2885.5</ele></trkpt>
      <trkpt lat="40.908446" lon="-110.332834"><ele>2887.2</ele></trkpt>
      <trkpt lat="40.908262" lon="-110.333041"><ele>2888.2</ele></trkpt>
      <trkpt lat="40.908002" lon="-110.333584"><ele>2892.8</ele></trkpt>
      <trkpt lat="40.907919" lon="-110.333907"><ele>2896.0</ele></trkpt>
      <trkpt lat="40.907647" lon="-110.334592"><ele>2900.0</ele></trkpt>
      <trkpt lat="40.907511" lon="-110.334953"><ele>2901.5</ele></trkpt>
      <trkpt lat="40.907322" lon="-110.335368"><ele>2904.5</ele></trkpt>
      <trkpt lat="40.906895" lon="-110.336104"><ele>2904.0</ele></trkpt>
      <trkpt lat="40.906791" lon="-110.336265"><ele>2903.5</ele></trkpt>
      <trkpt lat="40.906710" lon="-110.336510"><ele>2904.8</ele></trkpt>
      <trkpt lat="40.906654" lon="-110.336685"><ele>2906.0</ele></trkpt>
      <trkpt lat="40.906550" lon="-110.337099"><ele>2911.5</ele></trkpt>
      <trkpt lat="40.906274" lon="-110.337852"><ele>2914.2</ele></trkpt>
      <trkpt lat="40.905998" lon="-110.338672"><ele>2913.8</ele></trkpt>
      <trkpt lat="40.905983" lon="-110.338911"><ele>2915.5</ele></trkpt>
      <trkpt lat="40.905762" lon="-110.339267"><ele>2913.5</ele></trkpt>
      <trkpt lat="40.905739" lon="-110.340006"><ele>2915.5</ele></trkpt>
      <trkpt lat="40.905676" lon="-110.340540"><ele>2917.5</ele></trkpt>
      <trkpt lat="40.905630" lon="-110.340860"><ele>2918.2</ele></trkpt>
      <trkpt lat="40.905585" lon="-110.341186"><ele>2919.5</ele></trkpt>
      <trkpt lat="40.905673" lon="-110.341934"><ele>2925.5</ele></trkpt>
      <trkpt lat="40.905547" lon="-110.342341"><ele>2926.0</ele></trkpt>
      <trkpt lat="40.905352" lon="-110.342836"><ele>2925.8</ele></trkpt>
      <trkpt lat="40.905051" lon="-110.343188"><ele>2922.2</ele></trkpt>
      <trkpt lat="40.904818" lon="-110.343878"><ele>2923.0</ele></trkpt>
      <trkpt lat="40.904719" lon="-110.344149"><ele>2923.0</ele></trkpt>
      <trkpt lat="40.904697" lon="-110.344370"><ele>2924.2</ele></trkpt>
      <trkpt lat="40.904505" lon="-110.344847"><ele>2924.5</ele></trkpt>
      <trkpt lat="40.904240" lon="-110.345410"><ele>2924.5</ele></trkpt>
      <trkpt lat="40.904082" lon="-110.345900"><ele>2927.2</ele></trkpt>
      <trkpt lat="40.904002" lon="-110.346184"><ele>2930.0</ele></trkpt>
      <trkpt lat="40.903782" lon="-110.346289"><ele>2930.0</ele></trkpt>
      <trkpt lat="40.903595" lon="-110.346361"><ele>2929.8</ele></trkpt>
      <trkpt lat="40.903415" lon="-110.346658"><ele>2932.2</ele></trkpt>
      <trkpt lat="40.903252" lon="-110.346884"><ele>2933.2</ele></trkpt>
      <trkpt lat="40.903011" lon="-110.346886"><ele>2932.2</ele></trkpt>
      <trkpt lat="40.902759" lon="-110.347217"><ele>2933.8</ele></trkpt>
      <trkpt lat="40.902633" lon="-110.347544"><ele>2936.0</ele></trkpt>
      <trkpt lat="40.902373" lon="-110.347953"><ele>2939.8</ele></trkpt>
      <trkpt lat="40.902122" lon="-110.348229"><ele>2942.2</ele></trkpt>
      <trkpt lat="40.901764" lon="-110.348369"><ele>2942.5</ele></trkpt>
      <trkpt lat="40.901326" lon="-110.348428"><ele>2941.5</ele></trkpt>
      <trkpt lat="40.900696" lon="-110.348786"><ele>2944.0</ele></trkpt>
      <trkpt lat="40.900466" lon="-110.348577"><ele>2941.5</ele></trkpt>
      <trkpt lat="40.900410" lon="-110.348452"><ele>2940.0</ele></trkpt>
      <trkpt lat="40.900275" lon="-110.348598"><ele>2941.5</ele></trkpt>
      <trkpt lat="40.899924" lon="-110.349119"><ele>2945.0</ele></trkpt>
      <trkpt lat="40.899488" lon="-110.349757"><ele>2948.2</ele></trkpt>
      <trkpt lat="40.899083" lon="-110.350351"><ele>2950.0</ele></trkpt>
      <trkpt lat="40.898757" lon="-110.350608"><ele>2949.0</ele></trkpt>
      <trkpt lat="40.898252" lon="-110.351800"><ele>2956.2</ele></trkpt>
      <trkpt lat="40.897942" lon="-110.352160"><ele>2958.2</ele></trkpt>
      <trkpt lat="40.897616" lon="-110.352359"><ele>2957.0</ele></trkpt>
      <trkpt lat="40.897259" lon="-110.352934"><ele>2958.5</ele></trkpt>
      <trkpt lat="40.897020" lon="-110.353172"><ele>2958.8</ele></trkpt>
      <trkpt lat="40.896970" lon="-110.353478"><ele>2961.2</ele></trkpt>
      <trkpt lat="40.896851" lon="-110.353862"><ele>2964.5</ele></trkpt>
      <trkpt lat="40.896572" lon="-110.354051"><ele>2965.0</ele></trkpt>
      <trkpt lat="40.896414" lon="-110.354181"><ele>2966.2</ele></trkpt>
      <trkpt lat="40.896072" lon="-110.354185"><ele>2966.8</ele></trkpt>
      <trkpt lat="40.895460" lon="-110.354235"><ele>2965.2</ele></trkpt>
      <trkpt lat="40.895096" lon="-110.354281"><ele>2963.8</ele></trkpt>
      <trkpt lat="40.894637" lon="-110.354399"><ele>2963.8</ele></trkpt>
      <trkpt lat="40.894175" lon="-110.354544"><ele>2964.0</ele></trkpt>
      <trkpt lat="40.894061" lon="-110.354477"><ele>2963.8</ele></trkpt>
      <trkpt lat="40.893138" lon="-110.354609"><ele>2969.2</ele></trkpt>
      <trkpt lat="40.892627" lon="-110.354678"><ele>2970.8</ele></trkpt>
      <trkpt lat="40.892371" lon="-110.354698"><ele>2971.5</ele></trkpt>
      <trkpt lat="40.891947" lon="-110.354707"><ele>2973.2</ele></trkpt>
      <trkpt lat="40.891520" lon="-110.354706"><ele>2974.8</ele></trkpt>
      <trkpt lat="40.890997" lon="-110.354845"><ele>2977.8</ele></trkpt>
      <trkpt lat="40.890796" lon="-110.354809"><ele>2978.5</ele></trkpt>
      <trkpt lat="40.890512" lon="-110.354860"><ele>2982.0</ele></trkpt>
      <trkpt lat="40.890149" lon="-110.355058"><ele>2987.2</ele></trkpt>
      <trkpt lat="40.889859" lon="-110.355284"><ele>2990.2</ele></trkpt>
      <trkpt lat="40.889625" lon="-110.355442"><ele>2991.5</ele></trkpt>
      <trkpt lat="40.889412" lon="-110.355486"><ele>2992.0</ele></trkpt>
      <trkpt lat="40.889357" lon="-110.355684"><ele>2993.5</ele></trkpt>
      <trkpt lat="40.889179" lon="-110.356154"><ele>2997.2</ele></trkpt>
      <trkpt lat="40.888932" lon="-110.356695"><ele>2998.5</ele></trkpt>
      <trkpt lat="40.888599" lon="-110.357150"><ele>2999.2</ele></trkpt>
      <trkpt lat="40.888290" lon="-110.357485"><ele>3001.2</ele></trkpt>
      <trkpt lat="40.888054" lon="-110.357668"><ele>3001.0</ele></trkpt>
      <trkpt lat="40.887842" lon="-110.357912"><ele>3001.2</ele></trkpt>
      <trkpt lat="40.887729" lon="-110.357936"><ele>3000.5</ele></trkpt>
      <trkpt lat="40.887594" lon="-110.358190"><ele>3001.5</ele></trkpt>
      <trkpt lat="40.887521" lon="-110.358597"><ele>3005.0</ele></trkpt>
      <trkpt lat="40.887430" lon="-110.358954"><ele>3007.8</ele></trkpt>
      <trkpt lat="40.887158" lon="-110.359353"><ele>3007.5</ele></trkpt>
      <trkpt lat="40.887205" lon="-110.359724"><ele>3011.5</ele></trkpt>
      <trkpt lat="40.887278" lon="-110.360082"><ele>3016.0</ele></trkpt>
      <trkpt lat="40.887426" lon="-110.360257"><ele>3020.2</ele></trkpt>
      <trkpt lat="40.887461" lon="-110.360511"><ele>3024.2</ele></trkpt>
      <trkpt lat="40.887317" lon="-110.361832"><ele>3041.8</ele></trkpt>
      <trkpt lat="40.887169" lon="-110.362715"><ele>3052.5</ele></trkpt>
      <trkpt lat="40.887234" lon="-110.364024"><ele>3063.5</ele></trkpt>
      <trkpt lat="40.886780" lon="-110.365408"><ele>3068.0</ele></trkpt>
      <trkpt lat="40.886001" lon="-110.366180"><ele>3070.2</ele></trkpt>
      <trkpt lat="40.885206" lon="-110.367565"><ele>3069.8</ele></trkpt>
      <trkpt lat="40.884825" lon="-110.368091"><ele>3070.0</ele></trkpt>
      <trkpt lat="40.884572" lon="-110.368878"><ele>3072.0</ele></trkpt>
    </trkseg>
    <!-- Fri: to Dollar Lake (4.9 mi, 927 ft up) -->
    <trkseg>
      <trkpt lat="40.884572" lon="-110.368878"><ele>3071.5</ele></trkpt>
      <trkpt lat="40.884085" lon="-110.369753"><ele>3073.5</ele></trkpt>
      <trkpt lat="40.883517" lon="-110.372099"><ele>3074.8</ele></trkpt>
      <trkpt lat="40.883660" lon="-110.372977"><ele>3075.0</ele></trkpt>
      <trkpt lat="40.883052" lon="-110.373248"><ele>3082.0</ele></trkpt>
      <trkpt lat="40.882327" lon="-110.372998"><ele>3086.8</ele></trkpt>
      <trkpt lat="40.881535" lon="-110.372180"><ele>3073.0</ele></trkpt>
      <trkpt lat="40.880814" lon="-110.371700"><ele>3048.2</ele></trkpt>
      <trkpt lat="40.880266" lon="-110.371747"><ele>3045.8</ele></trkpt>
      <trkpt lat="40.879975" lon="-110.372271"><ele>3046.0</ele></trkpt>
      <trkpt lat="40.879738" lon="-110.373041"><ele>3049.5</ele></trkpt>
      <trkpt lat="40.879321" lon="-110.373617"><ele>3050.5</ele></trkpt>
      <trkpt lat="40.878879" lon="-110.373881"><ele>3049.8</ele></trkpt>
      <trkpt lat="40.878477" lon="-110.374307"><ele>3051.0</ele></trkpt>
      <trkpt lat="40.877963" lon="-110.374923"><ele>3055.0</ele></trkpt>
      <trkpt lat="40.877601" lon="-110.375275"><ele>3056.5</ele></trkpt>
      <trkpt lat="40.877290" lon="-110.375601"><ele>3058.2</ele></trkpt>
      <trkpt lat="40.877099" lon="-110.375843"><ele>3059.0</ele></trkpt>
      <trkpt lat="40.876959" lon="-110.376553"><ele>3065.0</ele></trkpt>
      <trkpt lat="40.876642" lon="-110.376782"><ele>3065.2</ele></trkpt>
      <trkpt lat="40.876320" lon="-110.377080"><ele>3067.5</ele></trkpt>
      <trkpt lat="40.876070" lon="-110.377271"><ele>3068.2</ele></trkpt>
      <trkpt lat="40.875644" lon="-110.377582"><ele>3070.2</ele></trkpt>
      <trkpt lat="40.875337" lon="-110.377585"><ele>3069.8</ele></trkpt>
      <trkpt lat="40.875104" lon="-110.377480"><ele>3067.8</ele></trkpt>
      <trkpt lat="40.874853" lon="-110.377452"><ele>3068.0</ele></trkpt>
      <trkpt lat="40.874697" lon="-110.377297"><ele>3067.2</ele></trkpt>
      <trkpt lat="40.874306" lon="-110.377232"><ele>3068.8</ele></trkpt>
      <trkpt lat="40.874129" lon="-110.377148"><ele>3069.2</ele></trkpt>
      <trkpt lat="40.873944" lon="-110.377211"><ele>3069.8</ele></trkpt>
      <trkpt lat="40.873533" lon="-110.377179"><ele>3070.8</ele></trkpt>
      <trkpt lat="40.873259" lon="-110.377152"><ele>3071.2</ele></trkpt>
      <trkpt lat="40.872888" lon="-110.377254"><ele>3071.5</ele></trkpt>
      <trkpt lat="40.871947" lon="-110.377981"><ele>3075.2</ele></trkpt>
      <trkpt lat="40.871571" lon="-110.377959"><ele>3074.5</ele></trkpt>
      <trkpt lat="40.871095" lon="-110.378066"><ele>3076.5</ele></trkpt>
      <trkpt lat="40.870613" lon="-110.378358"><ele>3079.8</ele></trkpt>
      <trkpt lat="40.870302" lon="-110.378494"><ele>3081.5</ele></trkpt>
      <trkpt lat="40.870059" lon="-110.378393"><ele>3081.2</ele></trkpt>
      <trkpt lat="40.869771" lon="-110.378434"><ele>3082.0</ele></trkpt>
      <trkpt lat="40.869449" lon="-110.378643"><ele>3084.5</ele></trkpt>
      <trkpt lat="40.869118" lon="-110.378810"><ele>3086.5</ele></trkpt>
      <trkpt lat="40.868904" lon="-110.378767"><ele>3085.8</ele></trkpt>
      <trkpt lat="40.868547" lon="-110.378938"><ele>3086.5</ele></trkpt>
      <trkpt lat="40.868206" lon="-110.379238"><ele>3089.0</ele></trkpt>
      <trkpt lat="40.867713" lon="-110.379320"><ele>3089.2</ele></trkpt>
      <trkpt lat="40.867424" lon="-110.379238"><ele>3088.0</ele></trkpt>
      <trkpt lat="40.867066" lon="-110.379489"><ele>3092.0</ele></trkpt>
      <trkpt lat="40.866807" lon="-110.379578"><ele>3093.5</ele></trkpt>
      <trkpt lat="40.866467" lon="-110.379723"><ele>3096.2</ele></trkpt>
      <trkpt lat="40.866163" lon="-110.379749"><ele>3097.5</ele></trkpt>
      <trkpt lat="40.865814" lon="-110.380025"><ele>3101.2</ele></trkpt>
      <trkpt lat="40.865379" lon="-110.379837"><ele>3098.0</ele></trkpt>
      <trkpt lat="40.865148" lon="-110.379824"><ele>3097.0</ele></trkpt>
      <trkpt lat="40.864908" lon="-110.380052"><ele>3098.5</ele></trkpt>
      <trkpt lat="40.864521" lon="-110.380343"><ele>3101.8</ele></trkpt>
      <trkpt lat="40.864261" lon="-110.380505"><ele>3103.8</ele></trkpt>
      <trkpt lat="40.864125" lon="-110.380832"><ele>3107.8</ele></trkpt>
      <trkpt lat="40.863871" lon="-110.380925"><ele>3108.0</ele></trkpt>
      <trkpt lat="40.863496" lon="-110.380881"><ele>3106.8</ele></trkpt>
      <trkpt lat="40.863173" lon="-110.380912"><ele>3106.8</ele></trkpt>
      <trkpt lat="40.862749" lon="-110.381193"><ele>3110.2</ele></trkpt>
      <trkpt lat="40.862525" lon="-110.381396"><ele>3112.5</ele></trkpt>
      <trkpt lat="40.862073" lon="-110.381453"><ele>3112.2</ele></trkpt>
      <trkpt lat="40.861954" lon="-110.381747"><ele>3114.8</ele></trkpt>
      <trkpt lat="40.861591" lon="-110.381867"><ele>3116.0</ele></trkpt>
      <trkpt lat="40.860927" lon="-110.381882"><ele>3116.5</ele></trkpt>
      <trkpt lat="40.860687" lon="-110.382196"><ele>3121.0</ele></trkpt>
      <trkpt lat="40.860438" lon="-110.382263"><ele>3122.8</ele></trkpt>
      <trkpt lat="40.859903" lon="-110.382023"><ele>3123.0</ele></trkpt>
      <trkpt lat="40.859626" lon="-110.381956"><ele>3124.5</ele></trkpt>
      <trkpt lat="40.859411" lon="-110.381780"><ele>3125.5</ele></trkpt>
      <trkpt lat="40.859006" lon="-110.381669"><ele>3129.2</ele></trkpt>
      <trkpt lat="40.858688" lon="-110.381700"><ele>3132.0</ele></trkpt>
      <trkpt lat="40.858354" lon="-110.381315"><ele>3134.8</ele></trkpt>
      <trkpt lat="40.857734" lon="-110.381138"><ele>3143.0</ele></trkpt>
      <trkpt lat="40.857370" lon="-110.380707"><ele>3146.5</ele></trkpt>
      <trkpt lat="40.857076" lon="-110.380650"><ele>3149.0</ele></trkpt>
      <trkpt lat="40.856776" lon="-110.380731"><ele>3152.8</ele></trkpt>
      <trkpt lat="40.856347" lon="-110.381047"><ele>3158.0</ele></trkpt>
      <trkpt lat="40.856248" lon="-110.381365"><ele>3159.2</ele></trkpt>
      <trkpt lat="40.855566" lon="-110.382063"><ele>3164.5</ele></trkpt>
      <trkpt lat="40.854862" lon="-110.382406"><ele>3165.5</ele></trkpt>
      <trkpt lat="40.854482" lon="-110.382678"><ele>3165.5</ele></trkpt>
      <trkpt lat="40.854357" lon="-110.382969"><ele>3165.8</ele></trkpt>
      <trkpt lat="40.854066" lon="-110.383407"><ele>3166.2</ele></trkpt>
      <trkpt lat="40.853839" lon="-110.383696"><ele>3167.2</ele></trkpt>
      <trkpt lat="40.853485" lon="-110.383857"><ele>3167.2</ele></trkpt>
      <trkpt lat="40.853353" lon="-110.383708"><ele>3167.0</ele></trkpt>
      <trkpt lat="40.853269" lon="-110.383535"><ele>3167.5</ele></trkpt>
      <trkpt lat="40.852883" lon="-110.383671"><ele>3170.2</ele></trkpt>
      <trkpt lat="40.852548" lon="-110.383933"><ele>3170.2</ele></trkpt>
      <trkpt lat="40.852024" lon="-110.384361"><ele>3172.8</ele></trkpt>
      <trkpt lat="40.851655" lon="-110.384605"><ele>3174.2</ele></trkpt>
      <trkpt lat="40.851235" lon="-110.384710"><ele>3175.8</ele></trkpt>
      <trkpt lat="40.851031" lon="-110.384812"><ele>3175.2</ele></trkpt>
      <trkpt lat="40.850630" lon="-110.384799"><ele>3178.0</ele></trkpt>
      <trkpt lat="40.850435" lon="-110.384835"><ele>3178.8</ele></trkpt>
      <trkpt lat="40.850261" lon="-110.384911"><ele>3178.5</ele></trkpt>
      <trkpt lat="40.849883" lon="-110.384869"><ele>3181.8</ele></trkpt>
      <trkpt lat="40.849685" lon="-110.384853"><ele>3183.0</ele></trkpt>
      <trkpt lat="40.849286" lon="-110.384844"><ele>3185.0</ele></trkpt>
      <trkpt lat="40.849070" lon="-110.384722"><ele>3187.8</ele></trkpt>
      <trkpt lat="40.848886" lon="-110.384723"><ele>3188.2</ele></trkpt>
      <trkpt lat="40.848714" lon="-110.384877"><ele>3186.0</ele></trkpt>
      <trkpt lat="40.848501" lon="-110.384918"><ele>3185.8</ele></trkpt>
      <trkpt lat="40.848237" lon="-110.384953"><ele>3186.2</ele></trkpt>
      <trkpt lat="40.847907" lon="-110.384856"><ele>3190.0</ele></trkpt>
      <trkpt lat="40.847689" lon="-110.384781"><ele>3193.0</ele></trkpt>
      <trkpt lat="40.847547" lon="-110.384670"><ele>3196.2</ele></trkpt>
      <trkpt lat="40.847201" lon="-110.384554"><ele>3200.2</ele></trkpt>
      <trkpt lat="40.846929" lon="-110.384406"><ele>3204.0</ele></trkpt>
      <trkpt lat="40.846672" lon="-110.384294"><ele>3206.8</ele></trkpt>
      <trkpt lat="40.846414" lon="-110.384046"><ele>3212.0</ele></trkpt>
      <trkpt lat="40.846168" lon="-110.383854"><ele>3215.8</ele></trkpt>
      <trkpt lat="40.845994" lon="-110.383699"><ele>3218.5</ele></trkpt>
      <trkpt lat="40.845669" lon="-110.383646"><ele>3220.8</ele></trkpt>
      <trkpt lat="40.845416" lon="-110.383326"><ele>3226.5</ele></trkpt>
      <trkpt lat="40.845318" lon="-110.383141"><ele>3228.8</ele></trkpt>
      <trkpt lat="40.845246" lon="-110.383036"><ele>3230.0</ele></trkpt>
      <trkpt lat="40.845017" lon="-110.382928"><ele>3231.2</ele></trkpt>
      <trkpt lat="40.844837" lon="-110.382837"><ele>3232.2</ele></trkpt>
      <trkpt lat="40.844380" lon="-110.382768"><ele>3233.2</ele></trkpt>
      <trkpt lat="40.844144" lon="-110.382624"><ele>3234.2</ele></trkpt>
      <trkpt lat="40.843788" lon="-110.382332"><ele>3236.8</ele></trkpt>
      <trkpt lat="40.843487" lon="-110.382031"><ele>3238.5</ele></trkpt>
      <trkpt lat="40.843163" lon="-110.381677"><ele>3240.8</ele></trkpt>
      <trkpt lat="40.842866" lon="-110.381560"><ele>3242.5</ele></trkpt>
      <trkpt lat="40.842325" lon="-110.381447"><ele>3245.0</ele></trkpt>
      <trkpt lat="40.841286" lon="-110.381529"><ele>3246.8</ele></trkpt>
      <trkpt lat="40.840996" lon="-110.381641"><ele>3247.5</ele></trkpt>
      <trkpt lat="40.840737" lon="-110.381692"><ele>3248.0</ele></trkpt>
      <trkpt lat="40.840380" lon="-110.381610"><ele>3248.5</ele></trkpt>
      <trkpt lat="40.840195" lon="-110.381554"><ele>3249.0</ele></trkpt>
      <trkpt lat="40.839429" lon="-110.381209"><ele>3252.8</ele></trkpt>
      <trkpt lat="40.838828" lon="-110.381093"><ele>3255.2</ele></trkpt>
      <trkpt lat="40.838241" lon="-110.380987"><ele>3257.5</ele></trkpt>
      <trkpt lat="40.837670" lon="-110.381071"><ele>3256.8</ele></trkpt>
      <trkpt lat="40.837406" lon="-110.381167"><ele>3256.0</ele></trkpt>
      <trkpt lat="40.836602" lon="-110.381068"><ele>3255.0</ele></trkpt>
      <trkpt lat="40.836315" lon="-110.381047"><ele>3255.5</ele></trkpt>
      <trkpt lat="40.836068" lon="-110.381185"><ele>3255.0</ele></trkpt>
      <trkpt lat="40.835856" lon="-110.381307"><ele>3254.5</ele></trkpt>
      <trkpt lat="40.835775" lon="-110.381403"><ele>3254.2</ele></trkpt>
      <trkpt lat="40.835632" lon="-110.381358"><ele>3254.5</ele></trkpt>
      <trkpt lat="40.835548" lon="-110.381379"><ele>3254.5</ele></trkpt>
      <trkpt lat="40.835397" lon="-110.381414"><ele>3254.5</ele></trkpt>
      <trkpt lat="40.835073" lon="-110.381254"><ele>3255.8</ele></trkpt>
      <trkpt lat="40.834841" lon="-110.381047"><ele>3257.2</ele></trkpt>
      <trkpt lat="40.834269" lon="-110.380959"><ele>3257.8</ele></trkpt>
      <trkpt lat="40.833991" lon="-110.380847"><ele>3259.8</ele></trkpt>
      <trkpt lat="40.833853" lon="-110.380866"><ele>3260.5</ele></trkpt>
      <trkpt lat="40.833100" lon="-110.380797"><ele>3265.2</ele></trkpt>
      <trkpt lat="40.832704" lon="-110.380826"><ele>3267.0</ele></trkpt>
      <trkpt lat="40.832552" lon="-110.380852"><ele>3267.5</ele></trkpt>
      <trkpt lat="40.832264" lon="-110.380733"><ele>3269.5</ele></trkpt>
      <trkpt lat="40.832040" lon="-110.380670"><ele>3270.8</ele></trkpt>
      <trkpt lat="40.831788" lon="-110.380615"><ele>3272.0</ele></trkpt>
      <trkpt lat="40.831571" lon="-110.380738"><ele>3272.2</ele></trkpt>
      <trkpt lat="40.831296" lon="-110.380759"><ele>3272.2</ele></trkpt>
      <trkpt lat="40.830945" lon="-110.380592"><ele>3273.2</ele></trkpt>
      <trkpt lat="40.830581" lon="-110.380457"><ele>3275.2</ele></trkpt>
      <trkpt lat="40.830190" lon="-110.380508"><ele>3276.8</ele></trkpt>
      <trkpt lat="40.829427" lon="-110.380407"><ele>3280.2</ele></trkpt>
      <trkpt lat="40.829109" lon="-110.380316"><ele>3281.8</ele></trkpt>
      <trkpt lat="40.828721" lon="-110.380229"><ele>3285.0</ele></trkpt>
      <trkpt lat="40.828400" lon="-110.380234"><ele>3287.8</ele></trkpt>
      <trkpt lat="40.828150" lon="-110.380181"><ele>3289.2</ele></trkpt>
      <trkpt lat="40.827847" lon="-110.380217"><ele>3290.8</ele></trkpt>
      <trkpt lat="40.827682" lon="-110.380163"><ele>3291.5</ele></trkpt>
      <trkpt lat="40.827452" lon="-110.380167"><ele>3292.8</ele></trkpt>
      <trkpt lat="40.827072" lon="-110.380222"><ele>3295.8</ele></trkpt>
      <trkpt lat="40.826689" lon="-110.380212"><ele>3298.8</ele></trkpt>
      <trkpt lat="40.826192" lon="-110.379879"><ele>3302.0</ele></trkpt>
      <trkpt lat="40.826070" lon="-110.378635"><ele>3302.0</ele></trkpt>
      <trkpt lat="40.825942" lon="-110.378318"><ele>3303.5</ele></trkpt>
      <trkpt lat="40.826387" lon="-110.377953"><ele>3296.8</ele></trkpt>
      <trkpt lat="40.826678" lon="-110.377486"><ele>3291.8</ele></trkpt>
    </trkseg>
    <!-- Sat: Gunsight Pass, Anderson Pass, Kings Peak, back to camp (13.4 mi, 3736 ft up) -->
    <trkseg>
      <trkpt lat="40.826678" lon="-110.377486"><ele>3291.8</ele></trkpt>
      <trkpt lat="40.826238" lon="-110.378088"><ele>3299.0</ele></trkpt>
      <trkpt lat="40.825947" lon="-110.378480"><ele>3303.5</ele></trkpt>
      <trkpt lat="40.825989" lon="-110.378790"><ele>3303.2</ele></trkpt>
      <trkpt lat="40.825334" lon="-110.379233"><ele>3307.2</ele></trkpt>
      <trkpt lat="40.824817" lon="-110.379454"><ele>3309.2</ele></trkpt>
      <trkpt lat="40.824301" lon="-110.379393"><ele>3312.5</ele></trkpt>
      <trkpt lat="40.824051" lon="-110.379263"><ele>3314.8</ele></trkpt>
      <trkpt lat="40.823677" lon="-110.379103"><ele>3317.8</ele></trkpt>
      <trkpt lat="40.823451" lon="-110.379023"><ele>3319.2</ele></trkpt>
      <trkpt lat="40.823307" lon="-110.378953"><ele>3320.0</ele></trkpt>
      <trkpt lat="40.822902" lon="-110.378758"><ele>3320.5</ele></trkpt>
      <trkpt lat="40.822580" lon="-110.378519"><ele>3321.2</ele></trkpt>
      <trkpt lat="40.822237" lon="-110.378307"><ele>3321.5</ele></trkpt>
      <trkpt lat="40.821896" lon="-110.378144"><ele>3321.8</ele></trkpt>
      <trkpt lat="40.821673" lon="-110.378052"><ele>3321.5</ele></trkpt>
      <trkpt lat="40.821461" lon="-110.378014"><ele>3323.0</ele></trkpt>
      <trkpt lat="40.821170" lon="-110.377985"><ele>3325.0</ele></trkpt>
      <trkpt lat="40.821009" lon="-110.377963"><ele>3326.2</ele></trkpt>
      <trkpt lat="40.820674" lon="-110.377884"><ele>3328.5</ele></trkpt>
      <trkpt lat="40.820469" lon="-110.377830"><ele>3330.2</ele></trkpt>
      <trkpt lat="40.820282" lon="-110.377785"><ele>3331.8</ele></trkpt>
      <trkpt lat="40.820103" lon="-110.377828"><ele>3332.8</ele></trkpt>
      <trkpt lat="40.819882" lon="-110.377780"><ele>3335.0</ele></trkpt>
      <trkpt lat="40.819737" lon="-110.377731"><ele>3336.8</ele></trkpt>
      <trkpt lat="40.819267" lon="-110.377524"><ele>3344.2</ele></trkpt>
      <trkpt lat="40.819090" lon="-110.377524"><ele>3345.5</ele></trkpt>
      <trkpt lat="40.818970" lon="-110.377429"><ele>3346.5</ele></trkpt>
      <trkpt lat="40.818700" lon="-110.377436"><ele>3347.0</ele></trkpt>
      <trkpt lat="40.818487" lon="-110.377360"><ele>3348.0</ele></trkpt>
      <trkpt lat="40.818153" lon="-110.377206"><ele>3348.8</ele></trkpt>
      <trkpt lat="40.818014" lon="-110.377133"><ele>3349.0</ele></trkpt>
      <trkpt lat="40.817541" lon="-110.376790"><ele>3351.2</ele></trkpt>
      <trkpt lat="40.817281" lon="-110.376566"><ele>3354.0</ele></trkpt>
      <trkpt lat="40.817092" lon="-110.376498"><ele>3354.5</ele></trkpt>
      <trkpt lat="40.816907" lon="-110.376428"><ele>3355.0</ele></trkpt>
      <trkpt lat="40.816757" lon="-110.376392"><ele>3355.0</ele></trkpt>
      <trkpt lat="40.816224" lon="-110.376112"><ele>3356.0</ele></trkpt>
      <trkpt lat="40.815666" lon="-110.375589"><ele>3358.8</ele></trkpt>
      <trkpt lat="40.815332" lon="-110.375253"><ele>3361.2</ele></trkpt>
      <trkpt lat="40.815111" lon="-110.374989"><ele>3362.5</ele></trkpt>
      <trkpt lat="40.814936" lon="-110.374905"><ele>3363.2</ele></trkpt>
      <trkpt lat="40.814736" lon="-110.374779"><ele>3363.8</ele></trkpt>
      <trkpt lat="40.814433" lon="-110.374325"><ele>3365.2</ele></trkpt>
      <trkpt lat="40.814147" lon="-110.373856"><ele>3369.2</ele></trkpt>
      <trkpt lat="40.813871" lon="-110.373553"><ele>3373.0</ele></trkpt>
      <trkpt lat="40.813659" lon="-110.373302"><ele>3375.5</ele></trkpt>
      <trkpt lat="40.813401" lon="-110.373107"><ele>3379.2</ele></trkpt>
      <trkpt lat="40.813247" lon="-110.372991"><ele>3381.8</ele></trkpt>
      <trkpt lat="40.813168" lon="-110.372647"><ele>3388.0</ele></trkpt>
      <trkpt lat="40.812981" lon="-110.372556"><ele>3389.2</ele></trkpt>
      <trkpt lat="40.812840" lon="-110.372486"><ele>3390.0</ele></trkpt>
      <trkpt lat="40.812671" lon="-110.372373"><ele>3391.5</ele></trkpt>
      <trkpt lat="40.812615" lon="-110.372211"><ele>3394.0</ele></trkpt>
      <trkpt lat="40.812459" lon="-110.372063"><ele>3396.5</ele></trkpt>
      <trkpt lat="40.812307" lon="-110.371927"><ele>3400.0</ele></trkpt>
      <trkpt lat="40.811839" lon="-110.371224"><ele>3410.8</ele></trkpt>
      <trkpt lat="40.811351" lon="-110.370487"><ele>3418.8</ele></trkpt>
      <trkpt lat="40.811098" lon="-110.370006"><ele>3423.8</ele></trkpt>
      <trkpt lat="40.810868" lon="-110.369635"><ele>3425.8</ele></trkpt>
      <trkpt lat="40.810618" lon="-110.369258"><ele>3428.8</ele></trkpt>
      <trkpt lat="40.810454" lon="-110.368860"><ele>3433.8</ele></trkpt>
      <trkpt lat="40.810321" lon="-110.368693"><ele>3436.2</ele></trkpt>
      <trkpt lat="40.809918" lon="-110.368054"><ele>3444.5</ele></trkpt>
      <trkpt lat="40.809808" lon="-110.367855"><ele>3447.0</ele></trkpt>
      <trkpt lat="40.809718" lon="-110.367609"><ele>3450.2</ele></trkpt>
      <trkpt lat="40.809598" lon="-110.367379"><ele>3453.0</ele></trkpt>
      <trkpt lat="40.809428" lon="-110.367010"><ele>3457.5</ele></trkpt>
      <trkpt lat="40.809405" lon="-110.366639"><ele>3462.5</ele></trkpt>
      <trkpt lat="40.809358" lon="-110.366573"><ele>3463.0</ele></trkpt>
      <trkpt lat="40.809243" lon="-110.366350"><ele>3465.2</ele></trkpt>
      <trkpt lat="40.809150" lon="-110.366071"><ele>3468.0</ele></trkpt>
      <trkpt lat="40.808974" lon="-110.365722"><ele>3473.2</ele></trkpt>
      <trkpt lat="40.808857" lon="-110.365656"><ele>3474.5</ele></trkpt>
      <trkpt lat="40.808702" lon="-110.365659"><ele>3474.5</ele></trkpt>
      <trkpt lat="40.808638" lon="-110.365616"><ele>3475.0</ele></trkpt>
      <trkpt lat="40.808575" lon="-110.365461"><ele>3477.0</ele></trkpt>
      <trkpt lat="40.807951" lon="-110.365036"><ele>3480.8</ele></trkpt>
      <trkpt lat="40.807464" lon="-110.364709"><ele>3483.2</ele></trkpt>
      <trkpt lat="40.807157" lon="-110.364323"><ele>3487.5</ele></trkpt>
      <trkpt lat="40.806899" lon="-110.364160"><ele>3490.2</ele></trkpt>
      <trkpt lat="40.806624" lon="-110.363867"><ele>3493.8</ele></trkpt>
      <trkpt lat="40.806147" lon="-110.363483"><ele>3494.0</ele></trkpt>
      <trkpt lat="40.805900" lon="-110.363216"><ele>3496.2</ele></trkpt>
      <trkpt lat="40.805712" lon="-110.363070"><ele>3497.2</ele></trkpt>
      <trkpt lat="40.805371" lon="-110.362795"><ele>3499.2</ele></trkpt>
      <trkpt lat="40.804928" lon="-110.362636"><ele>3498.8</ele></trkpt>
      <trkpt lat="40.804684" lon="-110.362541"><ele>3499.2</ele></trkpt>
      <trkpt lat="40.804496" lon="-110.362478"><ele>3499.5</ele></trkpt>
      <trkpt lat="40.804363" lon="-110.362450"><ele>3499.2</ele></trkpt>
      <trkpt lat="40.804198" lon="-110.362307"><ele>3500.5</ele></trkpt>
      <trkpt lat="40.803516" lon="-110.361955"><ele>3502.8</ele></trkpt>
      <trkpt lat="40.803317" lon="-110.361941"><ele>3502.2</ele></trkpt>
      <trkpt lat="40.802883" lon="-110.361760"><ele>3504.0</ele></trkpt>
      <trkpt lat="40.802649" lon="-110.361572"><ele>3506.5</ele></trkpt>
      <trkpt lat="40.802338" lon="-110.361336"><ele>3511.0</ele></trkpt>
      <trkpt lat="40.802237" lon="-110.361313"><ele>3512.0</ele></trkpt>
      <trkpt lat="40.801911" lon="-110.361268"><ele>3514.8</ele></trkpt>
      <trkpt lat="40.801512" lon="-110.361104"><ele>3520.5</ele></trkpt>
      <trkpt lat="40.801206" lon="-110.360910"><ele>3524.0</ele></trkpt>
      <trkpt lat="40.800803" lon="-110.360750"><ele>3528.5</ele></trkpt>
      <trkpt lat="40.800405" lon="-110.360578"><ele>3541.5</ele></trkpt>
      <trkpt lat="40.800262" lon="-110.360409"><ele>3546.8</ele></trkpt>
      <trkpt lat="40.800067" lon="-110.360340"><ele>3551.5</ele></trkpt>
      <trkpt lat="40.799767" lon="-110.360234"><ele>3556.2</ele></trkpt>
      <trkpt lat="40.799464" lon="-110.360173"><ele>3559.8</ele></trkpt>
      <trkpt lat="40.799290" lon="-110.360144"><ele>3561.2</ele></trkpt>
      <trkpt lat="40.799205" lon="-110.360108"><ele>3561.8</ele></trkpt>
      <trkpt lat="40.799331" lon="-110.360564"><ele>3564.5</ele></trkpt>
      <trkpt lat="40.799521" lon="-110.360821"><ele>3562.0</ele></trkpt>
      <trkpt lat="40.799816" lon="-110.361050"><ele>3559.5</ele></trkpt>
      <trkpt lat="40.799888" lon="-110.361279"><ele>3562.8</ele></trkpt>
      <trkpt lat="40.800028" lon="-110.361475"><ele>3563.0</ele></trkpt>
      <trkpt lat="40.800221" lon="-110.361812"><ele>3564.2</ele></trkpt>
      <trkpt lat="40.800369" lon="-110.362171"><ele>3568.5</ele></trkpt>
      <trkpt lat="40.800432" lon="-110.362407"><ele>3572.8</ele></trkpt>
      <trkpt lat="40.800497" lon="-110.362754"><ele>3577.5</ele></trkpt>
      <trkpt lat="40.800818" lon="-110.363187"><ele>3576.8</ele></trkpt>
      <trkpt lat="40.800871" lon="-110.363492"><ele>3578.5</ele></trkpt>
      <trkpt lat="40.800680" lon="-110.363214"><ele>3580.5</ele></trkpt>
      <trkpt lat="40.800095" lon="-110.362711"><ele>3586.8</ele></trkpt>
      <trkpt lat="40.799970" lon="-110.362557"><ele>3587.8</ele></trkpt>
      <trkpt lat="40.799619" lon="-110.362257"><ele>3593.8</ele></trkpt>
      <trkpt lat="40.799479" lon="-110.362135"><ele>3595.5</ele></trkpt>
      <trkpt lat="40.799335" lon="-110.361955"><ele>3596.2</ele></trkpt>
      <trkpt lat="40.799138" lon="-110.361821"><ele>3599.5</ele></trkpt>
      <trkpt lat="40.798875" lon="-110.361497"><ele>3599.5</ele></trkpt>
      <trkpt lat="40.798523" lon="-110.361326"><ele>3606.5</ele></trkpt>
      <trkpt lat="40.798248" lon="-110.361224"><ele>3613.0</ele></trkpt>
      <trkpt lat="40.797803" lon="-110.360919"><ele>3618.5</ele></trkpt>
      <trkpt lat="40.797674" lon="-110.360734"><ele>3619.0</ele></trkpt>
      <trkpt lat="40.797322" lon="-110.360260"><ele>3625.2</ele></trkpt>
      <trkpt lat="40.797260" lon="-110.360078"><ele>3623.8</ele></trkpt>
      <trkpt lat="40.797249" lon="-110.359712"><ele>3623.5</ele></trkpt>
      <trkpt lat="40.797176" lon="-110.359580"><ele>3623.5</ele></trkpt>
      <trkpt lat="40.796900" lon="-110.359454"><ele>3620.5</ele></trkpt>
      <trkpt lat="40.796875" lon="-110.359035"><ele>3614.8</ele></trkpt>
      <trkpt lat="40.796886" lon="-110.358803"><ele>3613.0</ele></trkpt>
      <trkpt lat="40.796765" lon="-110.358944"><ele>3610.2</ele></trkpt>
      <trkpt lat="40.796524" lon="-110.359306"><ele>3613.0</ele></trkpt>
      <trkpt lat="40.795431" lon="-110.359088"><ele>3603.2</ele></trkpt>
      <trkpt lat="40.794692" lon="-110.358503"><ele>3595.0</ele></trkpt>
      <trkpt lat="40.793921" lon="-110.357357"><ele>3575.5</ele></trkpt>
      <trkpt lat="40.793506" lon="-110.356797"><ele>3564.0</ele></trkpt>
      <trkpt lat="40.792739" lon="-110.356046"><ele>3549.8</ele></trkpt>
      <trkpt lat="40.792249" lon="-110.355566"><ele>3532.5</ele></trkpt>
      <trkpt lat="40.792180" lon="-110.355325"><ele>3524.8</ele></trkpt>
      <trkpt lat="40.791553" lon="-110.355319"><ele>3520.5</ele></trkpt>
      <trkpt lat="40.790935" lon="-110.354925"><ele>3512.8</ele></trkpt>
      <trkpt lat="40.790424" lon="-110.354437"><ele>3503.8</ele></trkpt>
      <trkpt lat="40.789920" lon="-110.354415"><ele>3504.8</ele></trkpt>
      <trkpt lat="40.788990" lon="-110.354635"><ele>3508.0</ele></trkpt>
      <trkpt lat="40.787845" lon="-110.354812"><ele>3500.8</ele></trkpt>
      <trkpt lat="40.787032" lon="-110.354871"><ele>3495.5</ele></trkpt>
      <trkpt lat="40.786484" lon="-110.355021"><ele>3493.8</ele></trkpt>
      <trkpt lat="40.786096" lon="-110.355110"><ele>3494.8</ele></trkpt>
      <trkpt lat="40.785578" lon="-110.355335"><ele>3498.5</ele></trkpt>
      <trkpt lat="40.784663" lon="-110.355669"><ele>3501.5</ele></trkpt>
      <trkpt lat="40.784033" lon="-110.355449"><ele>3492.5</ele></trkpt>
      <trkpt lat="40.783371" lon="-110.355169"><ele>3484.5</ele></trkpt>
      <trkpt lat="40.782743" lon="-110.355244"><ele>3484.8</ele></trkpt>
      <trkpt lat="40.782276" lon="-110.355086"><ele>3484.5</ele></trkpt>
      <trkpt lat="40.781793" lon="-110.354710"><ele>3485.8</ele></trkpt>
      <trkpt lat="40.781573" lon="-110.354096"><ele>3482.8</ele></trkpt>
      <trkpt lat="40.781258" lon="-110.353712"><ele>3487.2</ele></trkpt>
      <trkpt lat="40.780797" lon="-110.354072"><ele>3501.0</ele></trkpt>
      <trkpt lat="40.780391" lon="-110.354673"><ele>3522.5</ele></trkpt>
      <trkpt lat="40.780013" lon="-110.355300"><ele>3534.2</ele></trkpt>
      <trkpt lat="40.779863" lon="-110.355700"><ele>3539.0</ele></trkpt>
      <trkpt lat="40.779638" lon="-110.356593"><ele>3549.5</ele></trkpt>
      <trkpt lat="40.779534" lon="-110.357264"><ele>3560.8</ele></trkpt>
      <trkpt lat="40.779727" lon="-110.357516"><ele>3563.8</ele></trkpt>
      <trkpt lat="40.780280" lon="-110.357774"><ele>3568.5</ele></trkpt>
      <trkpt lat="40.780464" lon="-110.357893"><ele>3573.0</ele></trkpt>
      <trkpt lat="40.781028" lon="-110.358188"><ele>3589.0</ele></trkpt>
      <trkpt lat="40.781179" lon="-110.358621"><ele>3601.0</ele></trkpt>
      <trkpt lat="40.781242" lon="-110.358505"><ele>3601.2</ele></trkpt>
      <trkpt lat="40.781305" lon="-110.358543"><ele>3603.8</ele></trkpt>
      <trkpt lat="40.781389" lon="-110.359502"><ele>3619.2</ele></trkpt>
      <trkpt lat="40.781310" lon="-110.360200"><ele>3624.8</ele></trkpt>
      <trkpt lat="40.781285" lon="-110.360926"><ele>3635.0</ele></trkpt>
      <trkpt lat="40.781025" lon="-110.361246"><ele>3637.5</ele></trkpt>
      <trkpt lat="40.780716" lon="-110.361254"><ele>3634.8</ele></trkpt>
      <trkpt lat="40.780393" lon="-110.361272"><ele>3637.2</ele></trkpt>
      <trkpt lat="40.780515" lon="-110.361828"><ele>3649.5</ele></trkpt>
      <trkpt lat="40.780320" lon="-110.362210"><ele>3655.5</ele></trkpt>
      <trkpt lat="40.780769" lon="-110.362864"><ele>3666.5</ele></trkpt>
      <trkpt lat="40.781475" lon="-110.363226"><ele>3681.0</ele></trkpt>
      <trkpt lat="40.782520" lon="-110.363932"><ele>3695.5</ele></trkpt>
      <trkpt lat="40.783074" lon="-110.364302"><ele>3704.5</ele></trkpt>
      <trkpt lat="40.783850" lon="-110.365404"><ele>3724.0</ele></trkpt>
      <trkpt lat="40.784197" lon="-110.366342"><ele>3733.5</ele></trkpt>
      <trkpt lat="40.785089" lon="-110.367249"><ele>3745.2</ele></trkpt>
      <trkpt lat="40.785659" lon="-110.368014"><ele>3759.0</ele></trkpt>
      <trkpt lat="40.785680" lon="-110.368741"><ele>3765.5</ele></trkpt>
      <trkpt lat="40.785907" lon="-110.369861"><ele>3772.2</ele></trkpt>
      <trkpt lat="40.785897" lon="-110.370856"><ele>3775.2</ele></trkpt>
      <trkpt lat="40.785738" lon="-110.371590"><ele>3779.2</ele></trkpt>
      <trkpt lat="40.785814" lon="-110.372138"><ele>3780.8</ele></trkpt>
      <trkpt lat="40.785806" lon="-110.372501"><ele>3782.5</ele></trkpt>
      <trkpt lat="40.785824" lon="-110.373333"><ele>3788.2</ele></trkpt>
      <trkpt lat="40.786173" lon="-110.374255"><ele>3799.8</ele></trkpt>
      <trkpt lat="40.786095" lon="-110.374792"><ele>3809.2</ele></trkpt>
      <trkpt lat="40.786366" lon="-110.375446"><ele>3817.5</ele></trkpt>
      <trkpt lat="40.786362" lon="-110.376247"><ele>3830.2</ele></trkpt>
      <trkpt lat="40.786233" lon="-110.376295"><ele>3832.5</ele></trkpt>
      <trkpt lat="40.785781" lon="-110.376304"><ele>3839.2</ele></trkpt>
      <trkpt lat="40.785693" lon="-110.376956"><ele>3851.0</ele></trkpt>
      <trkpt lat="40.785424" lon="-110.377592"><ele>3860.2</ele></trkpt>
      <trkpt lat="40.785237" lon="-110.377752"><ele>3859.5</ele></trkpt>
      <trkpt lat="40.784770" lon="-110.377171"><ele>3867.2</ele></trkpt>
      <trkpt lat="40.784027" lon="-110.376291"><ele>3898.0</ele></trkpt>
      <trkpt lat="40.783263" lon="-110.375739"><ele>3936.2</ele></trkpt>
      <trkpt lat="40.782605" lon="-110.375111"><ele>3966.8</ele></trkpt>
      <trkpt lat="40.781319" lon="-110.374138"><ele>4005.5</ele></trkpt>
      <trkpt lat="40.780054" lon="-110.373593"><ele>4028.2</ele></trkpt>
      <trkpt lat="40.778510" lon="-110.373035"><ele>4052.5</ele></trkpt>
      <trkpt lat="40.777692" lon="-110.372862"><ele>4069.0</ele></trkpt>
      <trkpt lat="40.776817" lon="-110.372896"><ele>4082.2</ele></trkpt>
      <trkpt lat="40.776346" lon="-110.372900"><ele>4086.8</ele></trkpt>
      <trkpt lat="40.776520" lon="-110.372810"><ele>4087.2</ele></trkpt>
      <trkpt lat="40.776983" lon="-110.372901"><ele>4080.0</ele></trkpt>
      <trkpt lat="40.778023" lon="-110.372820"><ele>4061.8</ele></trkpt>
      <trkpt lat="40.778787" lon="-110.373148"><ele>4050.0</ele></trkpt>
      <trkpt lat="40.780635" lon="-110.373899"><ele>4013.8</ele></trkpt>
      <trkpt lat="40.781569" lon="-110.374280"><ele>3999.2</ele></trkpt>
      <trkpt lat="40.782869" lon="-110.375229"><ele>3952.5</ele></trkpt>
      <trkpt lat="40.783653" lon="-110.375953"><ele>3916.8</ele></trkpt>
      <trkpt lat="40.784228" lon="-110.376481"><ele>3892.2</ele></trkpt>
      <trkpt lat="40.784945" lon="-110.377316"><ele>3865.0</ele></trkpt>
      <trkpt lat="40.785237" lon="-110.377751"><ele>3861.0</ele></trkpt>
      <trkpt lat="40.785594" lon="-110.377415"><ele>3858.0</ele></trkpt>
      <trkpt lat="40.785719" lon="-110.376652"><ele>3846.2</ele></trkpt>
      <trkpt lat="40.785938" lon="-110.376224"><ele>3835.2</ele></trkpt>
      <trkpt lat="40.786296" lon="-110.376329"><ele>3832.2</ele></trkpt>
      <trkpt lat="40.786366" lon="-110.375975"><ele>3826.5</ele></trkpt>
      <trkpt lat="40.786088" lon="-110.375165"><ele>3815.8</ele></trkpt>
      <trkpt lat="40.786209" lon="-110.374762"><ele>3807.5</ele></trkpt>
      <trkpt lat="40.786076" lon="-110.373787"><ele>3794.0</ele></trkpt>
      <trkpt lat="40.785805" lon="-110.373023"><ele>3786.5</ele></trkpt>
      <trkpt lat="40.785826" lon="-110.372418"><ele>3781.8</ele></trkpt>
      <trkpt lat="40.785786" lon="-110.372055"><ele>3780.8</ele></trkpt>
      <trkpt lat="40.785808" lon="-110.371218"><ele>3776.8</ele></trkpt>
      <trkpt lat="40.785895" lon="-110.370621"><ele>3774.5</ele></trkpt>
      <trkpt lat="40.785667" lon="-110.369293"><ele>3769.0</ele></trkpt>
      <trkpt lat="40.785633" lon="-110.368443"><ele>3763.2</ele></trkpt>
      <trkpt lat="40.785355" lon="-110.367374"><ele>3749.2</ele></trkpt>
      <trkpt lat="40.784713" lon="-110.366890"><ele>3739.8</ele></trkpt>
      <trkpt lat="40.784096" lon="-110.365985"><ele>3729.2</ele></trkpt>
      <trkpt lat="40.783614" lon="-110.364964"><ele>3719.5</ele></trkpt>
      <trkpt lat="40.782849" lon="-110.364181"><ele>3700.2</ele></trkpt>
      <trkpt lat="40.782034" lon="-110.363607"><ele>3690.5</ele></trkpt>
      <trkpt lat="40.781197" lon="-110.363183"><ele>3676.0</ele></trkpt>
      <trkpt lat="40.780647" lon="-110.362738"><ele>3664.8</ele></trkpt>
      <trkpt lat="40.780302" lon="-110.362030"><ele>3652.5</ele></trkpt>
      <trkpt lat="40.780409" lon="-110.361652"><ele>3646.5</ele></trkpt>
      <trkpt lat="40.780437" lon="-110.361237"><ele>3636.2</ele></trkpt>
      <trkpt lat="40.780858" lon="-110.361233"><ele>3633.8</ele></trkpt>
      <trkpt lat="40.781074" lon="-110.361211"><ele>3637.5</ele></trkpt>
      <trkpt lat="40.781279" lon="-110.360712"><ele>3631.0</ele></trkpt>
      <trkpt lat="40.781306" lon="-110.360047"><ele>3622.5</ele></trkpt>
      <trkpt lat="40.781324" lon="-110.359154"><ele>3613.5</ele></trkpt>
      <trkpt lat="40.781274" lon="-110.358467"><ele>3601.5</ele></trkpt>
      <trkpt lat="40.781213" lon="-110.358607"><ele>3601.8</ele></trkpt>
      <trkpt lat="40.781163" lon="-110.358543"><ele>3599.5</ele></trkpt>
      <trkpt lat="40.780815" lon="-110.358041"><ele>3580.8</ele></trkpt>
      <trkpt lat="40.780420" lon="-110.357910"><ele>3572.5</ele></trkpt>
      <trkpt lat="40.780028" lon="-110.357582"><ele>3563.2</ele></trkpt>
      <trkpt lat="40.779559" lon="-110.357459"><ele>3563.8</ele></trkpt>
      <trkpt lat="40.779634" lon="-110.356941"><ele>3554.8</ele></trkpt>
      <trkpt lat="40.779642" lon="-110.356467"><ele>3548.2</ele></trkpt>
      <trkpt lat="40.779936" lon="-110.355670"><ele>3538.0</ele></trkpt>
      <trkpt lat="40.780046" lon="-110.355145"><ele>3532.8</ele></trkpt>
      <trkpt lat="40.780485" lon="-110.354388"><ele>3515.2</ele></trkpt>
      <trkpt lat="40.780936" lon="-110.353986"><ele>3496.8</ele></trkpt>
      <trkpt lat="40.781380" lon="-110.353841"><ele>3485.5</ele></trkpt>
      <trkpt lat="40.781691" lon="-110.354125"><ele>3480.2</ele></trkpt>
      <trkpt lat="40.781884" lon="-110.354842"><ele>3486.2</ele></trkpt>
      <trkpt lat="40.782564" lon="-110.355185"><ele>3483.2</ele></trkpt>
      <trkpt lat="40.782895" lon="-110.355214"><ele>3484.5</ele></trkpt>
      <trkpt lat="40.783852" lon="-110.355265"><ele>3487.8</ele></trkpt>
      <trkpt lat="40.784169" lon="-110.355518"><ele>3494.2</ele></trkpt>
      <trkpt lat="40.785157" lon="-110.355613"><ele>3503.5</ele></trkpt>
      <trkpt lat="40.785779" lon="-110.355262"><ele>3497.2</ele></trkpt>
      <trkpt lat="40.786196" lon="-110.354992"><ele>3492.0</ele></trkpt>
      <trkpt lat="40.786659" lon="-110.355027"><ele>3494.5</ele></trkpt>
      <trkpt lat="40.787296" lon="-110.354882"><ele>3497.5</ele></trkpt>
      <trkpt lat="40.788202" lon="-110.354769"><ele>3502.8</ele></trkpt>
      <trkpt lat="40.789128" lon="-110.354539"><ele>3508.0</ele></trkpt>
      <trkpt lat="40.790123" lon="-110.354453"><ele>3505.0</ele></trkpt>
      <trkpt lat="40.790594" lon="-110.354517"><ele>3505.2</ele></trkpt>
      <trkpt lat="40.791155" lon="-110.355102"><ele>3516.2</ele></trkpt>
      <trkpt lat="40.791788" lon="-110.355343"><ele>3521.8</ele></trkpt>
      <trkpt lat="40.792294" lon="-110.355387"><ele>3527.8</ele></trkpt>
      <trkpt lat="40.792454" lon="-110.355590"><ele>3535.2</ele></trkpt>
      <trkpt lat="40.793064" lon="-110.356287"><ele>3555.5</ele></trkpt>
      <trkpt lat="40.793636" lon="-110.356976"><ele>3567.8</ele></trkpt>
      <trkpt lat="40.794119" lon="-110.357602"><ele>3579.5</ele></trkpt>
      <trkpt lat="40.794980" lon="-110.358723"><ele>3598.5</ele></trkpt>
      <trkpt lat="40.796085" lon="-110.359345"><ele>3611.0</ele></trkpt>
      <trkpt lat="40.796646" lon="-110.359197"><ele>3611.5</ele></trkpt>
      <trkpt lat="40.796830" lon="-110.358873"><ele>3611.8</ele></trkpt>
      <trkpt lat="40.796896" lon="-110.358822"><ele>3613.5</ele></trkpt>
      <trkpt lat="40.796853" lon="-110.359278"><ele>3617.2</ele></trkpt>
      <trkpt lat="40.797129" lon="-110.359556"><ele>3623.2</ele></trkpt>
      <trkpt lat="40.797216" lon="-110.359613"><ele>3623.8</ele></trkpt>
      <trkpt lat="40.797259" lon="-110.359800"><ele>3623.2</ele></trkpt>
      <trkpt lat="40.797263" lon="-110.360121"><ele>3624.5</ele></trkpt>
      <trkpt lat="40.797393" lon="-110.360333"><ele>3624.2</ele></trkpt>
      <trkpt lat="40.797737" lon="-110.360779"><ele>3617.5</ele></trkpt>
      <trkpt lat="40.797972" lon="-110.361016"><ele>3616.2</ele></trkpt>
      <trkpt lat="40.798308" lon="-110.361238"><ele>3611.5</ele></trkpt>
      <trkpt lat="40.798629" lon="-110.361367"><ele>3604.0</ele></trkpt>
      <trkpt lat="40.798989" lon="-110.361600"><ele>3598.5</ele></trkpt>
      <trkpt lat="40.799174" lon="-110.361846"><ele>3599.0</ele></trkpt>
      <trkpt lat="40.799386" lon="-110.362006"><ele>3595.8</ele></trkpt>
      <trkpt lat="40.799519" lon="-110.362192"><ele>3595.5</ele></trkpt>
      <trkpt lat="40.799737" lon="-110.362358"><ele>3591.8</ele></trkpt>
      <trkpt lat="40.800001" lon="-110.362630"><ele>3588.0</ele></trkpt>
      <trkpt lat="40.800182" lon="-110.362835"><ele>3586.5</ele></trkpt>
      <trkpt lat="40.800746" lon="-110.363295"><ele>3580.2</ele></trkpt>
      <trkpt lat="40.800901" lon="-110.363488"><ele>3577.0</ele></trkpt>
      <trkpt lat="40.800751" lon="-110.363097"><ele>3577.0</ele></trkpt>
      <trkpt lat="40.800486" lon="-110.362719"><ele>3577.2</ele></trkpt>
      <trkpt lat="40.800424" lon="-110.362319"><ele>3570.8</ele></trkpt>
      <trkpt lat="40.800314" lon="-110.362071"><ele>3567.8</ele></trkpt>
      <trkpt lat="40.800180" lon="-110.361711"><ele>3563.2</ele></trkpt>
      <trkpt lat="40.799963" lon="-110.361361"><ele>3562.5</ele></trkpt>
      <trkpt lat="40.799858" lon="-110.361225"><ele>3562.5</ele></trkpt>
      <trkpt lat="40.799775" lon="-110.361016"><ele>3559.8</ele></trkpt>
      <trkpt lat="40.799485" lon="-110.360780"><ele>3562.5</ele></trkpt>
      <trkpt lat="40.799180" lon="-110.360262"><ele>3563.8</ele></trkpt>
      <trkpt lat="40.799225" lon="-110.360102"><ele>3561.5</ele></trkpt>
      <trkpt lat="40.799337" lon="-110.360163"><ele>3561.0</ele></trkpt>
      <trkpt lat="40.799564" lon="-110.360157"><ele>3558.5</ele></trkpt>
      <trkpt lat="40.799831" lon="-110.360267"><ele>3555.5</ele></trkpt>
      <trkpt lat="40.800114" lon="-110.360342"><ele>3550.5</ele></trkpt>
      <trkpt lat="40.800306" lon="-110.360468"><ele>3545.2</ele></trkpt>
      <trkpt lat="40.800589" lon="-110.360660"><ele>3535.8</ele></trkpt>
      <trkpt lat="40.801040" lon="-110.360827"><ele>3524.8</ele></trkpt>
      <trkpt lat="40.801268" lon="-110.360937"><ele>3523.8</ele></trkpt>
      <trkpt lat="40.801702" lon="-110.361206"><ele>3516.8</ele></trkpt>
      <trkpt lat="40.801997" lon="-110.361255"><ele>3514.2</ele></trkpt>
      <trkpt lat="40.802265" lon="-110.361323"><ele>3511.8</ele></trkpt>
      <trkpt lat="40.802368" lon="-110.361339"><ele>3510.8</ele></trkpt>
      <trkpt lat="40.802823" lon="-110.361690"><ele>3504.8</ele></trkpt>
      <trkpt lat="40.802975" lon="-110.361746"><ele>3504.2</ele></trkpt>
      <trkpt lat="40.803385" lon="-110.361965"><ele>3502.2</ele></trkpt>
      <trkpt lat="40.803666" lon="-110.362029"><ele>3502.5</ele></trkpt>
      <trkpt lat="40.804254" lon="-110.362343"><ele>3500.2</ele></trkpt>
      <trkpt lat="40.804405" lon="-110.362452"><ele>3499.5</ele></trkpt>
      <trkpt lat="40.804545" lon="-110.362491"><ele>3499.2</ele></trkpt>
      <trkpt lat="40.804763" lon="-110.362603"><ele>3498.8</ele></trkpt>
      <trkpt lat="40.804982" lon="-110.362641"><ele>3498.8</ele></trkpt>
      <trkpt lat="40.805567" lon="-110.362892"><ele>3499.0</ele></trkpt>
      <trkpt lat="40.805804" lon="-110.363156"><ele>3496.5</ele></trkpt>
      <trkpt lat="40.806023" lon="-110.363363"><ele>3494.8</ele></trkpt>
      <trkpt lat="40.806239" lon="-110.363573"><ele>3493.5</ele></trkpt>
      <trkpt lat="40.806699" lon="-110.363965"><ele>3493.0</ele></trkpt>
      <trkpt lat="40.806974" lon="-110.364217"><ele>3489.2</ele></trkpt>
      <trkpt lat="40.807330" lon="-110.364470"><ele>3485.8</ele></trkpt>
      <trkpt lat="40.807599" lon="-110.364830"><ele>3482.5</ele></trkpt>
      <trkpt lat="40.808085" lon="-110.365093"><ele>3480.2</ele></trkpt>
      <trkpt lat="40.808616" lon="-110.365511"><ele>3476.2</ele></trkpt>
      <trkpt lat="40.808643" lon="-110.365632"><ele>3474.8</ele></trkpt>
      <trkpt lat="40.808732" lon="-110.365659"><ele>3474.5</ele></trkpt>
      <trkpt lat="40.808889" lon="-110.365691"><ele>3473.8</ele></trkpt>
      <trkpt lat="40.809030" lon="-110.365756"><ele>3472.5</ele></trkpt>
      <trkpt lat="40.809191" lon="-110.366168"><ele>3467.0</ele></trkpt>
      <trkpt lat="40.809317" lon="-110.366448"><ele>3464.5</ele></trkpt>
      <trkpt lat="40.809372" lon="-110.366597"><ele>3462.8</ele></trkpt>
      <trkpt lat="40.809434" lon="-110.366946"><ele>3458.5</ele></trkpt>
      <trkpt lat="40.809426" lon="-110.367054"><ele>3457.0</ele></trkpt>
      <trkpt lat="40.809642" lon="-110.367467"><ele>3452.0</ele></trkpt>
      <trkpt lat="40.809736" lon="-110.367674"><ele>3449.2</ele></trkpt>
      <trkpt lat="40.809839" lon="-110.367888"><ele>3446.8</ele></trkpt>
      <trkpt lat="40.810119" lon="-110.368420"><ele>3439.8</ele></trkpt>
      <trkpt lat="40.810371" lon="-110.368737"><ele>3435.5</ele></trkpt>
      <trkpt lat="40.810461" lon="-110.368913"><ele>3433.2</ele></trkpt>
      <trkpt lat="40.810725" lon="-110.369443"><ele>3427.0</ele></trkpt>
      <trkpt lat="40.811006" lon="-110.369864"><ele>3424.5</ele></trkpt>
      <trkpt lat="40.811158" lon="-110.370053"><ele>3423.5</ele></trkpt>
      <trkpt lat="40.811431" lon="-110.370645"><ele>3416.5</ele></trkpt>
      <trkpt lat="40.811897" lon="-110.371365"><ele>3409.5</ele></trkpt>
      <trkpt lat="40.812345" lon="-110.371967"><ele>3399.0</ele></trkpt>
      <trkpt lat="40.812518" lon="-110.372119"><ele>3395.2</ele></trkpt>
      <trkpt lat="40.812638" lon="-110.372265"><ele>3393.2</ele></trkpt>
      <trkpt lat="40.812707" lon="-110.372407"><ele>3391.0</ele></trkpt>
      <trkpt lat="40.812870" lon="-110.372537"><ele>3389.2</ele></trkpt>
      <trkpt lat="40.813074" lon="-110.372570"><ele>3389.0</ele></trkpt>
      <trkpt lat="40.813186" lon="-110.372698"><ele>3387.0</ele></trkpt>
      <trkpt lat="40.813272" lon="-110.373030"><ele>3381.0</ele></trkpt>
      <trkpt lat="40.813542" lon="-110.373188"><ele>3377.8</ele></trkpt>
      <trkpt lat="40.813707" lon="-110.373366"><ele>3374.5</ele></trkpt>
      <trkpt lat="40.813924" lon="-110.373622"><ele>3372.2</ele></trkpt>
      <trkpt lat="40.814200" lon="-110.373953"><ele>3368.2</ele></trkpt>
      <trkpt lat="40.814585" lon="-110.374566"><ele>3364.5</ele></trkpt>
      <trkpt lat="40.814784" lon="-110.374845"><ele>3363.5</ele></trkpt>
      <trkpt lat="40.814963" lon="-110.374935"><ele>3363.0</ele></trkpt>
      <trkpt lat="40.815166" lon="-110.375019"><ele>3362.2</ele></trkpt>
      <trkpt lat="40.815360" lon="-110.375283"><ele>3361.2</ele></trkpt>
      <trkpt lat="40.815910" lon="-110.375813"><ele>3357.0</ele></trkpt>
      <trkpt lat="40.816388" lon="-110.376222"><ele>3355.8</ele></trkpt>
      <trkpt lat="40.816823" lon="-110.376379"><ele>3355.0</ele></trkpt>
      <trkpt lat="40.816940" lon="-110.376446"><ele>3354.8</ele></trkpt>
      <trkpt lat="40.817124" lon="-110.376489"><ele>3354.8</ele></trkpt>
      <trkpt lat="40.817333" lon="-110.376600"><ele>3353.8</ele></trkpt>
      <trkpt lat="40.817650" lon="-110.376886"><ele>3350.5</ele></trkpt>
      <trkpt lat="40.818059" lon="-110.377136"><ele>3349.2</ele></trkpt>
      <trkpt lat="40.818265" lon="-110.377282"><ele>3348.5</ele></trkpt>
      <trkpt lat="40.818565" lon="-110.377438"><ele>3347.0</ele></trkpt>
      <trkpt lat="40.818792" lon="-110.377448"><ele>3346.8</ele></trkpt>
      <trkpt lat="40.819012" lon="-110.377446"><ele>3346.2</ele></trkpt>
      <trkpt lat="40.819120" lon="-110.377544"><ele>3345.2</ele></trkpt>
      <trkpt lat="40.819314" lon="-110.377525"><ele>3343.8</ele></trkpt>
      <trkpt lat="40.819817" lon="-110.377729"><ele>3336.0</ele></trkpt>
      <trkpt lat="40.819988" lon="-110.377822"><ele>3333.8</ele></trkpt>
      <trkpt lat="40.820153" lon="-110.377815"><ele>3332.5</ele></trkpt>
      <trkpt lat="40.820357" lon="-110.377834"><ele>3331.0</ele></trkpt>
      <trkpt lat="40.820529" lon="-110.377833"><ele>3329.8</ele></trkpt>
      <trkpt lat="40.820758" lon="-110.377956"><ele>3327.8</ele></trkpt>
      <trkpt lat="40.821051" lon="-110.377968"><ele>3325.8</ele></trkpt>
      <trkpt lat="40.821217" lon="-110.377998"><ele>3324.8</ele></trkpt>
      <trkpt lat="40.821590" lon="-110.378014"><ele>3322.2</ele></trkpt>
      <trkpt lat="40.821739" lon="-110.378063"><ele>3321.8</ele></trkpt>
      <trkpt lat="40.821962" lon="-110.378209"><ele>3321.5</ele></trkpt>
      <trkpt lat="40.822340" lon="-110.378336"><ele>3321.5</ele></trkpt>
      <trkpt lat="40.822711" lon="-110.378623"><ele>3321.0</ele></trkpt>
      <trkpt lat="40.822965" lon="-110.378810"><ele>3320.5</ele></trkpt>
      <trkpt lat="40.823340" lon="-110.378981"><ele>3320.0</ele></trkpt>
      <trkpt lat="40.823537" lon="-110.379100"><ele>3318.2</ele></trkpt>
      <trkpt lat="40.823755" lon="-110.379127"><ele>3317.0</ele></trkpt>
      <trkpt lat="40.824111" lon="-110.379299"><ele>3314.2</ele></trkpt>
      <trkpt lat="40.824574" lon="-110.379498"><ele>3310.2</ele></trkpt>
      <trkpt lat="40.824996" lon="-110.379400"><ele>3308.2</ele></trkpt>
      <trkpt lat="40.825677" lon="-110.378938"><ele>3305.8</ele></trkpt>
      <trkpt lat="40.826040" lon="-110.378714"><ele>3302.5</ele></trkpt>
      <trkpt lat="40.825942" lon="-110.378318"><ele>3303.5</ele></trkpt>
      <trkpt lat="40.826387" lon="-110.377953"><ele>3296.8</ele></trkpt>
      <trkpt lat="40.826678" lon="-110.377486"><ele>3291.8</ele></trkpt>
    </trkseg>
    <!-- Sun: down to the Henrys Fork Lake area (2.0 mi, 224 ft up) -->
    <trkseg>
      <trkpt lat="40.826678" lon="-110.377486"><ele>3291.8</ele></trkpt>
      <trkpt lat="40.826238" lon="-110.378088"><ele>3299.0</ele></trkpt>
      <trkpt lat="40.825947" lon="-110.378480"><ele>3303.5</ele></trkpt>
      <trkpt lat="40.825989" lon="-110.378790"><ele>3303.2</ele></trkpt>
      <trkpt lat="40.825334" lon="-110.379233"><ele>3307.2</ele></trkpt>
      <trkpt lat="40.824817" lon="-110.379454"><ele>3309.2</ele></trkpt>
      <trkpt lat="40.824495" lon="-110.379555"><ele>3310.5</ele></trkpt>
      <trkpt lat="40.823475" lon="-110.379765"><ele>3311.5</ele></trkpt>
      <trkpt lat="40.822498" lon="-110.379697"><ele>3310.2</ele></trkpt>
      <trkpt lat="40.821695" lon="-110.379434"><ele>3309.5</ele></trkpt>
      <trkpt lat="40.820258" lon="-110.379312"><ele>3313.5</ele></trkpt>
      <trkpt lat="40.819127" lon="-110.379123"><ele>3316.8</ele></trkpt>
      <trkpt lat="40.818074" lon="-110.378724"><ele>3325.0</ele></trkpt>
      <trkpt lat="40.817398" lon="-110.378426"><ele>3328.8</ele></trkpt>
      <trkpt lat="40.816222" lon="-110.378102"><ele>3333.8</ele></trkpt>
      <trkpt lat="40.815629" lon="-110.378873"><ele>3329.8</ele></trkpt>
      <trkpt lat="40.815557" lon="-110.380312"><ele>3328.2</ele></trkpt>
      <trkpt lat="40.815151" lon="-110.381758"><ele>3332.0</ele></trkpt>
      <trkpt lat="40.815402" lon="-110.383060"><ele>3329.5</ele></trkpt>
      <trkpt lat="40.814931" lon="-110.384000"><ele>3327.2</ele></trkpt>
      <trkpt lat="40.814998" lon="-110.384282"><ele>3326.5</ele></trkpt>
      <trkpt lat="40.814333" lon="-110.384810"><ele>3326.5</ele></trkpt>
      <trkpt lat="40.813898" lon="-110.384773"><ele>3328.0</ele></trkpt>
      <trkpt lat="40.813510" lon="-110.385294"><ele>3330.0</ele></trkpt>
      <trkpt lat="40.813572" lon="-110.386151"><ele>3332.0</ele></trkpt>
      <trkpt lat="40.814158" lon="-110.386953"><ele>3337.0</ele></trkpt>
      <trkpt lat="40.814349" lon="-110.387288"><ele>3342.8</ele></trkpt>
      <trkpt lat="40.814660" lon="-110.388005"><ele>3350.2</ele></trkpt>
      <trkpt lat="40.815166" lon="-110.389445"><ele>3350.0</ele></trkpt>
      <trkpt lat="40.815821" lon="-110.390087"><ele>3347.8</ele></trkpt>
      <trkpt lat="40.816645" lon="-110.390513"><ele>3330.0</ele></trkpt>
      <trkpt lat="40.817110" lon="-110.390810"><ele>3320.2</ele></trkpt>
      <trkpt lat="40.817668" lon="-110.391365"><ele>3317.2</ele></trkpt>
      <trkpt lat="40.819000" lon="-110.392127"><ele>3314.8</ele></trkpt>
      <trkpt lat="40.819781" lon="-110.392852"><ele>3315.8</ele></trkpt>
      <trkpt lat="40.820556" lon="-110.392200"><ele>3309.2</ele></trkpt>
    </trkseg>
    <!-- Mon: out, home by lunch (9.6 mi, 376 ft up) -->
    <trkseg>
      <trkpt lat="40.820556" lon="-110.392200"><ele>3309.2</ele></trkpt>
      <trkpt lat="40.819781" lon="-110.392852"><ele>3315.8</ele></trkpt>
      <trkpt lat="40.819000" lon="-110.392127"><ele>3314.8</ele></trkpt>
      <trkpt lat="40.817668" lon="-110.391365"><ele>3317.2</ele></trkpt>
      <trkpt lat="40.817110" lon="-110.390810"><ele>3320.2</ele></trkpt>
      <trkpt lat="40.816645" lon="-110.390513"><ele>3330.0</ele></trkpt>
      <trkpt lat="40.815821" lon="-110.390087"><ele>3347.8</ele></trkpt>
      <trkpt lat="40.815166" lon="-110.389445"><ele>3350.0</ele></trkpt>
      <trkpt lat="40.814660" lon="-110.388005"><ele>3350.2</ele></trkpt>
      <trkpt lat="40.814349" lon="-110.387288"><ele>3342.8</ele></trkpt>
      <trkpt lat="40.814158" lon="-110.386953"><ele>3337.0</ele></trkpt>
      <trkpt lat="40.813572" lon="-110.386151"><ele>3332.0</ele></trkpt>
      <trkpt lat="40.813510" lon="-110.385294"><ele>3330.0</ele></trkpt>
      <trkpt lat="40.813898" lon="-110.384773"><ele>3328.0</ele></trkpt>
      <trkpt lat="40.814333" lon="-110.384810"><ele>3326.5</ele></trkpt>
      <trkpt lat="40.814998" lon="-110.384282"><ele>3326.5</ele></trkpt>
      <trkpt lat="40.814931" lon="-110.384000"><ele>3327.2</ele></trkpt>
      <trkpt lat="40.815402" lon="-110.383060"><ele>3329.5</ele></trkpt>
      <trkpt lat="40.815151" lon="-110.381758"><ele>3332.0</ele></trkpt>
      <trkpt lat="40.815557" lon="-110.380312"><ele>3328.2</ele></trkpt>
      <trkpt lat="40.815629" lon="-110.378873"><ele>3329.8</ele></trkpt>
      <trkpt lat="40.816222" lon="-110.378102"><ele>3333.8</ele></trkpt>
      <trkpt lat="40.817398" lon="-110.378426"><ele>3328.8</ele></trkpt>
      <trkpt lat="40.818074" lon="-110.378724"><ele>3325.0</ele></trkpt>
      <trkpt lat="40.819127" lon="-110.379123"><ele>3316.8</ele></trkpt>
      <trkpt lat="40.820258" lon="-110.379312"><ele>3313.5</ele></trkpt>
      <trkpt lat="40.821695" lon="-110.379434"><ele>3309.5</ele></trkpt>
      <trkpt lat="40.822498" lon="-110.379697"><ele>3310.2</ele></trkpt>
      <trkpt lat="40.823475" lon="-110.379765"><ele>3311.5</ele></trkpt>
      <trkpt lat="40.824495" lon="-110.379555"><ele>3310.5</ele></trkpt>
      <trkpt lat="40.824828" lon="-110.379643"><ele>3308.5</ele></trkpt>
      <trkpt lat="40.825085" lon="-110.379858"><ele>3307.0</ele></trkpt>
      <trkpt lat="40.825292" lon="-110.379920"><ele>3306.0</ele></trkpt>
      <trkpt lat="40.825752" lon="-110.380058"><ele>3304.0</ele></trkpt>
      <trkpt lat="40.825961" lon="-110.380042"><ele>3303.0</ele></trkpt>
      <trkpt lat="40.826210" lon="-110.380087"><ele>3301.8</ele></trkpt>
      <trkpt lat="40.826899" lon="-110.380217"><ele>3297.0</ele></trkpt>
      <trkpt lat="40.827318" lon="-110.380219"><ele>3293.8</ele></trkpt>
      <trkpt lat="40.827531" lon="-110.380186"><ele>3292.2</ele></trkpt>
      <trkpt lat="40.827720" lon="-110.380164"><ele>3291.5</ele></trkpt>
      <trkpt lat="40.828023" lon="-110.380222"><ele>3289.8</ele></trkpt>
      <trkpt lat="40.828275" lon="-110.380165"><ele>3288.8</ele></trkpt>
      <trkpt lat="40.828442" lon="-110.380236"><ele>3287.5</ele></trkpt>
      <trkpt lat="40.828921" lon="-110.380271"><ele>3283.2</ele></trkpt>
      <trkpt lat="40.829162" lon="-110.380344"><ele>3281.2</ele></trkpt>
      <trkpt lat="40.829615" lon="-110.380439"><ele>3279.5</ele></trkpt>
      <trkpt lat="40.830413" lon="-110.380534"><ele>3275.8</ele></trkpt>
      <trkpt lat="40.830619" lon="-110.380465"><ele>3275.0</ele></trkpt>
      <trkpt lat="40.831041" lon="-110.380655"><ele>3272.8</ele></trkpt>
      <trkpt lat="40.831368" lon="-110.380756"><ele>3272.2</ele></trkpt>
      <trkpt lat="40.831627" lon="-110.380660"><ele>3272.5</ele></trkpt>
      <trkpt lat="40.831913" lon="-110.380621"><ele>3271.5</ele></trkpt>
      <trkpt lat="40.832122" lon="-110.380671"><ele>3270.5</ele></trkpt>
      <trkpt lat="40.832328" lon="-110.380796"><ele>3268.8</ele></trkpt>
      <trkpt lat="40.832599" lon="-110.380852"><ele>3267.2</ele></trkpt>
      <trkpt lat="40.832749" lon="-110.380841"><ele>3266.8</ele></trkpt>
      <trkpt lat="40.833606" lon="-110.380853"><ele>3262.0</ele></trkpt>
      <trkpt lat="40.833903" lon="-110.380866"><ele>3260.2</ele></trkpt>
      <trkpt lat="40.834077" lon="-110.380892"><ele>3259.0</ele></trkpt>
      <trkpt lat="40.834370" lon="-110.380994"><ele>3257.5</ele></trkpt>
      <trkpt lat="40.834866" lon="-110.381102"><ele>3257.0</ele></trkpt>
      <trkpt lat="40.835190" lon="-110.381345"><ele>3255.0</ele></trkpt>
      <trkpt lat="40.835449" lon="-110.381423"><ele>3254.2</ele></trkpt>
      <trkpt lat="40.835577" lon="-110.381352"><ele>3254.5</ele></trkpt>
      <trkpt lat="40.835678" lon="-110.381400"><ele>3254.2</ele></trkpt>
      <trkpt lat="40.835792" lon="-110.381356"><ele>3254.5</ele></trkpt>
      <trkpt lat="40.835997" lon="-110.381259"><ele>3254.8</ele></trkpt>
      <trkpt lat="40.836206" lon="-110.381105"><ele>3255.2</ele></trkpt>
      <trkpt lat="40.836459" lon="-110.381070"><ele>3255.2</ele></trkpt>
      <trkpt lat="40.836693" lon="-110.381091"><ele>3255.0</ele></trkpt>
      <trkpt lat="40.837470" lon="-110.381156"><ele>3256.2</ele></trkpt>
      <trkpt lat="40.837825" lon="-110.381083"><ele>3257.0</ele></trkpt>
      <trkpt lat="40.838364" lon="-110.380986"><ele>3257.5</ele></trkpt>
      <trkpt lat="40.838951" lon="-110.381138"><ele>3254.8</ele></trkpt>
      <trkpt lat="40.839605" lon="-110.381242"><ele>3252.0</ele></trkpt>
      <trkpt lat="40.840248" lon="-110.381570"><ele>3249.0</ele></trkpt>
      <trkpt lat="40.840447" lon="-110.381639"><ele>3248.5</ele></trkpt>
      <trkpt lat="40.840832" lon="-110.381691"><ele>3247.8</ele></trkpt>
      <trkpt lat="40.841078" lon="-110.381588"><ele>3247.2</ele></trkpt>
      <trkpt lat="40.841846" lon="-110.381486"><ele>3245.5</ele></trkpt>
      <trkpt lat="40.842622" lon="-110.381476"><ele>3244.0</ele></trkpt>
      <trkpt lat="40.842924" lon="-110.381568"><ele>3242.2</ele></trkpt>
      <trkpt lat="40.843234" lon="-110.381761"><ele>3240.2</ele></trkpt>
      <trkpt lat="40.843558" lon="-110.382086"><ele>3238.2</ele></trkpt>
      <trkpt lat="40.843937" lon="-110.382455"><ele>3235.8</ele></trkpt>
      <trkpt lat="40.844243" lon="-110.382699"><ele>3233.8</ele></trkpt>
      <trkpt lat="40.844575" lon="-110.382783"><ele>3232.8</ele></trkpt>
      <trkpt lat="40.844890" lon="-110.382909"><ele>3231.5</ele></trkpt>
      <trkpt lat="40.845095" lon="-110.382995"><ele>3230.8</ele></trkpt>
      <trkpt lat="40.845280" lon="-110.383068"><ele>3229.8</ele></trkpt>
      <trkpt lat="40.845332" lon="-110.383220"><ele>3228.0</ele></trkpt>
      <trkpt lat="40.845497" lon="-110.383381"><ele>3225.2</ele></trkpt>
      <trkpt lat="40.845762" lon="-110.383695"><ele>3219.5</ele></trkpt>
      <trkpt lat="40.846051" lon="-110.383724"><ele>3218.0</ele></trkpt>
      <trkpt lat="40.846243" lon="-110.383913"><ele>3214.8</ele></trkpt>
      <trkpt lat="40.846471" lon="-110.384118"><ele>3210.5</ele></trkpt>
      <trkpt lat="40.846790" lon="-110.384354"><ele>3205.2</ele></trkpt>
      <trkpt lat="40.846985" lon="-110.384476"><ele>3202.5</ele></trkpt>
      <trkpt lat="40.847395" lon="-110.384573"><ele>3199.0</ele></trkpt>
      <trkpt lat="40.847636" lon="-110.384677"><ele>3195.5</ele></trkpt>
      <trkpt lat="40.847738" lon="-110.384813"><ele>3192.0</ele></trkpt>
      <trkpt lat="40.848022" lon="-110.384889"><ele>3188.8</ele></trkpt>
      <trkpt lat="40.848284" lon="-110.384964"><ele>3185.8</ele></trkpt>
      <trkpt lat="40.848587" lon="-110.384918"><ele>3185.8</ele></trkpt>
      <trkpt lat="40.848814" lon="-110.384769"><ele>3187.5</ele></trkpt>
      <trkpt lat="40.848974" lon="-110.384702"><ele>3188.2</ele></trkpt>
      <trkpt lat="40.849125" lon="-110.384750"><ele>3187.2</ele></trkpt>
      <trkpt lat="40.849332" lon="-110.384877"><ele>3184.2</ele></trkpt>
      <trkpt lat="40.849741" lon="-110.384853"><ele>3182.8</ele></trkpt>
      <trkpt lat="40.849941" lon="-110.384896"><ele>3181.0</ele></trkpt>
      <trkpt lat="40.850346" lon="-110.384900"><ele>3178.2</ele></trkpt>
      <trkpt lat="40.850471" lon="-110.384819"><ele>3178.8</ele></trkpt>
      <trkpt lat="40.850719" lon="-110.384805"><ele>3177.2</ele></trkpt>
      <trkpt lat="40.851082" lon="-110.384761"><ele>3176.0</ele></trkpt>
      <trkpt lat="40.851405" lon="-110.384702"><ele>3175.0</ele></trkpt>
      <trkpt lat="40.851737" lon="-110.384533"><ele>3174.2</ele></trkpt>
      <trkpt lat="40.852096" lon="-110.384288"><ele>3172.2</ele></trkpt>
      <trkpt lat="40.852646" lon="-110.383838"><ele>3170.8</ele></trkpt>
      <trkpt lat="40.853132" lon="-110.383555"><ele>3168.8</ele></trkpt>
      <trkpt lat="40.853290" lon="-110.383560"><ele>3167.2</ele></trkpt>
      <trkpt lat="40.853422" lon="-110.383831"><ele>3167.0</ele></trkpt>
      <trkpt lat="40.853626" lon="-110.383827"><ele>3167.2</ele></trkpt>
      <trkpt lat="40.853894" lon="-110.383645"><ele>3167.2</ele></trkpt>
      <trkpt lat="40.854243" lon="-110.383078"><ele>3165.8</ele></trkpt>
      <trkpt lat="40.854407" lon="-110.382868"><ele>3165.5</ele></trkpt>
      <trkpt lat="40.854545" lon="-110.382613"><ele>3165.5</ele></trkpt>
      <trkpt lat="40.855266" lon="-110.382269"><ele>3165.0</ele></trkpt>
      <trkpt lat="40.855955" lon="-110.381740"><ele>3162.8</ele></trkpt>
      <trkpt lat="40.856276" lon="-110.381299"><ele>3159.0</ele></trkpt>
      <trkpt lat="40.856550" lon="-110.380785"><ele>3155.5</ele></trkpt>
      <trkpt lat="40.856912" lon="-110.380726"><ele>3151.2</ele></trkpt>
      <trkpt lat="40.857200" lon="-110.380653"><ele>3147.8</ele></trkpt>
      <trkpt lat="40.857442" lon="-110.380822"><ele>3146.5</ele></trkpt>
      <trkpt lat="40.857836" lon="-110.381189"><ele>3141.8</ele></trkpt>
      <trkpt lat="40.858443" lon="-110.381401"><ele>3134.0</ele></trkpt>
      <trkpt lat="40.858779" lon="-110.381741"><ele>3131.2</ele></trkpt>
      <trkpt lat="40.859057" lon="-110.381671"><ele>3128.8</ele></trkpt>
      <trkpt lat="40.859506" lon="-110.381829"><ele>3124.8</ele></trkpt>
      <trkpt lat="40.859687" lon="-110.381988"><ele>3124.2</ele></trkpt>
      <trkpt lat="40.859957" lon="-110.382034"><ele>3122.8</ele></trkpt>
      <trkpt lat="40.860557" lon="-110.382303"><ele>3122.8</ele></trkpt>
      <trkpt lat="40.860811" lon="-110.381933"><ele>3117.2</ele></trkpt>
      <trkpt lat="40.861277" lon="-110.381964"><ele>3117.5</ele></trkpt>
      <trkpt lat="40.861781" lon="-110.381816"><ele>3115.5</ele></trkpt>
      <trkpt lat="40.861984" lon="-110.381642"><ele>3113.5</ele></trkpt>
      <trkpt lat="40.862187" lon="-110.381412"><ele>3112.2</ele></trkpt>
      <trkpt lat="40.862583" lon="-110.381363"><ele>3112.0</ele></trkpt>
      <trkpt lat="40.863000" lon="-110.380978"><ele>3107.8</ele></trkpt>
      <trkpt lat="40.863281" lon="-110.380877"><ele>3106.2</ele></trkpt>
      <trkpt lat="40.863592" lon="-110.380887"><ele>3107.0</ele></trkpt>
      <trkpt lat="40.863941" lon="-110.380916"><ele>3108.2</ele></trkpt>
      <trkpt lat="40.864175" lon="-110.380780"><ele>3107.2</ele></trkpt>
      <trkpt lat="40.864300" lon="-110.380436"><ele>3102.8</ele></trkpt>
      <trkpt lat="40.864618" lon="-110.380294"><ele>3101.2</ele></trkpt>
      <trkpt lat="40.865000" lon="-110.379943"><ele>3097.5</ele></trkpt>
      <trkpt lat="40.865214" lon="-110.379805"><ele>3097.0</ele></trkpt>
      <trkpt lat="40.865508" lon="-110.379895"><ele>3098.8</ele></trkpt>
      <trkpt lat="40.865883" lon="-110.380017"><ele>3101.0</ele></trkpt>
      <trkpt lat="40.866217" lon="-110.379720"><ele>3097.0</ele></trkpt>
      <trkpt lat="40.866535" lon="-110.379713"><ele>3095.8</ele></trkpt>
      <trkpt lat="40.866860" lon="-110.379562"><ele>3093.2</ele></trkpt>
      <trkpt lat="40.867223" lon="-110.379327"><ele>3089.5</ele></trkpt>
      <trkpt lat="40.867546" lon="-110.379271"><ele>3088.2</ele></trkpt>
      <trkpt lat="40.867833" lon="-110.379353"><ele>3090.0</ele></trkpt>
      <trkpt lat="40.868322" lon="-110.379246"><ele>3089.2</ele></trkpt>
      <trkpt lat="40.868701" lon="-110.378846"><ele>3086.0</ele></trkpt>
      <trkpt lat="40.868977" lon="-110.378820"><ele>3086.2</ele></trkpt>
      <trkpt lat="40.869264" lon="-110.378687"><ele>3085.0</ele></trkpt>
      <trkpt lat="40.869537" lon="-110.378594"><ele>3083.8</ele></trkpt>
      <trkpt lat="40.869857" lon="-110.378415"><ele>3081.8</ele></trkpt>
      <trkpt lat="40.870155" lon="-110.378393"><ele>3081.0</ele></trkpt>
      <trkpt lat="40.870350" lon="-110.378494"><ele>3081.5</ele></trkpt>
      <trkpt lat="40.870790" lon="-110.378271"><ele>3078.5</ele></trkpt>
      <trkpt lat="40.871224" lon="-110.378011"><ele>3075.8</ele></trkpt>
      <trkpt lat="40.871656" lon="-110.377986"><ele>3074.5</ele></trkpt>
      <trkpt lat="40.872179" lon="-110.377806"><ele>3074.5</ele></trkpt>
      <trkpt lat="40.873161" lon="-110.377118"><ele>3071.0</ele></trkpt>
      <trkpt lat="40.873326" lon="-110.377180"><ele>3071.2</ele></trkpt>
      <trkpt lat="40.873715" lon="-110.377163"><ele>3070.2</ele></trkpt>
      <trkpt lat="40.874001" lon="-110.377210"><ele>3069.8</ele></trkpt>
      <trkpt lat="40.874191" lon="-110.377171"><ele>3069.0</ele></trkpt>
      <trkpt lat="40.874481" lon="-110.377255"><ele>3068.0</ele></trkpt>
      <trkpt lat="40.874736" lon="-110.377336"><ele>3067.5</ele></trkpt>
      <trkpt lat="40.874887" lon="-110.377460"><ele>3067.8</ele></trkpt>
      <trkpt lat="40.875210" lon="-110.377496"><ele>3068.0</ele></trkpt>
      <trkpt lat="40.875467" lon="-110.377620"><ele>3070.8</ele></trkpt>
      <trkpt lat="40.875860" lon="-110.377333"><ele>3067.5</ele></trkpt>
      <trkpt lat="40.876124" lon="-110.377223"><ele>3068.0</ele></trkpt>
      <trkpt lat="40.876486" lon="-110.376990"><ele>3067.2</ele></trkpt>
      <trkpt lat="40.876762" lon="-110.376665"><ele>3064.5</ele></trkpt>
      <trkpt lat="40.876975" lon="-110.376515"><ele>3064.8</ele></trkpt>
      <trkpt lat="40.877199" lon="-110.375774"><ele>3059.0</ele></trkpt>
      <trkpt lat="40.877384" lon="-110.375476"><ele>3057.5</ele></trkpt>
      <trkpt lat="40.877648" lon="-110.375164"><ele>3055.8</ele></trkpt>
      <trkpt lat="40.878208" lon="-110.374654"><ele>3053.5</ele></trkpt>
      <trkpt lat="40.878592" lon="-110.374193"><ele>3050.5</ele></trkpt>
      <trkpt lat="40.878998" lon="-110.373823"><ele>3049.8</ele></trkpt>
      <trkpt lat="40.879443" lon="-110.373535"><ele>3051.0</ele></trkpt>
      <trkpt lat="40.879789" lon="-110.372794"><ele>3048.0</ele></trkpt>
      <trkpt lat="40.880043" lon="-110.372157"><ele>3046.2</ele></trkpt>
      <trkpt lat="40.880312" lon="-110.371658"><ele>3045.2</ele></trkpt>
      <trkpt lat="40.880881" lon="-110.371835"><ele>3051.5</ele></trkpt>
      <trkpt lat="40.881678" lon="-110.372416"><ele>3080.5</ele></trkpt>
      <trkpt lat="40.882557" lon="-110.373227"><ele>3086.2</ele></trkpt>
      <trkpt lat="40.883318" lon="-110.373214"><ele>3079.8</ele></trkpt>
      <trkpt lat="40.883666" lon="-110.372781"><ele>3073.8</ele></trkpt>
      <trkpt lat="40.883533" lon="-110.371768"><ele>3074.2</ele></trkpt>
      <trkpt lat="40.884325" lon="-110.369294"><ele>3073.5</ele></trkpt>
      <trkpt lat="40.884626" lon="-110.368665"><ele>3071.0</ele></trkpt>
      <trkpt lat="40.884963" lon="-110.368071"><ele>3070.0</ele></trkpt>
      <trkpt lat="40.885450" lon="-110.366910"><ele>3068.2</ele></trkpt>
      <trkpt lat="40.886155" lon="-110.365966"><ele>3070.0</ele></trkpt>
      <trkpt lat="40.886950" lon="-110.364936"><ele>3068.0</ele></trkpt>
      <trkpt lat="40.887161" lon="-110.363627"><ele>3060.5</ele></trkpt>
      <trkpt lat="40.887378" lon="-110.362367"><ele>3049.5</ele></trkpt>
      <trkpt lat="40.887320" lon="-110.361019"><ele>3029.8</ele></trkpt>
      <trkpt lat="40.887461" lon="-110.360417"><ele>3023.0</ele></trkpt>
      <trkpt lat="40.887400" lon="-110.360176"><ele>3019.0</ele></trkpt>
      <trkpt lat="40.887226" lon="-110.359985"><ele>3014.0</ele></trkpt>
      <trkpt lat="40.887127" lon="-110.359493"><ele>3008.5</ele></trkpt>
      <trkpt lat="40.887181" lon="-110.359293"><ele>3007.5</ele></trkpt>
      <trkpt lat="40.887525" lon="-110.358830"><ele>3007.5</ele></trkpt>
      <trkpt lat="40.887525" lon="-110.358474"><ele>3003.8</ele></trkpt>
      <trkpt lat="40.887663" lon="-110.358006"><ele>3000.5</ele></trkpt>
      <trkpt lat="40.887783" lon="-110.357934"><ele>3001.0</ele></trkpt>
      <trkpt lat="40.887906" lon="-110.357775"><ele>3000.5</ele></trkpt>
      <trkpt lat="40.888134" lon="-110.357565"><ele>3000.8</ele></trkpt>
      <trkpt lat="40.888451" lon="-110.357315"><ele>3000.2</ele></trkpt>
      <trkpt lat="40.888721" lon="-110.357023"><ele>2999.0</ele></trkpt>
      <trkpt lat="40.888969" lon="-110.356584"><ele>2998.2</ele></trkpt>
      <trkpt lat="40.889288" lon="-110.356006"><ele>2995.8</ele></trkpt>
      <trkpt lat="40.889361" lon="-110.355593"><ele>2992.8</ele></trkpt>
      <trkpt lat="40.889461" lon="-110.355435"><ele>2991.8</ele></trkpt>
      <trkpt lat="40.889682" lon="-110.355400"><ele>2991.2</ele></trkpt>
      <trkpt lat="40.889909" lon="-110.355212"><ele>2990.0</ele></trkpt>
      <trkpt lat="40.890288" lon="-110.354937"><ele>2985.0</ele></trkpt>
      <trkpt lat="40.890587" lon="-110.354837"><ele>2981.0</ele></trkpt>
      <trkpt lat="40.890869" lon="-110.354794"><ele>2978.0</ele></trkpt>
      <trkpt lat="40.891070" lon="-110.354820"><ele>2977.2</ele></trkpt>
      <trkpt lat="40.891700" lon="-110.354729"><ele>2974.2</ele></trkpt>
      <trkpt lat="40.892176" lon="-110.354763"><ele>2972.5</ele></trkpt>
      <trkpt lat="40.892496" lon="-110.354651"><ele>2971.0</ele></trkpt>
      <trkpt lat="40.892789" lon="-110.354600"><ele>2970.0</ele></trkpt>
      <trkpt lat="40.893491" lon="-110.354464"><ele>2966.5</ele></trkpt>
      <trkpt lat="40.894109" lon="-110.354485"><ele>2963.5</ele></trkpt>
      <trkpt lat="40.894200" lon="-110.354553"><ele>2964.2</ele></trkpt>
      <trkpt lat="40.894800" lon="-110.354331"><ele>2963.2</ele></trkpt>
      <trkpt lat="40.895209" lon="-110.354227"><ele>2963.8</ele></trkpt>
      <trkpt lat="40.895716" lon="-110.354221"><ele>2966.5</ele></trkpt>
      <trkpt lat="40.896224" lon="-110.354166"><ele>2966.5</ele></trkpt>
      <trkpt lat="40.896468" lon="-110.354167"><ele>2966.0</ele></trkpt>
      <trkpt lat="40.896644" lon="-110.354028"><ele>2964.5</ele></trkpt>
      <trkpt lat="40.896900" lon="-110.353799"><ele>2964.2</ele></trkpt>
      <trkpt lat="40.896970" lon="-110.353359"><ele>2960.0</ele></trkpt>
      <trkpt lat="40.897111" lon="-110.353081"><ele>2958.8</ele></trkpt>
      <trkpt lat="40.897347" lon="-110.352787"><ele>2958.0</ele></trkpt>
      <trkpt lat="40.897684" lon="-110.352289"><ele>2957.0</ele></trkpt>
      <trkpt lat="40.898198" lon="-110.351946"><ele>2957.8</ele></trkpt>
      <trkpt lat="40.898310" lon="-110.351550"><ele>2953.2</ele></trkpt>
      <trkpt lat="40.898880" lon="-110.350499"><ele>2949.8</ele></trkpt>
      <trkpt lat="40.899329" lon="-110.350112"><ele>2949.8</ele></trkpt>
      <trkpt lat="40.899625" lon="-110.349449"><ele>2946.5</ele></trkpt>
      <trkpt lat="40.900155" lon="-110.348685"><ele>2942.0</ele></trkpt>
      <trkpt lat="40.900342" lon="-110.348488"><ele>2940.5</ele></trkpt>
      <trkpt lat="40.900429" lon="-110.348464"><ele>2940.2</ele></trkpt>
      <trkpt lat="40.900502" lon="-110.348637"><ele>2942.0</ele></trkpt>
      <trkpt lat="40.900749" lon="-110.348781"><ele>2944.0</ele></trkpt>
      <trkpt lat="40.901481" lon="-110.348455"><ele>2942.2</ele></trkpt>
      <trkpt lat="40.901888" lon="-110.348367"><ele>2943.0</ele></trkpt>
      <trkpt lat="40.902262" lon="-110.348154"><ele>2941.8</ele></trkpt>
      <trkpt lat="40.902443" lon="-110.347892"><ele>2939.2</ele></trkpt>
      <trkpt lat="40.902648" lon="-110.347464"><ele>2935.2</ele></trkpt>
      <trkpt lat="40.902828" lon="-110.347137"><ele>2933.5</ele></trkpt>
      <trkpt lat="40.903099" lon="-110.346882"><ele>2932.5</ele></trkpt>
      <trkpt lat="40.903320" lon="-110.346852"><ele>2933.2</ele></trkpt>
      <trkpt lat="40.903439" lon="-110.346556"><ele>2931.2</ele></trkpt>
      <trkpt lat="40.903645" lon="-110.346292"><ele>2929.2</ele></trkpt>
      <trkpt lat="40.903850" lon="-110.346280"><ele>2930.2</ele></trkpt>
      <trkpt lat="40.904018" lon="-110.346130"><ele>2929.5</ele></trkpt>
      <trkpt lat="40.904174" lon="-110.345777"><ele>2926.5</ele></trkpt>
      <trkpt lat="40.904309" lon="-110.345187"><ele>2923.8</ele></trkpt>
      <trkpt lat="40.904527" lon="-110.344717"><ele>2924.2</ele></trkpt>
      <trkpt lat="40.904721" lon="-110.344279"><ele>2924.0</ele></trkpt>
      <trkpt lat="40.904733" lon="-110.344089"><ele>2923.0</ele></trkpt>
      <trkpt lat="40.904838" lon="-110.343753"><ele>2922.5</ele></trkpt>
      <trkpt lat="40.905131" lon="-110.343038"><ele>2922.8</ele></trkpt>
      <trkpt lat="40.905391" lon="-110.342608"><ele>2925.0</ele></trkpt>
      <trkpt lat="40.905577" lon="-110.342251"><ele>2926.0</ele></trkpt>
      <trkpt lat="40.905687" lon="-110.341800"><ele>2925.0</ele></trkpt>
      <trkpt lat="40.905570" lon="-110.341098"><ele>2918.5</ele></trkpt>
      <trkpt lat="40.905637" lon="-110.340717"><ele>2917.8</ele></trkpt>
      <trkpt lat="40.905683" lon="-110.340399"><ele>2916.8</ele></trkpt>
      <trkpt lat="40.905732" lon="-110.339947"><ele>2915.2</ele></trkpt>
      <trkpt lat="40.905885" lon="-110.339041"><ele>2914.0</ele></trkpt>
      <trkpt lat="40.906001" lon="-110.338869"><ele>2915.8</ele></trkpt>
      <trkpt lat="40.906068" lon="-110.338446"><ele>2914.0</ele></trkpt>
      <trkpt lat="40.906342" lon="-110.337712"><ele>2914.8</ele></trkpt>
      <trkpt lat="40.906621" lon="-110.336955"><ele>2910.2</ele></trkpt>
      <trkpt lat="40.906682" lon="-110.336596"><ele>2905.2</ele></trkpt>
      <trkpt lat="40.906752" lon="-110.336395"><ele>2904.2</ele></trkpt>
      <trkpt lat="40.906851" lon="-110.336209"><ele>2904.2</ele></trkpt>
      <trkpt lat="40.906899" lon="-110.336044"><ele>2903.2</ele></trkpt>
      <trkpt lat="40.907395" lon="-110.335186"><ele>2903.0</ele></trkpt>
      <trkpt lat="40.907575" lon="-110.334846"><ele>2901.5</ele></trkpt>
      <trkpt lat="40.907694" lon="-110.334503"><ele>2899.8</ele></trkpt>
      <trkpt lat="40.907934" lon="-110.333758"><ele>2894.2</ele></trkpt>
      <trkpt lat="40.908161" lon="-110.333348"><ele>2891.2</ele></trkpt>
      <trkpt lat="40.908299" lon="-110.332974"><ele>2887.5</ele></trkpt>
      <trkpt lat="40.908531" lon="-110.332673"><ele>2886.2</ele></trkpt>
      <trkpt lat="40.908698" lon="-110.332470"><ele>2886.0</ele></trkpt>
      <trkpt lat="40.908812" lon="-110.332287"><ele>2885.8</ele></trkpt>
      <trkpt lat="40.908951" lon="-110.332183"><ele>2886.2</ele></trkpt>
      <trkpt lat="40.909030" lon="-110.331554"><ele>2880.2</ele></trkpt>
      <trkpt lat="40.909095" lon="-110.331301"><ele>2878.2</ele></trkpt>
    </trkseg>
  </trk>
</gpx>
