<?xml version="1.0" encoding="UTF-8"?>
<gpx version="1.1" creator="pathbeaters26" xmlns="http://www.topografix.com/GPX/1/1" xmlns:xsi="http://www.w3.org/2001/XMLSchema-instance" xsi:schemaLocation="http://www.topografix.com/GPX/1/1 http://www.topografix.com/GPX/1/1/gpx.xsd">
  <metadata><name>Boulder Chain Lakes up Little Boulder Creek (east side)</name></metadata>
  <wpt lat="44.084250" lon="-114.450350"><name>Little Boulder Creek TH (Livingston Mill access)</name><sym>Trailhead</sym></wpt>
  <wpt lat="44.079150" lon="-114.545830"><name>Frog Lake</name><sym>Waypoint</sym></wpt>
  <wpt lat="44.074100" lon="-114.559980"><name>Willow Lake</name><sym>Waypoint</sym></wpt>
  <wpt lat="44.069040" lon="-114.562160"><name>Hatchet Lake</name><sym>Waypoint</sym></wpt>
  <wpt lat="44.070580" lon="-114.583680"><name>Boulder Chain Lakes</name><sym>Waypoint</sym></wpt>
  <wpt lat="44.077630" lon="-114.588510"><name>Hourglass Lake</name><sym>Waypoint</sym></wpt>
  <wpt lat="44.077420" lon="-114.592220"><name>Hummock Lake</name><sym>Waypoint</sym></wpt>
  <wpt lat="44.073220" lon="-114.594630"><name>Scoop Lake</name><sym>Waypoint</sym></wpt>
  <wpt lat="44.074310" lon="-114.598390"><name>Headwall Lake</name><sym>Waypoint</sym></wpt>
  <wpt lat="44.070330" lon="-114.596660"><name>Windy Devil (saddle)</name><sym>Waypoint</sym></wpt>
  <wpt lat="44.074100" lon="-114.607030"><name>Lonesome Lake</name><sym>Waypoint</sym></wpt>
  <wpt lat="44.074100" lon="-114.559980"><name>Fri camp · Willow Lake</name><sym>Campground</sym></wpt>
  <wpt lat="44.077420" lon="-114.592220"><name>Sat camp · Hummock Lake</name><sym>Campground</sym></wpt>
  <wpt lat="44.074100" lon="-114.559980"><name>Sun camp · Willow Lake</name><sym>Campground</sym></wpt>
  <trk><name>Boulder Chain Lakes via Little Boulder Creek</name>
    <!-- Fri -->
    <trkseg>
      <trkpt lat="44.084251" lon="-114.450354"><ele>1904.2</ele></trkpt>
      <trkpt lat="44.084298" lon="-114.450374"><ele>1906.2</ele></trkpt>
      <trkpt lat="44.084542" lon="-114.450248"><ele>1910.2</ele></trkpt>
      <trkpt lat="44.084917" lon="-114.449994"><ele>1913.8</ele></trkpt>
      <trkpt lat="44.085299" lon="-114.449683"><ele>1918.0</ele></trkpt>
      <trkpt lat="44.085509" lon="-114.449464"><ele>1919.5</ele></trkpt>
      <trkpt lat="44.085737" lon="-114.449388"><ele>1923.5</ele></trkpt>
      <trkpt lat="44.085999" lon="-114.449392"><ele>1927.0</ele></trkpt>
      <trkpt lat="44.086221" lon="-114.449800"><ele>1932.2</ele></trkpt>
      <trkpt lat="44.086266" lon="-114.450136"><ele>1934.0</ele></trkpt>
      <trkpt lat="44.086209" lon="-114.450670"><ele>1934.5</ele></trkpt>
      <trkpt lat="44.086101" lon="-114.451109"><ele>1935.8</ele></trkpt>
      <trkpt lat="44.086150" lon="-114.451698"><ele>1936.5</ele></trkpt>
      <trkpt lat="44.086190" lon="-114.452183"><ele>1940.0</ele></trkpt>
      <trkpt lat="44.086008" lon="-114.452810"><ele>1942.0</ele></trkpt>
      <trkpt lat="44.085920" lon="-114.452924"><ele>1942.0</ele></trkpt>
      <trkpt lat="44.085985" lon="-114.453032"><ele>1943.2</ele></trkpt>
      <trkpt lat="44.086246" lon="-114.453197"><ele>1945.8</ele></trkpt>
      <trkpt lat="44.086448" lon="-114.453623"><ele>1950.2</ele></trkpt>
      <trkpt lat="44.086687" lon="-114.453964"><ele>1955.0</ele></trkpt>
      <trkpt lat="44.086739" lon="-114.454243"><ele>1959.5</ele></trkpt>
      <trkpt lat="44.086853" lon="-114.454489"><ele>1966.2</ele></trkpt>
      <trkpt lat="44.087028" lon="-114.454763"><ele>1975.5</ele></trkpt>
      <trkpt lat="44.087216" lon="-114.454766"><ele>1980.2</ele></trkpt>
      <trkpt lat="44.087386" lon="-114.454601"><ele>1980.2</ele></trkpt>
      <trkpt lat="44.087577" lon="-114.454404"><ele>1980.0</ele></trkpt>
      <trkpt lat="44.087800" lon="-114.454212"><ele>1981.2</ele></trkpt>
      <trkpt lat="44.088010" lon="-114.454138"><ele>1985.5</ele></trkpt>
      <trkpt lat="44.088600" lon="-114.454092"><ele>1998.5</ele></trkpt>
      <trkpt lat="44.088853" lon="-114.454133"><ele>2003.8</ele></trkpt>
      <trkpt lat="44.089611" lon="-114.453902"><ele>2010.8</ele></trkpt>
      <trkpt lat="44.089853" lon="-114.453965"><ele>2015.2</ele></trkpt>
      <trkpt lat="44.089926" lon="-114.454136"><ele>2020.0</ele></trkpt>
      <trkpt lat="44.089911" lon="-114.454468"><ele>2027.5</ele></trkpt>
      <trkpt lat="44.089872" lon="-114.454702"><ele>2032.5</ele></trkpt>
      <trkpt lat="44.089941" lon="-114.454922"><ele>2038.5</ele></trkpt>
      <trkpt lat="44.090054" lon="-114.455161"><ele>2042.2</ele></trkpt>
      <trkpt lat="44.090024" lon="-114.455463"><ele>2044.8</ele></trkpt>
      <trkpt lat="44.089923" lon="-114.455845"><ele>2047.8</ele></trkpt>
      <trkpt lat="44.089888" lon="-114.456315"><ele>2049.2</ele></trkpt>
      <trkpt lat="44.089648" lon="-114.457072"><ele>2053.2</ele></trkpt>
      <trkpt lat="44.089460" lon="-114.457727"><ele>2056.2</ele></trkpt>
      <trkpt lat="44.089468" lon="-114.457944"><ele>2059.2</ele></trkpt>
      <trkpt lat="44.089338" lon="-114.458199"><ele>2062.2</ele></trkpt>
      <trkpt lat="44.089194" lon="-114.458611"><ele>2066.2</ele></trkpt>
      <trkpt lat="44.089056" lon="-114.458824"><ele>2069.8</ele></trkpt>
      <trkpt lat="44.088837" lon="-114.459215"><ele>2075.8</ele></trkpt>
      <trkpt lat="44.088798" lon="-114.459445"><ele>2077.0</ele></trkpt>
      <trkpt lat="44.088653" lon="-114.459656"><ele>2079.2</ele></trkpt>
      <trkpt lat="44.088494" lon="-114.459981"><ele>2081.2</ele></trkpt>
      <trkpt lat="44.088353" lon="-114.460341"><ele>2086.2</ele></trkpt>
      <trkpt lat="44.088329" lon="-114.460754"><ele>2091.0</ele></trkpt>
      <trkpt lat="44.088173" lon="-114.460975"><ele>2095.5</ele></trkpt>
      <trkpt lat="44.087838" lon="-114.461558"><ele>2107.0</ele></trkpt>
      <trkpt lat="44.087739" lon="-114.462145"><ele>2110.5</ele></trkpt>
      <trkpt lat="44.087542" lon="-114.462729"><ele>2115.5</ele></trkpt>
      <trkpt lat="44.086919" lon="-114.463746"><ele>2124.8</ele></trkpt>
      <trkpt lat="44.086610" lon="-114.464159"><ele>2131.0</ele></trkpt>
      <trkpt lat="44.086376" lon="-114.464442"><ele>2134.0</ele></trkpt>
      <trkpt lat="44.086213" lon="-114.464897"><ele>2135.5</ele></trkpt>
      <trkpt lat="44.086174" lon="-114.465752"><ele>2135.0</ele></trkpt>
      <trkpt lat="44.086012" lon="-114.466285"><ele>2142.5</ele></trkpt>
      <trkpt lat="44.085950" lon="-114.466690"><ele>2146.2</ele></trkpt>
      <trkpt lat="44.085767" lon="-114.467043"><ele>2152.5</ele></trkpt>
      <trkpt lat="44.085759" lon="-114.467374"><ele>2153.8</ele></trkpt>
      <trkpt lat="44.085777" lon="-114.468180"><ele>2159.0</ele></trkpt>
      <trkpt lat="44.085870" lon="-114.468602"><ele>2161.0</ele></trkpt>
      <trkpt lat="44.086036" lon="-114.469267"><ele>2163.0</ele></trkpt>
      <trkpt lat="44.086047" lon="-114.469970"><ele>2166.0</ele></trkpt>
      <trkpt lat="44.086011" lon="-114.470555"><ele>2168.2</ele></trkpt>
      <trkpt lat="44.085850" lon="-114.471398"><ele>2173.8</ele></trkpt>
      <trkpt lat="44.085531" lon="-114.472330"><ele>2184.0</ele></trkpt>
      <trkpt lat="44.085404" lon="-114.473480"><ele>2197.2</ele></trkpt>
      <trkpt lat="44.085456" lon="-114.474204"><ele>2206.2</ele></trkpt>
      <trkpt lat="44.085645" lon="-114.474722"><ele>2207.2</ele></trkpt>
      <trkpt lat="44.085853" lon="-114.475087"><ele>2206.2</ele></trkpt>
      <trkpt lat="44.085864" lon="-114.475520"><ele>2210.8</ele></trkpt>
      <trkpt lat="44.085925" lon="-114.476105"><ele>2214.2</ele></trkpt>
      <trkpt lat="44.086045" lon="-114.476934"><ele>2218.5</ele></trkpt>
      <trkpt lat="44.086049" lon="-114.477797"><ele>2229.5</ele></trkpt>
      <trkpt lat="44.086093" lon="-114.478506"><ele>2236.5</ele></trkpt>
      <trkpt lat="44.086135" lon="-114.478726"><ele>2237.8</ele></trkpt>
      <trkpt lat="44.086271" lon="-114.478834"><ele>2235.8</ele></trkpt>
      <trkpt lat="44.086297" lon="-114.479208"><ele>2239.8</ele></trkpt>
      <trkpt lat="44.086276" lon="-114.479853"><ele>2249.0</ele></trkpt>
      <trkpt lat="44.086225" lon="-114.479879"><ele>2250.2</ele></trkpt>
      <trkpt lat="44.086155" lon="-114.479711"><ele>2249.5</ele></trkpt>
      <trkpt lat="44.086115" lon="-114.479507"><ele>2247.8</ele></trkpt>
      <trkpt lat="44.086075" lon="-114.479533"><ele>2248.8</ele></trkpt>
      <trkpt lat="44.086092" lon="-114.479914"><ele>2253.2</ele></trkpt>
      <trkpt lat="44.086279" lon="-114.480663"><ele>2257.0</ele></trkpt>
      <trkpt lat="44.086493" lon="-114.481679"><ele>2263.0</ele></trkpt>
      <trkpt lat="44.086484" lon="-114.483099"><ele>2273.2</ele></trkpt>
      <trkpt lat="44.086601" lon="-114.485241"><ele>2271.8</ele></trkpt>
      <trkpt lat="44.086814" lon="-114.486677"><ele>2269.0</ele></trkpt>
      <trkpt lat="44.087415" lon="-114.488319"><ele>2263.5</ele></trkpt>
      <trkpt lat="44.088143" lon="-114.490136"><ele>2267.0</ele></trkpt>
      <trkpt lat="44.088610" lon="-114.492206"><ele>2276.5</ele></trkpt>
      <trkpt lat="44.088487" lon="-114.493409"><ele>2279.0</ele></trkpt>
      <trkpt lat="44.087980" lon="-114.495120"><ele>2279.8</ele></trkpt>
      <trkpt lat="44.087360" lon="-114.497578"><ele>2290.0</ele></trkpt>
      <trkpt lat="44.087938" lon="-114.499251"><ele>2294.0</ele></trkpt>
      <trkpt lat="44.087463" lon="-114.501350"><ele>2301.8</ele></trkpt>
      <trkpt lat="44.085553" lon="-114.504277"><ele>2305.5</ele></trkpt>
      <trkpt lat="44.084279" lon="-114.506658"><ele>2318.2</ele></trkpt>
      <trkpt lat="44.083437" lon="-114.508194"><ele>2322.2</ele></trkpt>
      <trkpt lat="44.081944" lon="-114.509826"><ele>2336.0</ele></trkpt>
      <trkpt lat="44.081520" lon="-114.510365"><ele>2337.8</ele></trkpt>
      <trkpt lat="44.080830" lon="-114.511065"><ele>2342.8</ele></trkpt>
      <trkpt lat="44.080004" lon="-114.511996"><ele>2350.0</ele></trkpt>
      <trkpt lat="44.079254" lon="-114.513220"><ele>2353.2</ele></trkpt>
      <trkpt lat="44.078400" lon="-114.513914"><ele>2365.8</ele></trkpt>
      <trkpt lat="44.077484" lon="-114.514456"><ele>2379.2</ele></trkpt>
      <trkpt lat="44.076335" lon="-114.515390"><ele>2375.5</ele></trkpt>
      <trkpt lat="44.075555" lon="-114.515737"><ele>2379.2</ele></trkpt>
      <trkpt lat="44.075010" lon="-114.516165"><ele>2380.2</ele></trkpt>
      <trkpt lat="44.074535" lon="-114.516675"><ele>2378.8</ele></trkpt>
      <trkpt lat="44.074306" lon="-114.517103"><ele>2378.8</ele></trkpt>
      <trkpt lat="44.073871" lon="-114.517390"><ele>2383.5</ele></trkpt>
      <trkpt lat="44.073526" lon="-114.518009"><ele>2389.5</ele></trkpt>
      <trkpt lat="44.073373" lon="-114.518420"><ele>2391.0</ele></trkpt>
      <trkpt lat="44.072905" lon="-114.518894"><ele>2401.0</ele></trkpt>
      <trkpt lat="44.072682" lon="-114.519795"><ele>2408.5</ele></trkpt>
      <trkpt lat="44.072039" lon="-114.521788"><ele>2416.8</ele></trkpt>
      <trkpt lat="44.071649" lon="-114.521935"><ele>2418.8</ele></trkpt>
      <trkpt lat="44.070485" lon="-114.522252"><ele>2421.8</ele></trkpt>
      <trkpt lat="44.069688" lon="-114.523509"><ele>2423.2</ele></trkpt>
      <trkpt lat="44.069191" lon="-114.525163"><ele>2422.2</ele></trkpt>
      <trkpt lat="44.068768" lon="-114.526080"><ele>2425.5</ele></trkpt>
      <trkpt lat="44.068532" lon="-114.527711"><ele>2428.8</ele></trkpt>
      <trkpt lat="44.068419" lon="-114.528583"><ele>2434.8</ele></trkpt>
      <trkpt lat="44.067849" lon="-114.530938"><ele>2460.2</ele></trkpt>
      <trkpt lat="44.067271" lon="-114.532762"><ele>2479.0</ele></trkpt>
      <trkpt lat="44.067304" lon="-114.534381"><ele>2478.2</ele></trkpt>
      <trkpt lat="44.066368" lon="-114.537054"><ele>2490.5</ele></trkpt>
      <trkpt lat="44.066268" lon="-114.537489"><ele>2491.5</ele></trkpt>
      <trkpt lat="44.066115" lon="-114.537842"><ele>2491.8</ele></trkpt>
      <trkpt lat="44.065916" lon="-114.538142"><ele>2491.8</ele></trkpt>
      <trkpt lat="44.065244" lon="-114.538959"><ele>2491.8</ele></trkpt>
      <trkpt lat="44.064939" lon="-114.539222"><ele>2493.0</ele></trkpt>
      <trkpt lat="44.064881" lon="-114.539560"><ele>2490.5</ele></trkpt>
      <trkpt lat="44.064593" lon="-114.540007"><ele>2491.8</ele></trkpt>
      <trkpt lat="44.064410" lon="-114.540354"><ele>2493.0</ele></trkpt>
      <trkpt lat="44.064175" lon="-114.540778"><ele>2494.2</ele></trkpt>
      <trkpt lat="44.063967" lon="-114.541561"><ele>2491.0</ele></trkpt>
      <trkpt lat="44.063366" lon="-114.542071"><ele>2498.5</ele></trkpt>
      <trkpt lat="44.063243" lon="-114.542394"><ele>2497.5</ele></trkpt>
      <trkpt lat="44.063025" lon="-114.542827"><ele>2502.0</ele></trkpt>
      <trkpt lat="44.063027" lon="-114.543173"><ele>2500.8</ele></trkpt>
      <trkpt lat="44.062894" lon="-114.544394"><ele>2502.0</ele></trkpt>
      <trkpt lat="44.063089" lon="-114.545178"><ele>2498.0</ele></trkpt>
      <trkpt lat="44.063300" lon="-114.545649"><ele>2495.5</ele></trkpt>
      <trkpt lat="44.063290" lon="-114.545742"><ele>2496.5</ele></trkpt>
      <trkpt lat="44.063384" lon="-114.545712"><ele>2495.2</ele></trkpt>
      <trkpt lat="44.063687" lon="-114.545675"><ele>2494.2</ele></trkpt>
      <trkpt lat="44.064011" lon="-114.545465"><ele>2491.8</ele></trkpt>
      <trkpt lat="44.064245" lon="-114.545529"><ele>2492.5</ele></trkpt>
      <trkpt lat="44.064338" lon="-114.545799"><ele>2495.8</ele></trkpt>
      <trkpt lat="44.064366" lon="-114.546141"><ele>2499.2</ele></trkpt>
      <trkpt lat="44.064250" lon="-114.546896"><ele>2504.8</ele></trkpt>
      <trkpt lat="44.064098" lon="-114.547297"><ele>2506.5</ele></trkpt>
      <trkpt lat="44.064131" lon="-114.547560"><ele>2508.2</ele></trkpt>
      <trkpt lat="44.064479" lon="-114.548407"><ele>2520.2</ele></trkpt>
      <trkpt lat="44.064571" lon="-114.548632"><ele>2525.8</ele></trkpt>
      <trkpt lat="44.064693" lon="-114.548600"><ele>2528.0</ele></trkpt>
      <trkpt lat="44.065394" lon="-114.547796"><ele>2535.5</ele></trkpt>
      <trkpt lat="44.065663" lon="-114.547647"><ele>2540.2</ele></trkpt>
      <trkpt lat="44.065759" lon="-114.547686"><ele>2543.5</ele></trkpt>
      <trkpt lat="44.065731" lon="-114.547824"><ele>2545.2</ele></trkpt>
      <trkpt lat="44.065417" lon="-114.548233"><ele>2542.5</ele></trkpt>
      <trkpt lat="44.065312" lon="-114.548550"><ele>2544.5</ele></trkpt>
      <trkpt lat="44.065362" lon="-114.548863"><ele>2552.5</ele></trkpt>
      <trkpt lat="44.065479" lon="-114.548819"><ele>2555.5</ele></trkpt>
      <trkpt lat="44.065835" lon="-114.548464"><ele>2560.5</ele></trkpt>
      <trkpt lat="44.066134" lon="-114.548236"><ele>2567.2</ele></trkpt>
      <trkpt lat="44.066770" lon="-114.546997"><ele>2565.8</ele></trkpt>
      <trkpt lat="44.067036" lon="-114.546650"><ele>2565.5</ele></trkpt>
      <trkpt lat="44.067254" lon="-114.546625"><ele>2570.2</ele></trkpt>
      <trkpt lat="44.067559" lon="-114.546854"><ele>2581.0</ele></trkpt>
      <trkpt lat="44.067819" lon="-114.547194"><ele>2589.2</ele></trkpt>
      <trkpt lat="44.067836" lon="-114.547589"><ele>2595.8</ele></trkpt>
      <trkpt lat="44.067900" lon="-114.547744"><ele>2598.5</ele></trkpt>
      <trkpt lat="44.068084" lon="-114.547736"><ele>2599.0</ele></trkpt>
      <trkpt lat="44.068258" lon="-114.547659"><ele>2598.2</ele></trkpt>
      <trkpt lat="44.068694" lon="-114.547896"><ele>2604.2</ele></trkpt>
      <trkpt lat="44.069008" lon="-114.547865"><ele>2606.0</ele></trkpt>
      <trkpt lat="44.069401" lon="-114.547997"><ele>2607.5</ele></trkpt>
      <trkpt lat="44.069606" lon="-114.548215"><ele>2607.2</ele></trkpt>
      <trkpt lat="44.069733" lon="-114.548505"><ele>2608.0</ele></trkpt>
      <trkpt lat="44.070201" lon="-114.549299"><ele>2612.2</ele></trkpt>
      <trkpt lat="44.070330" lon="-114.549557"><ele>2614.5</ele></trkpt>
      <trkpt lat="44.070708" lon="-114.549896"><ele>2616.5</ele></trkpt>
      <trkpt lat="44.070969" lon="-114.550726"><ele>2620.5</ele></trkpt>
      <trkpt lat="44.071416" lon="-114.551437"><ele>2624.2</ele></trkpt>
      <trkpt lat="44.071804" lon="-114.552192"><ele>2628.8</ele></trkpt>
      <trkpt lat="44.072167" lon="-114.552892"><ele>2636.2</ele></trkpt>
      <trkpt lat="44.072420" lon="-114.553342"><ele>2640.8</ele></trkpt>
      <trkpt lat="44.072868" lon="-114.553915"><ele>2647.5</ele></trkpt>
      <trkpt lat="44.073091" lon="-114.554799"><ele>2657.0</ele></trkpt>
      <trkpt lat="44.073442" lon="-114.555782"><ele>2665.0</ele></trkpt>
      <trkpt lat="44.073477" lon="-114.556235"><ele>2669.0</ele></trkpt>
      <trkpt lat="44.073541" lon="-114.556555"><ele>2672.0</ele></trkpt>
      <trkpt lat="44.073868" lon="-114.557072"><ele>2675.2</ele></trkpt>
      <trkpt lat="44.074067" lon="-114.557562"><ele>2678.5</ele></trkpt>
      <trkpt lat="44.074252" lon="-114.557703"><ele>2681.0</ele></trkpt>
      <trkpt lat="44.074500" lon="-114.557653"><ele>2685.5</ele></trkpt>
      <trkpt lat="44.074815" lon="-114.557345"><ele>2689.2</ele></trkpt>
      <trkpt lat="44.074904" lon="-114.557045"><ele>2688.5</ele></trkpt>
      <trkpt lat="44.074970" lon="-114.556585"><ele>2685.0</ele></trkpt>
      <trkpt lat="44.075258" lon="-114.556394"><ele>2689.0</ele></trkpt>
      <trkpt lat="44.075797" lon="-114.555872"><ele>2691.0</ele></trkpt>
      <trkpt lat="44.076097" lon="-114.555048"><ele>2686.5</ele></trkpt>
      <trkpt lat="44.076138" lon="-114.554597"><ele>2686.0</ele></trkpt>
      <trkpt lat="44.076122" lon="-114.553573"><ele>2679.2</ele></trkpt>
      <trkpt lat="44.076208" lon="-114.553395"><ele>2680.8</ele></trkpt>
      <trkpt lat="44.076430" lon="-114.553106"><ele>2687.2</ele></trkpt>
      <trkpt lat="44.076403" lon="-114.552458"><ele>2683.2</ele></trkpt>
      <trkpt lat="44.076312" lon="-114.550851"><ele>2686.5</ele></trkpt>
      <trkpt lat="44.076222" lon="-114.550415"><ele>2685.5</ele></trkpt>
      <trkpt lat="44.076119" lon="-114.550063"><ele>2683.8</ele></trkpt>
      <trkpt lat="44.076354" lon="-114.549504"><ele>2695.0</ele></trkpt>
      <trkpt lat="44.076669" lon="-114.549168"><ele>2703.0</ele></trkpt>
      <trkpt lat="44.076965" lon="-114.549041"><ele>2706.8</ele></trkpt>
      <trkpt lat="44.077317" lon="-114.548815"><ele>2711.0</ele></trkpt>
      <trkpt lat="44.078041" lon="-114.548911"><ele>2717.5</ele></trkpt>
      <trkpt lat="44.078455" lon="-114.548848"><ele>2720.8</ele></trkpt>
      <trkpt lat="44.079159" lon="-114.548343"><ele>2717.0</ele></trkpt>
      <trkpt lat="44.079403" lon="-114.548232"><ele>2716.8</ele></trkpt>
      <trkpt lat="44.079183" lon="-114.547939"><ele>2712.8</ele></trkpt>
      <trkpt lat="44.079075" lon="-114.547478"><ele>2708.0</ele></trkpt>
      <trkpt lat="44.079136" lon="-114.547244"><ele>2707.2</ele></trkpt>
      <trkpt lat="44.079075" lon="-114.547478"><ele>2708.0</ele></trkpt>
      <trkpt lat="44.079183" lon="-114.547939"><ele>2712.8</ele></trkpt>
      <trkpt lat="44.079403" lon="-114.548232"><ele>2716.8</ele></trkpt>
      <trkpt lat="44.079159" lon="-114.548343"><ele>2717.0</ele></trkpt>
      <trkpt lat="44.078455" lon="-114.548848"><ele>2720.8</ele></trkpt>
      <trkpt lat="44.078041" lon="-114.548911"><ele>2717.5</ele></trkpt>
      <trkpt lat="44.077317" lon="-114.548815"><ele>2711.0</ele></trkpt>
      <trkpt lat="44.076965" lon="-114.549041"><ele>2706.8</ele></trkpt>
      <trkpt lat="44.076669" lon="-114.549168"><ele>2703.0</ele></trkpt>
      <trkpt lat="44.076354" lon="-114.549504"><ele>2695.0</ele></trkpt>
      <trkpt lat="44.076119" lon="-114.550063"><ele>2683.8</ele></trkpt>
      <trkpt lat="44.076222" lon="-114.550415"><ele>2685.5</ele></trkpt>
      <trkpt lat="44.076312" lon="-114.550851"><ele>2686.5</ele></trkpt>
      <trkpt lat="44.076403" lon="-114.552458"><ele>2683.2</ele></trkpt>
      <trkpt lat="44.076430" lon="-114.553106"><ele>2687.2</ele></trkpt>
      <trkpt lat="44.076208" lon="-114.553395"><ele>2680.8</ele></trkpt>
      <trkpt lat="44.076122" lon="-114.553573"><ele>2679.2</ele></trkpt>
      <trkpt lat="44.076138" lon="-114.554597"><ele>2686.0</ele></trkpt>
      <trkpt lat="44.076097" lon="-114.555048"><ele>2686.5</ele></trkpt>
      <trkpt lat="44.075797" lon="-114.555872"><ele>2691.0</ele></trkpt>
      <trkpt lat="44.075258" lon="-114.556394"><ele>2689.0</ele></trkpt>
      <trkpt lat="44.074970" lon="-114.556585"><ele>2685.0</ele></trkpt>
      <trkpt lat="44.074904" lon="-114.557045"><ele>2688.5</ele></trkpt>
      <trkpt lat="44.074815" lon="-114.557345"><ele>2689.2</ele></trkpt>
      <trkpt lat="44.074500" lon="-114.557653"><ele>2685.5</ele></trkpt>
      <trkpt lat="44.074252" lon="-114.557703"><ele>2681.0</ele></trkpt>
      <trkpt lat="44.074019" lon="-114.558051"><ele>2680.0</ele></trkpt>
      <trkpt lat="44.073685" lon="-114.558617"><ele>2682.0</ele></trkpt>
      <trkpt lat="44.073384" lon="-114.559053"><ele>2686.0</ele></trkpt>
    </trkseg>
    <!-- Sat -->
    <trkseg>
      <trkpt lat="44.073384" lon="-114.559053"><ele>2685.0</ele></trkpt>
      <trkpt lat="44.073196" lon="-114.559363"><ele>2690.0</ele></trkpt>
      <trkpt lat="44.072978" lon="-114.560368"><ele>2697.8</ele></trkpt>
      <trkpt lat="44.072697" lon="-114.561082"><ele>2705.5</ele></trkpt>
      <trkpt lat="44.072363" lon="-114.561363"><ele>2712.5</ele></trkpt>
      <trkpt lat="44.072043" lon="-114.561476"><ele>2717.2</ele></trkpt>
      <trkpt lat="44.071552" lon="-114.561291"><ele>2727.8</ele></trkpt>
      <trkpt lat="44.071292" lon="-114.561254"><ele>2730.5</ele></trkpt>
      <trkpt lat="44.070949" lon="-114.561414"><ele>2731.0</ele></trkpt>
      <trkpt lat="44.070662" lon="-114.561825"><ele>2727.0</ele></trkpt>
      <trkpt lat="44.070662" lon="-114.562090"><ele>2724.5</ele></trkpt>
      <trkpt lat="44.070748" lon="-114.562388"><ele>2721.8</ele></trkpt>
      <trkpt lat="44.070741" lon="-114.563126"><ele>2724.0</ele></trkpt>
      <trkpt lat="44.070471" lon="-114.564558"><ele>2736.5</ele></trkpt>
      <trkpt lat="44.070396" lon="-114.565169"><ele>2742.5</ele></trkpt>
      <trkpt lat="44.070272" lon="-114.565620"><ele>2743.8</ele></trkpt>
      <trkpt lat="44.069974" lon="-114.565727"><ele>2742.8</ele></trkpt>
      <trkpt lat="44.069924" lon="-114.566159"><ele>2743.2</ele></trkpt>
      <trkpt lat="44.069686" lon="-114.566862"><ele>2747.2</ele></trkpt>
      <trkpt lat="44.069343" lon="-114.567278"><ele>2753.2</ele></trkpt>
      <trkpt lat="44.069160" lon="-114.567610"><ele>2755.2</ele></trkpt>
      <trkpt lat="44.069058" lon="-114.567841"><ele>2759.0</ele></trkpt>
      <trkpt lat="44.068740" lon="-114.567919"><ele>2769.2</ele></trkpt>
      <trkpt lat="44.068636" lon="-114.568412"><ele>2769.0</ele></trkpt>
      <trkpt lat="44.068835" lon="-114.569013"><ele>2767.0</ele></trkpt>
      <trkpt lat="44.068908" lon="-114.569520"><ele>2766.5</ele></trkpt>
      <trkpt lat="44.068979" lon="-114.570097"><ele>2764.8</ele></trkpt>
      <trkpt lat="44.068960" lon="-114.570598"><ele>2763.2</ele></trkpt>
      <trkpt lat="44.069002" lon="-114.570942"><ele>2761.2</ele></trkpt>
      <trkpt lat="44.069104" lon="-114.571607"><ele>2759.2</ele></trkpt>
      <trkpt lat="44.069303" lon="-114.571717"><ele>2756.5</ele></trkpt>
      <trkpt lat="44.069536" lon="-114.572014"><ele>2756.8</ele></trkpt>
      <trkpt lat="44.069652" lon="-114.572444"><ele>2758.5</ele></trkpt>
      <trkpt lat="44.070085" lon="-114.572554"><ele>2756.5</ele></trkpt>
      <trkpt lat="44.070348" lon="-114.572681"><ele>2758.8</ele></trkpt>
      <trkpt lat="44.070583" lon="-114.572862"><ele>2761.2</ele></trkpt>
      <trkpt lat="44.070777" lon="-114.573602"><ele>2764.5</ele></trkpt>
      <trkpt lat="44.070991" lon="-114.574101"><ele>2765.8</ele></trkpt>
      <trkpt lat="44.071452" lon="-114.574571"><ele>2769.0</ele></trkpt>
      <trkpt lat="44.072090" lon="-114.575434"><ele>2769.2</ele></trkpt>
      <trkpt lat="44.072404" lon="-114.575778"><ele>2770.2</ele></trkpt>
      <trkpt lat="44.072641" lon="-114.576024"><ele>2773.8</ele></trkpt>
      <trkpt lat="44.072625" lon="-114.576357"><ele>2773.2</ele></trkpt>
      <trkpt lat="44.072317" lon="-114.576714"><ele>2769.8</ele></trkpt>
      <trkpt lat="44.072408" lon="-114.577129"><ele>2771.8</ele></trkpt>
      <trkpt lat="44.072269" lon="-114.577548"><ele>2772.5</ele></trkpt>
      <trkpt lat="44.071725" lon="-114.577658"><ele>2769.5</ele></trkpt>
      <trkpt lat="44.071307" lon="-114.577457"><ele>2768.2</ele></trkpt>
      <trkpt lat="44.071111" lon="-114.577473"><ele>2769.2</ele></trkpt>
      <trkpt lat="44.070862" lon="-114.577604"><ele>2772.0</ele></trkpt>
      <trkpt lat="44.070850" lon="-114.577883"><ele>2775.5</ele></trkpt>
      <trkpt lat="44.071034" lon="-114.578162"><ele>2778.0</ele></trkpt>
      <trkpt lat="44.071288" lon="-114.578524"><ele>2781.5</ele></trkpt>
      <trkpt lat="44.071695" lon="-114.579026"><ele>2784.8</ele></trkpt>
      <trkpt lat="44.071644" lon="-114.579509"><ele>2789.5</ele></trkpt>
      <trkpt lat="44.071556" lon="-114.580117"><ele>2797.0</ele></trkpt>
      <trkpt lat="44.071294" lon="-114.580595"><ele>2805.8</ele></trkpt>
      <trkpt lat="44.071159" lon="-114.581045"><ele>2810.8</ele></trkpt>
      <trkpt lat="44.071246" lon="-114.581442"><ele>2815.0</ele></trkpt>
      <trkpt lat="44.071511" lon="-114.581890"><ele>2820.0</ele></trkpt>
      <trkpt lat="44.071893" lon="-114.582303"><ele>2825.8</ele></trkpt>
      <trkpt lat="44.072251" lon="-114.582859"><ele>2831.2</ele></trkpt>
      <trkpt lat="44.072508" lon="-114.583317"><ele>2832.2</ele></trkpt>
      <trkpt lat="44.072885" lon="-114.583805"><ele>2839.2</ele></trkpt>
      <trkpt lat="44.073340" lon="-114.584385"><ele>2845.2</ele></trkpt>
      <trkpt lat="44.073622" lon="-114.584852"><ele>2852.0</ele></trkpt>
      <trkpt lat="44.074107" lon="-114.585348"><ele>2859.0</ele></trkpt>
      <trkpt lat="44.074171" lon="-114.585530"><ele>2858.8</ele></trkpt>
      <trkpt lat="44.074182" lon="-114.585836"><ele>2857.2</ele></trkpt>
      <trkpt lat="44.074294" lon="-114.586085"><ele>2862.0</ele></trkpt>
      <trkpt lat="44.074500" lon="-114.586064"><ele>2867.0</ele></trkpt>
      <trkpt lat="44.074641" lon="-114.586069"><ele>2870.5</ele></trkpt>
      <trkpt lat="44.074678" lon="-114.586279"><ele>2872.5</ele></trkpt>
      <trkpt lat="44.074909" lon="-114.586391"><ele>2878.8</ele></trkpt>
      <trkpt lat="44.075021" lon="-114.586552"><ele>2882.0</ele></trkpt>
      <trkpt lat="44.075209" lon="-114.586576"><ele>2885.8</ele></trkpt>
      <trkpt lat="44.075385" lon="-114.586667"><ele>2888.8</ele></trkpt>
      <trkpt lat="44.075628" lon="-114.586608"><ele>2893.8</ele></trkpt>
      <trkpt lat="44.076132" lon="-114.586954"><ele>2905.0</ele></trkpt>
      <trkpt lat="44.076410" lon="-114.587193"><ele>2909.2</ele></trkpt>
      <trkpt lat="44.076564" lon="-114.587558"><ele>2909.5</ele></trkpt>
      <trkpt lat="44.076684" lon="-114.587968"><ele>2911.0</ele></trkpt>
      <trkpt lat="44.076703" lon="-114.588378"><ele>2915.2</ele></trkpt>
      <trkpt lat="44.076603" lon="-114.589355"><ele>2918.8</ele></trkpt>
      <trkpt lat="44.076512" lon="-114.590042"><ele>2920.2</ele></trkpt>
      <trkpt lat="44.076287" lon="-114.590557"><ele>2920.5</ele></trkpt>
    </trkseg>
    <!-- Sun -->
    <trkseg>
      <trkpt lat="44.076287" lon="-114.590557"><ele>2920.5</ele></trkpt>
      <trkpt lat="44.076015" lon="-114.590777"><ele>2921.8</ele></trkpt>
      <trkpt lat="44.075789" lon="-114.591219"><ele>2919.0</ele></trkpt>
      <trkpt lat="44.075462" lon="-114.591592"><ele>2922.8</ele></trkpt>
      <trkpt lat="44.075184" lon="-114.592212"><ele>2920.8</ele></trkpt>
      <trkpt lat="44.074947" lon="-114.592386"><ele>2923.5</ele></trkpt>
      <trkpt lat="44.074695" lon="-114.592651"><ele>2933.5</ele></trkpt>
      <trkpt lat="44.074545" lon="-114.592818"><ele>2939.5</ele></trkpt>
      <trkpt lat="44.074215" lon="-114.592914"><ele>2952.0</ele></trkpt>
      <trkpt lat="44.074096" lon="-114.593182"><ele>2950.8</ele></trkpt>
      <trkpt lat="44.074069" lon="-114.593384"><ele>2948.8</ele></trkpt>
      <trkpt lat="44.074159" lon="-114.593475"><ele>2948.8</ele></trkpt>
      <trkpt lat="44.074146" lon="-114.593609"><ele>2949.5</ele></trkpt>
      <trkpt lat="44.074302" lon="-114.594188"><ele>2951.8</ele></trkpt>
      <trkpt lat="44.074298" lon="-114.594556"><ele>2955.5</ele></trkpt>
      <trkpt lat="44.074123" lon="-114.594918"><ele>2957.0</ele></trkpt>
      <trkpt lat="44.073891" lon="-114.595143"><ele>2957.0</ele></trkpt>
      <trkpt lat="44.073679" lon="-114.595478"><ele>2958.8</ele></trkpt>
      <trkpt lat="44.073464" lon="-114.595639"><ele>2957.2</ele></trkpt>
      <trkpt lat="44.073176" lon="-114.595878"><ele>2956.2</ele></trkpt>
      <trkpt lat="44.072916" lon="-114.596423"><ele>2959.8</ele></trkpt>
      <trkpt lat="44.072691" lon="-114.596801"><ele>2963.2</ele></trkpt>
      <trkpt lat="44.072419" lon="-114.596935"><ele>2967.8</ele></trkpt>
      <trkpt lat="44.072163" lon="-114.596855"><ele>2974.8</ele></trkpt>
      <trkpt lat="44.072088" lon="-114.597074"><ele>2981.2</ele></trkpt>
      <trkpt lat="44.071959" lon="-114.597208"><ele>2988.2</ele></trkpt>
      <trkpt lat="44.071648" lon="-114.596903"><ele>2993.0</ele></trkpt>
      <trkpt lat="44.071330" lon="-114.596667"><ele>3005.5</ele></trkpt>
      <trkpt lat="44.071228" lon="-114.595910"><ele>3006.2</ele></trkpt>
      <trkpt lat="44.071201" lon="-114.595792"><ele>3008.2</ele></trkpt>
      <trkpt lat="44.071078" lon="-114.596136"><ele>3016.8</ele></trkpt>
      <trkpt lat="44.071026" lon="-114.595916"><ele>3019.0</ele></trkpt>
      <trkpt lat="44.071089" lon="-114.595599"><ele>3019.5</ele></trkpt>
      <trkpt lat="44.070995" lon="-114.595634"><ele>3025.0</ele></trkpt>
      <trkpt lat="44.070847" lon="-114.595972"><ele>3030.2</ele></trkpt>
      <trkpt lat="44.070725" lon="-114.596227"><ele>3036.2</ele></trkpt>
      <trkpt lat="44.070748" lon="-114.595943"><ele>3034.8</ele></trkpt>
      <trkpt lat="44.070785" lon="-114.595787"><ele>3034.0</ele></trkpt>
      <trkpt lat="44.070679" lon="-114.595953"><ele>3037.5</ele></trkpt>
      <trkpt lat="44.070629" lon="-114.595921"><ele>3039.5</ele></trkpt>
      <trkpt lat="44.070631" lon="-114.595765"><ele>3040.2</ele></trkpt>
      <trkpt lat="44.070423" lon="-114.596230"><ele>3049.0</ele></trkpt>
      <trkpt lat="44.070357" lon="-114.596530"><ele>3053.0</ele></trkpt>
      <trkpt lat="44.070334" lon="-114.596656"><ele>3054.5</ele></trkpt>
      <trkpt lat="44.070371" lon="-114.596388"><ele>3051.8</ele></trkpt>
      <trkpt lat="44.070521" lon="-114.595983"><ele>3044.0</ele></trkpt>
      <trkpt lat="44.070652" lon="-114.595800"><ele>3039.0</ele></trkpt>
      <trkpt lat="44.070644" lon="-114.595991"><ele>3039.0</ele></trkpt>
      <trkpt lat="44.070756" lon="-114.595798"><ele>3034.8</ele></trkpt>
      <trkpt lat="44.070783" lon="-114.595865"><ele>3033.0</ele></trkpt>
      <trkpt lat="44.070710" lon="-114.596082"><ele>3036.5</ele></trkpt>
      <trkpt lat="44.070791" lon="-114.596195"><ele>3033.5</ele></trkpt>
      <trkpt lat="44.070926" lon="-114.595814"><ele>3025.5</ele></trkpt>
      <trkpt lat="44.071043" lon="-114.595564"><ele>3023.5</ele></trkpt>
      <trkpt lat="44.071064" lon="-114.595749"><ele>3018.0</ele></trkpt>
      <trkpt lat="44.071035" lon="-114.596122"><ele>3019.2</ele></trkpt>
      <trkpt lat="44.071165" lon="-114.595862"><ele>3010.0</ele></trkpt>
      <trkpt lat="44.071246" lon="-114.595784"><ele>3005.5</ele></trkpt>
      <trkpt lat="44.071220" lon="-114.596350"><ele>3009.5</ele></trkpt>
      <trkpt lat="44.071488" lon="-114.596766"><ele>2998.8</ele></trkpt>
      <trkpt lat="44.071806" lon="-114.597160"><ele>2992.8</ele></trkpt>
      <trkpt lat="44.072045" lon="-114.597222"><ele>2985.5</ele></trkpt>
      <trkpt lat="44.072111" lon="-114.596911"><ele>2977.5</ele></trkpt>
      <trkpt lat="44.072271" lon="-114.596881"><ele>2971.8</ele></trkpt>
      <trkpt lat="44.072552" lon="-114.596916"><ele>2964.8</ele></trkpt>
      <trkpt lat="44.072826" lon="-114.596624"><ele>2961.2</ele></trkpt>
      <trkpt lat="44.073097" lon="-114.595980"><ele>2956.8</ele></trkpt>
      <trkpt lat="44.073304" lon="-114.595835"><ele>2956.8</ele></trkpt>
      <trkpt lat="44.073562" lon="-114.595554"><ele>2958.0</ele></trkpt>
      <trkpt lat="44.073772" lon="-114.595302"><ele>2957.8</ele></trkpt>
      <trkpt lat="44.074038" lon="-114.595073"><ele>2957.8</ele></trkpt>
      <trkpt lat="44.074213" lon="-114.594717"><ele>2956.5</ele></trkpt>
      <trkpt lat="44.074313" lon="-114.594368"><ele>2953.5</ele></trkpt>
      <trkpt lat="44.074171" lon="-114.593765"><ele>2950.5</ele></trkpt>
      <trkpt lat="44.074167" lon="-114.593526"><ele>2949.0</ele></trkpt>
      <trkpt lat="44.074101" lon="-114.593475"><ele>2949.0</ele></trkpt>
      <trkpt lat="44.074073" lon="-114.593309"><ele>2949.0</ele></trkpt>
      <trkpt lat="44.074142" lon="-114.593043"><ele>2952.2</ele></trkpt>
      <trkpt lat="44.074402" lon="-114.592831"><ele>2945.2</ele></trkpt>
      <trkpt lat="44.074629" lon="-114.592780"><ele>2936.0</ele></trkpt>
      <trkpt lat="44.074832" lon="-114.592515"><ele>2927.2</ele></trkpt>
      <trkpt lat="44.075047" lon="-114.592330"><ele>2921.2</ele></trkpt>
      <trkpt lat="44.075346" lon="-114.591817"><ele>2922.8</ele></trkpt>
      <trkpt lat="44.075614" lon="-114.591318"><ele>2922.2</ele></trkpt>
      <trkpt lat="44.075855" lon="-114.591112"><ele>2919.0</ele></trkpt>
      <trkpt lat="44.076129" lon="-114.590669"><ele>2921.5</ele></trkpt>
      <trkpt lat="44.076487" lon="-114.590294"><ele>2919.2</ele></trkpt>
      <trkpt lat="44.076572" lon="-114.589730"><ele>2919.2</ele></trkpt>
      <trkpt lat="44.076672" lon="-114.588800"><ele>2915.2</ele></trkpt>
      <trkpt lat="44.076684" lon="-114.587968"><ele>2911.0</ele></trkpt>
      <trkpt lat="44.076564" lon="-114.587558"><ele>2909.5</ele></trkpt>
      <trkpt lat="44.076410" lon="-114.587193"><ele>2909.2</ele></trkpt>
      <trkpt lat="44.076132" lon="-114.586954"><ele>2905.0</ele></trkpt>
      <trkpt lat="44.075628" lon="-114.586608"><ele>2893.8</ele></trkpt>
      <trkpt lat="44.075385" lon="-114.586667"><ele>2888.8</ele></trkpt>
      <trkpt lat="44.075209" lon="-114.586576"><ele>2885.8</ele></trkpt>
      <trkpt lat="44.075021" lon="-114.586552"><ele>2882.0</ele></trkpt>
      <trkpt lat="44.074909" lon="-114.586391"><ele>2878.8</ele></trkpt>
      <trkpt lat="44.074678" lon="-114.586279"><ele>2872.5</ele></trkpt>
      <trkpt lat="44.074641" lon="-114.586069"><ele>2870.5</ele></trkpt>
      <trkpt lat="44.074500" lon="-114.586064"><ele>2867.0</ele></trkpt>
      <trkpt lat="44.074294" lon="-114.586085"><ele>2862.0</ele></trkpt>
      <trkpt lat="44.074182" lon="-114.585836"><ele>2857.2</ele></trkpt>
      <trkpt lat="44.074171" lon="-114.585530"><ele>2858.8</ele></trkpt>
      <trkpt lat="44.074107" lon="-114.585348"><ele>2859.0</ele></trkpt>
      <trkpt lat="44.073622" lon="-114.584852"><ele>2852.0</ele></trkpt>
      <trkpt lat="44.073340" lon="-114.584385"><ele>2845.2</ele></trkpt>
      <trkpt lat="44.072885" lon="-114.583805"><ele>2839.2</ele></trkpt>
      <trkpt lat="44.072508" lon="-114.583317"><ele>2832.2</ele></trkpt>
      <trkpt lat="44.072251" lon="-114.582859"><ele>2831.2</ele></trkpt>
      <trkpt lat="44.071893" lon="-114.582303"><ele>2825.8</ele></trkpt>
      <trkpt lat="44.071511" lon="-114.581890"><ele>2820.0</ele></trkpt>
      <trkpt lat="44.071246" lon="-114.581442"><ele>2815.0</ele></trkpt>
      <trkpt lat="44.071159" lon="-114.581045"><ele>2810.8</ele></trkpt>
      <trkpt lat="44.071294" lon="-114.580595"><ele>2805.8</ele></trkpt>
      <trkpt lat="44.071556" lon="-114.580117"><ele>2797.0</ele></trkpt>
      <trkpt lat="44.071644" lon="-114.579509"><ele>2789.5</ele></trkpt>
      <trkpt lat="44.071695" lon="-114.579026"><ele>2784.8</ele></trkpt>
      <trkpt lat="44.071288" lon="-114.578524"><ele>2781.5</ele></trkpt>
      <trkpt lat="44.071034" lon="-114.578162"><ele>2778.0</ele></trkpt>
      <trkpt lat="44.070850" lon="-114.577883"><ele>2775.5</ele></trkpt>
      <trkpt lat="44.070862" lon="-114.577604"><ele>2772.0</ele></trkpt>
      <trkpt lat="44.071111" lon="-114.577473"><ele>2769.2</ele></trkpt>
      <trkpt lat="44.071307" lon="-114.577457"><ele>2768.2</ele></trkpt>
      <trkpt lat="44.071725" lon="-114.577658"><ele>2769.5</ele></trkpt>
      <trkpt lat="44.072269" lon="-114.577548"><ele>2772.5</ele></trkpt>
      <trkpt lat="44.072408" lon="-114.577129"><ele>2771.8</ele></trkpt>
      <trkpt lat="44.072317" lon="-114.576714"><ele>2769.8</ele></trkpt>
      <trkpt lat="44.072625" lon="-114.576357"><ele>2773.2</ele></trkpt>
      <trkpt lat="44.072641" lon="-114.576024"><ele>2773.8</ele></trkpt>
      <trkpt lat="44.072404" lon="-114.575778"><ele>2770.2</ele></trkpt>
      <trkpt lat="44.072090" lon="-114.575434"><ele>2769.2</ele></trkpt>
      <trkpt lat="44.071452" lon="-114.574571"><ele>2769.0</ele></trkpt>
      <trkpt lat="44.070991" lon="-114.574101"><ele>2765.8</ele></trkpt>
      <trkpt lat="44.070777" lon="-114.573602"><ele>2764.5</ele></trkpt>
      <trkpt lat="44.070583" lon="-114.572862"><ele>2761.2</ele></trkpt>
      <trkpt lat="44.070348" lon="-114.572681"><ele>2758.8</ele></trkpt>
      <trkpt lat="44.070085" lon="-114.572554"><ele>2756.5</ele></trkpt>
      <trkpt lat="44.069652" lon="-114.572444"><ele>2758.5</ele></trkpt>
      <trkpt lat="44.069536" lon="-114.572014"><ele>2756.8</ele></trkpt>
      <trkpt lat="44.069303" lon="-114.571717"><ele>2756.5</ele></trkpt>
      <trkpt lat="44.069104" lon="-114.571607"><ele>2759.2</ele></trkpt>
      <trkpt lat="44.069002" lon="-114.570942"><ele>2761.2</ele></trkpt>
      <trkpt lat="44.068960" lon="-114.570598"><ele>2763.2</ele></trkpt>
      <trkpt lat="44.068979" lon="-114.570097"><ele>2764.8</ele></trkpt>
      <trkpt lat="44.068908" lon="-114.569520"><ele>2766.5</ele></trkpt>
      <trkpt lat="44.068835" lon="-114.569013"><ele>2767.0</ele></trkpt>
      <trkpt lat="44.068636" lon="-114.568412"><ele>2769.0</ele></trkpt>
      <trkpt lat="44.068740" lon="-114.567919"><ele>2769.2</ele></trkpt>
      <trkpt lat="44.069058" lon="-114.567841"><ele>2759.0</ele></trkpt>
      <trkpt lat="44.069160" lon="-114.567610"><ele>2755.2</ele></trkpt>
      <trkpt lat="44.069343" lon="-114.567278"><ele>2753.2</ele></trkpt>
      <trkpt lat="44.069686" lon="-114.566862"><ele>2747.2</ele></trkpt>
      <trkpt lat="44.069924" lon="-114.566159"><ele>2743.2</ele></trkpt>
      <trkpt lat="44.069974" lon="-114.565727"><ele>2742.8</ele></trkpt>
      <trkpt lat="44.070272" lon="-114.565620"><ele>2743.8</ele></trkpt>
      <trkpt lat="44.070396" lon="-114.565169"><ele>2742.5</ele></trkpt>
      <trkpt lat="44.070471" lon="-114.564558"><ele>2736.5</ele></trkpt>
      <trkpt lat="44.070741" lon="-114.563126"><ele>2724.0</ele></trkpt>
      <trkpt lat="44.070748" lon="-114.562388"><ele>2721.8</ele></trkpt>
      <trkpt lat="44.070662" lon="-114.562090"><ele>2724.5</ele></trkpt>
      <trkpt lat="44.070662" lon="-114.561825"><ele>2727.0</ele></trkpt>
      <trkpt lat="44.070949" lon="-114.561414"><ele>2731.0</ele></trkpt>
      <trkpt lat="44.071292" lon="-114.561254"><ele>2730.5</ele></trkpt>
      <trkpt lat="44.071552" lon="-114.561291"><ele>2727.8</ele></trkpt>
      <trkpt lat="44.072043" lon="-114.561476"><ele>2717.2</ele></trkpt>
      <trkpt lat="44.072363" lon="-114.561363"><ele>2712.5</ele></trkpt>
      <trkpt lat="44.072697" lon="-114.561082"><ele>2705.5</ele></trkpt>
      <trkpt lat="44.072978" lon="-114.560368"><ele>2697.8</ele></trkpt>
      <trkpt lat="44.073196" lon="-114.559363"><ele>2690.0</ele></trkpt>
      <trkpt lat="44.073384" lon="-114.559053"><ele>2683.2</ele></trkpt>
    </trkseg>
    <!-- Mon -->
    <trkseg>
      <trkpt lat="44.073384" lon="-114.559053"><ele>2685.0</ele></trkpt>
      <trkpt lat="44.073685" lon="-114.558617"><ele>2682.0</ele></trkpt>
      <trkpt lat="44.074019" lon="-114.558051"><ele>2680.0</ele></trkpt>
      <trkpt lat="44.074252" lon="-114.557703"><ele>2681.0</ele></trkpt>
      <trkpt lat="44.074500" lon="-114.557653"><ele>2685.5</ele></trkpt>
      <trkpt lat="44.074815" lon="-114.557345"><ele>2689.2</ele></trkpt>
      <trkpt lat="44.074904" lon="-114.557045"><ele>2688.5</ele></trkpt>
      <trkpt lat="44.074970" lon="-114.556585"><ele>2685.0</ele></trkpt>
      <trkpt lat="44.075258" lon="-114.556394"><ele>2689.0</ele></trkpt>
      <trkpt lat="44.075797" lon="-114.555872"><ele>2691.0</ele></trkpt>
      <trkpt lat="44.076097" lon="-114.555048"><ele>2686.5</ele></trkpt>
      <trkpt lat="44.076138" lon="-114.554597"><ele>2686.0</ele></trkpt>
      <trkpt lat="44.076122" lon="-114.553573"><ele>2679.2</ele></trkpt>
      <trkpt lat="44.076208" lon="-114.553395"><ele>2680.8</ele></trkpt>
      <trkpt lat="44.076430" lon="-114.553106"><ele>2687.2</ele></trkpt>
      <trkpt lat="44.076403" lon="-114.552458"><ele>2683.2</ele></trkpt>
      <trkpt lat="44.076312" lon="-114.550851"><ele>2686.5</ele></trkpt>
      <trkpt lat="44.076222" lon="-114.550415"><ele>2685.5</ele></trkpt>
      <trkpt lat="44.076119" lon="-114.550063"><ele>2683.8</ele></trkpt>
      <trkpt lat="44.076354" lon="-114.549504"><ele>2695.0</ele></trkpt>
      <trkpt lat="44.076669" lon="-114.549168"><ele>2703.0</ele></trkpt>
      <trkpt lat="44.076965" lon="-114.549041"><ele>2706.8</ele></trkpt>
      <trkpt lat="44.077317" lon="-114.548815"><ele>2711.0</ele></trkpt>
      <trkpt lat="44.078041" lon="-114.548911"><ele>2717.5</ele></trkpt>
      <trkpt lat="44.078455" lon="-114.548848"><ele>2720.8</ele></trkpt>
      <trkpt lat="44.079159" lon="-114.548343"><ele>2717.0</ele></trkpt>
      <trkpt lat="44.079403" lon="-114.548232"><ele>2716.8</ele></trkpt>
      <trkpt lat="44.079183" lon="-114.547939"><ele>2712.8</ele></trkpt>
      <trkpt lat="44.079075" lon="-114.547478"><ele>2708.0</ele></trkpt>
      <trkpt lat="44.079136" lon="-114.547244"><ele>2707.2</ele></trkpt>
      <trkpt lat="44.079075" lon="-114.547478"><ele>2708.0</ele></trkpt>
      <trkpt lat="44.079183" lon="-114.547939"><ele>2712.8</ele></trkpt>
      <trkpt lat="44.079403" lon="-114.548232"><ele>2716.8</ele></trkpt>
      <trkpt lat="44.079159" lon="-114.548343"><ele>2717.0</ele></trkpt>
      <trkpt lat="44.078455" lon="-114.548848"><ele>2720.8</ele></trkpt>
      <trkpt lat="44.078041" lon="-114.548911"><ele>2717.5</ele></trkpt>
      <trkpt lat="44.077317" lon="-114.548815"><ele>2711.0</ele></trkpt>
      <trkpt lat="44.076965" lon="-114.549041"><ele>2706.8</ele></trkpt>
      <trkpt lat="44.076669" lon="-114.549168"><ele>2703.0</ele></trkpt>
      <trkpt lat="44.076354" lon="-114.549504"><ele>2695.0</ele></trkpt>
      <trkpt lat="44.076119" lon="-114.550063"><ele>2683.8</ele></trkpt>
      <trkpt lat="44.076222" lon="-114.550415"><ele>2685.5</ele></trkpt>
      <trkpt lat="44.076312" lon="-114.550851"><ele>2686.5</ele></trkpt>
      <trkpt lat="44.076403" lon="-114.552458"><ele>2683.2</ele></trkpt>
      <trkpt lat="44.076430" lon="-114.553106"><ele>2687.2</ele></trkpt>
      <trkpt lat="44.076208" lon="-114.553395"><ele>2680.8</ele></trkpt>
      <trkpt lat="44.076122" lon="-114.553573"><ele>2679.2</ele></trkpt>
      <trkpt lat="44.076138" lon="-114.554597"><ele>2686.0</ele></trkpt>
      <trkpt lat="44.076097" lon="-114.555048"><ele>2686.5</ele></trkpt>
      <trkpt lat="44.075797" lon="-114.555872"><ele>2691.0</ele></trkpt>
      <trkpt lat="44.075258" lon="-114.556394"><ele>2689.0</ele></trkpt>
      <trkpt lat="44.074970" lon="-114.556585"><ele>2685.0</ele></trkpt>
      <trkpt lat="44.074904" lon="-114.557045"><ele>2688.5</ele></trkpt>
      <trkpt lat="44.074815" lon="-114.557345"><ele>2689.2</ele></trkpt>
      <trkpt lat="44.074500" lon="-114.557653"><ele>2685.5</ele></trkpt>
      <trkpt lat="44.074252" lon="-114.557703"><ele>2681.0</ele></trkpt>
      <trkpt lat="44.074067" lon="-114.557562"><ele>2678.5</ele></trkpt>
      <trkpt lat="44.073868" lon="-114.557072"><ele>2675.2</ele></trkpt>
      <trkpt lat="44.073541" lon="-114.556555"><ele>2672.0</ele></trkpt>
      <trkpt lat="44.073477" lon="-114.556235"><ele>2669.0</ele></trkpt>
      <trkpt lat="44.073442" lon="-114.555782"><ele>2665.0</ele></trkpt>
      <trkpt lat="44.073091" lon="-114.554799"><ele>2657.0</ele></trkpt>
      <trkpt lat="44.072868" lon="-114.553915"><ele>2647.5</ele></trkpt>
      <trkpt lat="44.072420" lon="-114.553342"><ele>2640.8</ele></trkpt>
      <trkpt lat="44.072167" lon="-114.552892"><ele>2636.2</ele></trkpt>
      <trkpt lat="44.071804" lon="-114.552192"><ele>2628.8</ele></trkpt>
      <trkpt lat="44.071416" lon="-114.551437"><ele>2624.2</ele></trkpt>
      <trkpt lat="44.070969" lon="-114.550726"><ele>2620.5</ele></trkpt>
      <trkpt lat="44.070708" lon="-114.549896"><ele>2616.5</ele></trkpt>
      <trkpt lat="44.070330" lon="-114.549557"><ele>2614.5</ele></trkpt>
      <trkpt lat="44.070201" lon="-114.549299"><ele>2612.2</ele></trkpt>
      <trkpt lat="44.069733" lon="-114.548505"><ele>2608.0</ele></trkpt>
      <trkpt lat="44.069606" lon="-114.548215"><ele>2607.2</ele></trkpt>
      <trkpt lat="44.069401" lon="-114.547997"><ele>2607.5</ele></trkpt>
      <trkpt lat="44.069008" lon="-114.547865"><ele>2606.0</ele></trkpt>
      <trkpt lat="44.068694" lon="-114.547896"><ele>2604.2</ele></trkpt>
      <trkpt lat="44.068258" lon="-114.547659"><ele>2598.2</ele></trkpt>
      <trkpt lat="44.068084" lon="-114.547736"><ele>2599.0</ele></trkpt>
      <trkpt lat="44.067900" lon="-114.547744"><ele>2598.5</ele></trkpt>
      <trkpt lat="44.067836" lon="-114.547589"><ele>2595.8</ele></trkpt>
      <trkpt lat="44.067819" lon="-114.547194"><ele>2589.2</ele></trkpt>
      <trkpt lat="44.067559" lon="-114.546854"><ele>2581.0</ele></trkpt>
      <trkpt lat="44.067254" lon="-114.546625"><ele>2570.2</ele></trkpt>
      <trkpt lat="44.067036" lon="-114.546650"><ele>2565.5</ele></trkpt>
      <trkpt lat="44.066770" lon="-114.546997"><ele>2565.8</ele></trkpt>
      <trkpt lat="44.066134" lon="-114.548236"><ele>2567.2</ele></trkpt>
      <trkpt lat="44.065835" lon="-114.548464"><ele>2560.5</ele></trkpt>
      <trkpt lat="44.065479" lon="-114.548819"><ele>2555.5</ele></trkpt>
      <trkpt lat="44.065362" lon="-114.548863"><ele>2552.5</ele></trkpt>
      <trkpt lat="44.065312" lon="-114.548550"><ele>2544.5</ele></trkpt>
      <trkpt lat="44.065417" lon="-114.548233"><ele>2542.5</ele></trkpt>
      <trkpt lat="44.065731" lon="-114.547824"><ele>2545.2</ele></trkpt>
      <trkpt lat="44.065759" lon="-114.547686"><ele>2543.5</ele></trkpt>
      <trkpt lat="44.065663" lon="-114.547647"><ele>2540.2</ele></trkpt>
      <trkpt lat="44.065394" lon="-114.547796"><ele>2535.5</ele></trkpt>
      <trkpt lat="44.064693" lon="-114.548600"><ele>2528.0</ele></trkpt>
      <trkpt lat="44.064571" lon="-114.548632"><ele>2525.8</ele></trkpt>
      <trkpt lat="44.064479" lon="-114.548407"><ele>2520.2</ele></trkpt>
      <trkpt lat="44.064131" lon="-114.547560"><ele>2508.2</ele></trkpt>
      <trkpt lat="44.064098" lon="-114.547297"><ele>2506.5</ele></trkpt>
      <trkpt lat="44.064250" lon="-114.546896"><ele>2504.8</ele></trkpt>
      <trkpt lat="44.064366" lon="-114.546141"><ele>2499.2</ele></trkpt>
      <trkpt lat="44.064338" lon="-114.545799"><ele>2495.8</ele></trkpt>
      <trkpt lat="44.064245" lon="-114.545529"><ele>2492.5</ele></trkpt>
      <trkpt lat="44.064011" lon="-114.545465"><ele>2491.8</ele></trkpt>
      <trkpt lat="44.063687" lon="-114.545675"><ele>2494.2</ele></trkpt>
      <trkpt lat="44.063384" lon="-114.545712"><ele>2495.2</ele></trkpt>
      <trkpt lat="44.063290" lon="-114.545742"><ele>2496.5</ele></trkpt>
      <trkpt lat="44.063300" lon="-114.545649"><ele>2495.5</ele></trkpt>
      <trkpt lat="44.063089" lon="-114.545178"><ele>2498.0</ele></trkpt>
      <trkpt lat="44.062894" lon="-114.544394"><ele>2502.0</ele></trkpt>
      <trkpt lat="44.063027" lon="-114.543173"><ele>2500.8</ele></trkpt>
      <trkpt lat="44.063025" lon="-114.542827"><ele>2502.0</ele></trkpt>
      <trkpt lat="44.063243" lon="-114.542394"><ele>2497.5</ele></trkpt>
      <trkpt lat="44.063366" lon="-114.542071"><ele>2498.5</ele></trkpt>
      <trkpt lat="44.063967" lon="-114.541561"><ele>2491.0</ele></trkpt>
      <trkpt lat="44.064175" lon="-114.540778"><ele>2494.2</ele></trkpt>
      <trkpt lat="44.064410" lon="-114.540354"><ele>2493.0</ele></trkpt>
      <trkpt lat="44.064593" lon="-114.540007"><ele>2491.8</ele></trkpt>
      <trkpt lat="44.064881" lon="-114.539560"><ele>2490.5</ele></trkpt>
      <trkpt lat="44.064939" lon="-114.539222"><ele>2493.0</ele></trkpt>
      <trkpt lat="44.065244" lon="-114.538959"><ele>2491.8</ele></trkpt>
      <trkpt lat="44.065916" lon="-114.538142"><ele>2491.8</ele></trkpt>
      <trkpt lat="44.066115" lon="-114.537842"><ele>2491.8</ele></trkpt>
      <trkpt lat="44.066268" lon="-114.537489"><ele>2491.5</ele></trkpt>
      <trkpt lat="44.066368" lon="-114.537054"><ele>2490.5</ele></trkpt>
      <trkpt lat="44.067304" lon="-114.534381"><ele>2478.2</ele></trkpt>
      <trkpt lat="44.067271" lon="-114.532762"><ele>2479.0</ele></trkpt>
      <trkpt lat="44.067849" lon="-114.530938"><ele>2460.2</ele></trkpt>
      <trkpt lat="44.068419" lon="-114.528583"><ele>2434.8</ele></trkpt>
      <trkpt lat="44.068532" lon="-114.527711"><ele>2428.8</ele></trkpt>
      <trkpt lat="44.068768" lon="-114.526080"><ele>2425.5</ele></trkpt>
      <trkpt lat="44.069191" lon="-114.525163"><ele>2422.2</ele></trkpt>
      <trkpt lat="44.069688" lon="-114.523509"><ele>2423.2</ele></trkpt>
      <trkpt lat="44.070485" lon="-114.522252"><ele>2421.8</ele></trkpt>
      <trkpt lat="44.071649" lon="-114.521935"><ele>2418.8</ele></trkpt>
      <trkpt lat="44.072039" lon="-114.521788"><ele>2416.8</ele></trkpt>
      <trkpt lat="44.072682" lon="-114.519795"><ele>2408.5</ele></trkpt>
      <trkpt lat="44.072905" lon="-114.518894"><ele>2401.0</ele></trkpt>
      <trkpt lat="44.073373" lon="-114.518420"><ele>2391.0</ele></trkpt>
      <trkpt lat="44.073526" lon="-114.518009"><ele>2389.5</ele></trkpt>
      <trkpt lat="44.073871" lon="-114.517390"><ele>2383.5</ele></trkpt>
      <trkpt lat="44.074306" lon="-114.517103"><ele>2378.8</ele></trkpt>
      <trkpt lat="44.074535" lon="-114.516675"><ele>2378.8</ele></trkpt>
      <trkpt lat="44.075010" lon="-114.516165"><ele>2380.2</ele></trkpt>
      <trkpt lat="44.075555" lon="-114.515737"><ele>2379.2</ele></trkpt>
      <trkpt lat="44.076335" lon="-114.515390"><ele>2375.5</ele></trkpt>
      <trkpt lat="44.077484" lon="-114.514456"><ele>2379.2</ele></trkpt>
      <trkpt lat="44.078400" lon="-114.513914"><ele>2365.8</ele></trkpt>
      <trkpt lat="44.079254" lon="-114.513220"><ele>2353.2</ele></trkpt>
      <trkpt lat="44.080004" lon="-114.511996"><ele>2350.0</ele></trkpt>
      <trkpt lat="44.080830" lon="-114.511065"><ele>2342.8</ele></trkpt>
      <trkpt lat="44.081520" lon="-114.510365"><ele>2337.8</ele></trkpt>
      <trkpt lat="44.081944" lon="-114.509826"><ele>2336.0</ele></trkpt>
      <trkpt lat="44.083437" lon="-114.508194"><ele>2322.2</ele></trkpt>
      <trkpt lat="44.084279" lon="-114.506658"><ele>2318.2</ele></trkpt>
      <trkpt lat="44.085553" lon="-114.504277"><ele>2305.5</ele></trkpt>
      <trkpt lat="44.087463" lon="-114.501350"><ele>2301.8</ele></trkpt>
      <trkpt lat="44.087938" lon="-114.499251"><ele>2294.0</ele></trkpt>
      <trkpt lat="44.087360" lon="-114.497578"><ele>2290.0</ele></trkpt>
      <trkpt lat="44.087980" lon="-114.495120"><ele>2279.8</ele></trkpt>
      <trkpt lat="44.088487" lon="-114.493409"><ele>2279.0</ele></trkpt>
      <trkpt lat="44.088610" lon="-114.492206"><ele>2276.5</ele></trkpt>
      <trkpt lat="44.088143" lon="-114.490136"><ele>2267.0</ele></trkpt>
      <trkpt lat="44.087415" lon="-114.488319"><ele>2263.5</ele></trkpt>
      <trkpt lat="44.086814" lon="-114.486677"><ele>2269.0</ele></trkpt>
      <trkpt lat="44.086601" lon="-114.485241"><ele>2271.8</ele></trkpt>
      <trkpt lat="44.086484" lon="-114.483099"><ele>2273.2</ele></trkpt>
      <trkpt lat="44.086493" lon="-114.481679"><ele>2263.0</ele></trkpt>
      <trkpt lat="44.086279" lon="-114.480663"><ele>2257.0</ele></trkpt>
      <trkpt lat="44.086092" lon="-114.479914"><ele>2253.2</ele></trkpt>
      <trkpt lat="44.086075" lon="-114.479533"><ele>2248.8</ele></trkpt>
      <trkpt lat="44.086115" lon="-114.479507"><ele>2247.8</ele></trkpt>
      <trkpt lat="44.086155" lon="-114.479711"><ele>2249.5</ele></trkpt>
      <trkpt lat="44.086225" lon="-114.479879"><ele>2250.2</ele></trkpt>
      <trkpt lat="44.086276" lon="-114.479853"><ele>2249.0</ele></trkpt>
      <trkpt lat="44.086297" lon="-114.479208"><ele>2239.8</ele></trkpt>
      <trkpt lat="44.086271" lon="-114.478834"><ele>2235.8</ele></trkpt>
      <trkpt lat="44.086135" lon="-114.478726"><ele>2237.8</ele></trkpt>
      <trkpt lat="44.086093" lon="-114.478506"><ele>2236.5</ele></trkpt>
      <trkpt lat="44.086049" lon="-114.477797"><ele>2229.5</ele></trkpt>
      <trkpt lat="44.086045" lon="-114.476934"><ele>2218.5</ele></trkpt>
      <trkpt lat="44.085925" lon="-114.476105"><ele>2214.2</ele></trkpt>
      <trkpt lat="44.085864" lon="-114.475520"><ele>2210.8</ele></trkpt>
      <trkpt lat="44.085853" lon="-114.475087"><ele>2206.2</ele></trkpt>
      <trkpt lat="44.085645" lon="-114.474722"><ele>2207.2</ele></trkpt>
      <trkpt lat="44.085456" lon="-114.474204"><ele>2206.2</ele></trkpt>
      <trkpt lat="44.085404" lon="-114.473480"><ele>2197.2</ele></trkpt>
      <trkpt lat="44.085531" lon="-114.472330"><ele>2184.0</ele></trkpt>
      <trkpt lat="44.085850" lon="-114.471398"><ele>2173.8</ele></trkpt>
      <trkpt lat="44.086011" lon="-114.470555"><ele>2168.2</ele></trkpt>
      <trkpt lat="44.086047" lon="-114.469970"><ele>2166.0</ele></trkpt>
      <trkpt lat="44.086036" lon="-114.469267"><ele>2163.0</ele></trkpt>
      <trkpt lat="44.085870" lon="-114.468602"><ele>2161.0</ele></trkpt>
      <trkpt lat="44.085777" lon="-114.468180"><ele>2159.0</ele></trkpt>
      <trkpt lat="44.085759" lon="-114.467374"><ele>2153.8</ele></trkpt>
      <trkpt lat="44.085767" lon="-114.467043"><ele>2152.5</ele></trkpt>
      <trkpt lat="44.085950" lon="-114.466690"><ele>2146.2</ele></trkpt>
      <trkpt lat="44.086012" lon="-114.466285"><ele>2142.5</ele></trkpt>
      <trkpt lat="44.086174" lon="-114.465752"><ele>2135.0</ele></trkpt>
      <trkpt lat="44.086213" lon="-114.464897"><ele>2135.5</ele></trkpt>
      <trkpt lat="44.086376" lon="-114.464442"><ele>2134.0</ele></trkpt>
      <trkpt lat="44.086610" lon="-114.464159"><ele>2131.0</ele></trkpt>
      <trkpt lat="44.086919" lon="-114.463746"><ele>2124.8</ele></trkpt>
      <trkpt lat="44.087542" lon="-114.462729"><ele>2115.5</ele></trkpt>
      <trkpt lat="44.087739" lon="-114.462145"><ele>2110.5</ele></trkpt>
      <trkpt lat="44.087838" lon="-114.461558"><ele>2107.0</ele></trkpt>
      <trkpt lat="44.088173" lon="-114.460975"><ele>2095.5</ele></trkpt>
      <trkpt lat="44.088329" lon="-114.460754"><ele>2091.0</ele></trkpt>
      <trkpt lat="44.088353" lon="-114.460341"><ele>2086.2</ele></trkpt>
      <trkpt lat="44.088494" lon="-114.459981"><ele>2081.2</ele></trkpt>
      <trkpt lat="44.088653" lon="-114.459656"><ele>2079.2</ele></trkpt>
      <trkpt lat="44.088798" lon="-114.459445"><ele>2077.0</ele></trkpt>
      <trkpt lat="44.088837" lon="-114.459215"><ele>2075.8</ele></trkpt>
      <trkpt lat="44.089056" lon="-114.458824"><ele>2069.8</ele></trkpt>
      <trkpt lat="44.089194" lon="-114.458611"><ele>2066.2</ele></trkpt>
      <trkpt lat="44.089338" lon="-114.458199"><ele>2062.2</ele></trkpt>
      <trkpt lat="44.089468" lon="-114.457944"><ele>2059.2</ele></trkpt>
      <trkpt lat="44.089460" lon="-114.457727"><ele>2056.2</ele></trkpt>
      <trkpt lat="44.089648" lon="-114.457072"><ele>2053.2</ele></trkpt>
      <trkpt lat="44.089888" lon="-114.456315"><ele>2049.2</ele></trkpt>
      <trkpt lat="44.089923" lon="-114.455845"><ele>2047.8</ele></trkpt>
      <trkpt lat="44.090024" lon="-114.455463"><ele>2044.8</ele></trkpt>
      <trkpt lat="44.090054" lon="-114.455161"><ele>2042.2</ele></trkpt>
      <trkpt lat="44.089941" lon="-114.454922"><ele>2038.5</ele></trkpt>
      <trkpt lat="44.089872" lon="-114.454702"><ele>2032.5</ele></trkpt>
      <trkpt lat="44.089911" lon="-114.454468"><ele>2027.5</ele></trkpt>
      <trkpt lat="44.089926" lon="-114.454136"><ele>2020.0</ele></trkpt>
      <trkpt lat="44.089853" lon="-114.453965"><ele>2015.2</ele></trkpt>
      <trkpt lat="44.089611" lon="-114.453902"><ele>2010.8</ele></trkpt>
      <trkpt lat="44.088853" lon="-114.454133"><ele>2003.8</ele></trkpt>
      <trkpt lat="44.088600" lon="-114.454092"><ele>1998.5</ele></trkpt>
      <trkpt lat="44.088010" lon="-114.454138"><ele>1985.5</ele></trkpt>
      <trkpt lat="44.087800" lon="-114.454212"><ele>1981.2</ele></trkpt>
      <trkpt lat="44.087577" lon="-114.454404"><ele>1980.0</ele></trkpt>
      <trkpt lat="44.087386" lon="-114.454601"><ele>1980.2</ele></trkpt>
      <trkpt lat="44.087216" lon="-114.454766"><ele>1980.2</ele></trkpt>
      <trkpt lat="44.087028" lon="-114.454763"><ele>1975.5</ele></trkpt>
      <trkpt lat="44.086853" lon="-114.454489"><ele>1966.2</ele></trkpt>
      <trkpt lat="44.086739" lon="-114.454243"><ele>1959.5</ele></trkpt>
      <trkpt lat="44.086687" lon="-114.453964"><ele>1955.0</ele></trkpt>
      <trkpt lat="44.086448" lon="-114.453623"><ele>1950.2</ele></trkpt>
      <trkpt lat="44.086246" lon="-114.453197"><ele>1945.8</ele></trkpt>
      <trkpt lat="44.085985" lon="-114.453032"><ele>1943.2</ele></trkpt>
      <trkpt lat="44.085920" lon="-114.452924"><ele>1942.0</ele></trkpt>
      <trkpt lat="44.086008" lon="-114.452810"><ele>1942.0</ele></trkpt>
      <trkpt lat="44.086190" lon="-114.452183"><ele>1940.0</ele></trkpt>
      <trkpt lat="44.086150" lon="-114.451698"><ele>1936.5</ele></trkpt>
      <trkpt lat="44.086101" lon="-114.451109"><ele>1935.8</ele></trkpt>
      <trkpt lat="44.086209" lon="-114.450670"><ele>1934.5</ele></trkpt>
      <trkpt lat="44.086266" lon="-114.450136"><ele>1934.0</ele></trkpt>
      <trkpt lat="44.086221" lon="-114.449800"><ele>1932.2</ele></trkpt>
      <trkpt lat="44.085999" lon="-114.449392"><ele>1927.0</ele></trkpt>
      <trkpt lat="44.085737" lon="-114.449388"><ele>1923.5</ele></trkpt>
      <trkpt lat="44.085509" lon="-114.449464"><ele>1919.5</ele></trkpt>
      <trkpt lat="44.085299" lon="-114.449683"><ele>1918.0</ele></trkpt>
      <trkpt lat="44.084917" lon="-114.449994"><ele>1913.8</ele></trkpt>
      <trkpt lat="44.084542" lon="-114.450248"><ele>1910.2</ele></trkpt>
      <trkpt lat="44.084298" lon="-114.450374"><ele>1906.2</ele></trkpt>
      <trkpt lat="44.084251" lon="-114.450354"><ele>1904.2</ele></trkpt>
    </trkseg>
  </trk>
</gpx>
