<?xml version="1.0" encoding="UTF-8"?>
<gpx version="1.1" creator="pathbeaters26" xmlns="http://www.topografix.com/GPX/1/1" xmlns:xsi="http://www.w3.org/2001/XMLSchema-instance" xsi:schemaLocation="http://www.topografix.com/GPX/1/1 http://www.topografix.com/GPX/1/1/gpx.xsd">
  <metadata>
    <name>Naturalist + Four Lakes + Grandaddy Basins (Highline loop)</name>
    <desc>Routed on OpenStreetMap trails with BRouter (hiking-mountain). Waypoints from OpenStreetMap.</desc>
  </metadata>
  <wpt lat="40.721990" lon="-110.864010">
    <ele>3165.8</ele>
    <name>Highline TH</name>
    <type>Trailhead</type>
  </wpt>
  <wpt lat="40.701320" lon="-110.850950">
    <ele>3070.8</ele>
    <name>Thu camp · Scudder Lake</name>
    <type>Camp</type>
  </wpt>
  <wpt lat="40.704530" lon="-110.797180">
    <ele>3253.8</ele>
    <name>Fri camp · Jordan Lake</name>
    <type>Camp</type>
  </wpt>
  <wpt lat="40.675570" lon="-110.767050">
    <ele>3285.2</ele>
    <name>Sat camp · Jean Lake</name>
    <type>Camp</type>
  </wpt>
  <wpt lat="40.704530" lon="-110.797180">
    <ele>3253.8</ele>
    <name>Sun camp · Jordan Lake</name>
    <type>Camp</type>
  </wpt>
  <wpt lat="40.705830" lon="-110.814630">
    <ele>3341.0</ele>
    <name>Blue Lake</name>
    <type>Waypoint</type>
  </wpt>
  <wpt lat="40.695010" lon="-110.769910">
    <ele>3437.2</ele>
    <name>Rocky Sea Pass</name>
    <type>Waypoint</type>
  </wpt>
  <wpt lat="40.678580" lon="-110.761360">
    <ele>3285.2</ele>
    <name>Dean Lake</name>
    <type>Waypoint</type>
  </wpt>
  <trk>
    <name>Naturalist + Four Lakes + Grandaddy Basins (Highline loop)</name>
    <!-- Thu: walk in to Scudder Lake (2.0 mi, 153 ft up) -->
    <trkseg>
      <trkpt lat="40.721989" lon="-110.864011"><ele>3165.8</ele></trkpt>
      <trkpt lat="40.721701" lon="-110.863893"><ele>3166.2</ele></trkpt>
      <trkpt lat="40.721516" lon="-110.863949"><ele>3164.0</ele></trkpt>
      <trkpt lat="40.721356" lon="-110.864378"><ele>3161.0</ele></trkpt>
      <trkpt lat="40.721110" lon="-110.865135"><ele>3155.2</ele></trkpt>
      <trkpt lat="40.721028" lon="-110.865261"><ele>3153.8</ele></trkpt>
      <trkpt lat="40.720785" lon="-110.865102"><ele>3151.0</ele></trkpt>
      <trkpt lat="40.720772" lon="-110.864821"><ele>3151.2</ele></trkpt>
      <trkpt lat="40.720604" lon="-110.864325"><ele>3149.8</ele></trkpt>
      <trkpt lat="40.720498" lon="-110.863944"><ele>3148.0</ele></trkpt>
      <trkpt lat="40.720343" lon="-110.863847"><ele>3145.2</ele></trkpt>
      <trkpt lat="40.719864" lon="-110.864110"><ele>3137.5</ele></trkpt>
      <trkpt lat="40.719799" lon="-110.864410"><ele>3136.2</ele></trkpt>
      <trkpt lat="40.719921" lon="-110.864909"><ele>3137.8</ele></trkpt>
      <trkpt lat="40.719843" lon="-110.864984"><ele>3136.5</ele></trkpt>
      <trkpt lat="40.719648" lon="-110.864738"><ele>3133.5</ele></trkpt>
      <trkpt lat="40.719494" lon="-110.864485"><ele>3131.2</ele></trkpt>
      <trkpt lat="40.719473" lon="-110.865076"><ele>3130.8</ele></trkpt>
      <trkpt lat="40.719384" lon="-110.865360"><ele>3130.5</ele></trkpt>
      <trkpt lat="40.719172" lon="-110.865515"><ele>3128.5</ele></trkpt>
      <trkpt lat="40.718782" lon="-110.865510"><ele>3126.0</ele></trkpt>
      <trkpt lat="40.718115" lon="-110.865081"><ele>3119.2</ele></trkpt>
      <trkpt lat="40.717762" lon="-110.864609"><ele>3116.5</ele></trkpt>
      <trkpt lat="40.717225" lon="-110.864078"><ele>3113.5</ele></trkpt>
      <trkpt lat="40.717018" lon="-110.863745"><ele>3112.2</ele></trkpt>
      <trkpt lat="40.716944" lon="-110.863230"><ele>3113.2</ele></trkpt>
      <trkpt lat="40.716440" lon="-110.862951"><ele>3107.8</ele></trkpt>
      <trkpt lat="40.716127" lon="-110.862688"><ele>3103.2</ele></trkpt>
      <trkpt lat="40.715729" lon="-110.862570"><ele>3098.2</ele></trkpt>
      <trkpt lat="40.715306" lon="-110.862522"><ele>3091.5</ele></trkpt>
      <trkpt lat="40.715159" lon="-110.862281"><ele>3090.2</ele></trkpt>
      <trkpt lat="40.715168" lon="-110.861669"><ele>3092.8</ele></trkpt>
      <trkpt lat="40.715005" lon="-110.860805"><ele>3093.8</ele></trkpt>
      <trkpt lat="40.714676" lon="-110.860124"><ele>3087.2</ele></trkpt>
      <trkpt lat="40.714484" lon="-110.859716"><ele>3083.8</ele></trkpt>
      <trkpt lat="40.714188" lon="-110.859507"><ele>3080.0</ele></trkpt>
      <trkpt lat="40.713826" lon="-110.858982"><ele>3076.5</ele></trkpt>
      <trkpt lat="40.713574" lon="-110.858703"><ele>3074.0</ele></trkpt>
      <trkpt lat="40.713305" lon="-110.858424"><ele>3071.5</ele></trkpt>
      <trkpt lat="40.712850" lon="-110.858290"><ele>3067.2</ele></trkpt>
      <trkpt lat="40.712647" lon="-110.858120"><ele>3065.0</ele></trkpt>
      <trkpt lat="40.711854" lon="-110.857855"><ele>3057.0</ele></trkpt>
      <trkpt lat="40.711504" lon="-110.857640"><ele>3052.2</ele></trkpt>
      <trkpt lat="40.711211" lon="-110.857394"><ele>3048.2</ele></trkpt>
      <trkpt lat="40.711077" lon="-110.857061"><ele>3046.0</ele></trkpt>
      <trkpt lat="40.710817" lon="-110.857034"><ele>3043.2</ele></trkpt>
      <trkpt lat="40.710512" lon="-110.856610"><ele>3039.8</ele></trkpt>
      <trkpt lat="40.710333" lon="-110.856562"><ele>3038.0</ele></trkpt>
      <trkpt lat="40.710203" lon="-110.856380"><ele>3037.0</ele></trkpt>
      <trkpt lat="40.709999" lon="-110.855967"><ele>3036.5</ele></trkpt>
      <trkpt lat="40.709963" lon="-110.855581"><ele>3039.2</ele></trkpt>
      <trkpt lat="40.709581" lon="-110.855071"><ele>3043.8</ele></trkpt>
      <trkpt lat="40.709129" lon="-110.854926"><ele>3044.8</ele></trkpt>
      <trkpt lat="40.708658" lon="-110.854674"><ele>3047.2</ele></trkpt>
      <trkpt lat="40.708166" lon="-110.854304"><ele>3049.2</ele></trkpt>
      <trkpt lat="40.707820" lon="-110.854180"><ele>3050.5</ele></trkpt>
      <trkpt lat="40.707620" lon="-110.854100"><ele>3050.8</ele></trkpt>
      <trkpt lat="40.707320" lon="-110.854164"><ele>3051.5</ele></trkpt>
      <trkpt lat="40.706449" lon="-110.853859"><ele>3055.5</ele></trkpt>
      <trkpt lat="40.705888" lon="-110.853467"><ele>3062.5</ele></trkpt>
      <trkpt lat="40.705697" lon="-110.853172"><ele>3065.5</ele></trkpt>
      <trkpt lat="40.705697" lon="-110.852914"><ele>3067.5</ele></trkpt>
      <trkpt lat="40.705486" lon="-110.852078"><ele>3073.0</ele></trkpt>
      <trkpt lat="40.705201" lon="-110.851284"><ele>3077.8</ele></trkpt>
      <trkpt lat="40.704945" lon="-110.851203"><ele>3079.2</ele></trkpt>
      <trkpt lat="40.704335" lon="-110.851074"><ele>3081.0</ele></trkpt>
      <trkpt lat="40.703981" lon="-110.851010"><ele>3080.0</ele></trkpt>
      <trkpt lat="40.703538" lon="-110.850919"><ele>3076.0</ele></trkpt>
      <trkpt lat="40.703090" lon="-110.850801"><ele>3073.2</ele></trkpt>
      <trkpt lat="40.702661" lon="-110.850746"><ele>3071.8</ele></trkpt>
      <trkpt lat="40.702512" lon="-110.850965"><ele>3070.8</ele></trkpt>
    </trkseg>
    <!-- Fri: Naturalist Basin, Blue Lake, camp Jordan Lake (6.5 mi, 1262 ft up) -->
    <trkseg>
      <trkpt lat="40.702512" lon="-110.850965"><ele>3070.8</ele></trkpt>
      <trkpt lat="40.702830" lon="-110.850715"><ele>3072.5</ele></trkpt>
      <trkpt lat="40.703371" lon="-110.850935"><ele>3074.2</ele></trkpt>
      <trkpt lat="40.703725" lon="-110.850972"><ele>3077.8</ele></trkpt>
      <trkpt lat="40.704205" lon="-110.851010"><ele>3081.5</ele></trkpt>
      <trkpt lat="40.703757" lon="-110.850538"><ele>3080.2</ele></trkpt>
      <trkpt lat="40.703513" lon="-110.850339"><ele>3079.2</ele></trkpt>
      <trkpt lat="40.703172" lon="-110.850120"><ele>3077.8</ele></trkpt>
      <trkpt lat="40.702582" lon="-110.849857"><ele>3075.5</ele></trkpt>
      <trkpt lat="40.701870" lon="-110.849438"><ele>3078.8</ele></trkpt>
      <trkpt lat="40.701378" lon="-110.849374"><ele>3079.0</ele></trkpt>
      <trkpt lat="40.700585" lon="-110.849342"><ele>3080.8</ele></trkpt>
      <trkpt lat="40.699926" lon="-110.849637"><ele>3077.8</ele></trkpt>
      <trkpt lat="40.699540" lon="-110.849556"><ele>3076.8</ele></trkpt>
      <trkpt lat="40.698710" lon="-110.849411"><ele>3071.5</ele></trkpt>
      <trkpt lat="40.698222" lon="-110.849068"><ele>3072.2</ele></trkpt>
      <trkpt lat="40.697596" lon="-110.848344"><ele>3072.0</ele></trkpt>
      <trkpt lat="40.697417" lon="-110.847722"><ele>3069.0</ele></trkpt>
      <trkpt lat="40.697482" lon="-110.847024"><ele>3068.8</ele></trkpt>
      <trkpt lat="40.697543" lon="-110.846445"><ele>3067.8</ele></trkpt>
      <trkpt lat="40.697709" lon="-110.846009"><ele>3068.0</ele></trkpt>
      <trkpt lat="40.697649" lon="-110.845560"><ele>3067.0</ele></trkpt>
      <trkpt lat="40.697555" lon="-110.845066"><ele>3068.0</ele></trkpt>
      <trkpt lat="40.697173" lon="-110.844825"><ele>3065.8</ele></trkpt>
      <trkpt lat="40.696396" lon="-110.844707"><ele>3065.0</ele></trkpt>
      <trkpt lat="40.695770" lon="-110.844219"><ele>3069.2</ele></trkpt>
      <trkpt lat="40.695078" lon="-110.843366"><ele>3078.8</ele></trkpt>
      <trkpt lat="40.695009" lon="-110.843049"><ele>3082.2</ele></trkpt>
      <trkpt lat="40.695103" lon="-110.842298"><ele>3086.5</ele></trkpt>
      <trkpt lat="40.694952" lon="-110.841338"><ele>3089.0</ele></trkpt>
      <trkpt lat="40.694997" lon="-110.840913"><ele>3087.2</ele></trkpt>
      <trkpt lat="40.695239" lon="-110.840107"><ele>3088.2</ele></trkpt>
      <trkpt lat="40.695249" lon="-110.839879"><ele>3088.5</ele></trkpt>
      <trkpt lat="40.694753" lon="-110.838457"><ele>3087.8</ele></trkpt>
      <trkpt lat="40.694379" lon="-110.836998"><ele>3089.8</ele></trkpt>
      <trkpt lat="40.694102" lon="-110.836172"><ele>3091.5</ele></trkpt>
      <trkpt lat="40.693569" lon="-110.835212"><ele>3096.0</ele></trkpt>
      <trkpt lat="40.693248" lon="-110.834262"><ele>3100.0</ele></trkpt>
      <trkpt lat="40.693277" lon="-110.832626"><ele>3106.0</ele></trkpt>
      <trkpt lat="40.693203" lon="-110.831822"><ele>3109.5</ele></trkpt>
      <trkpt lat="40.693077" lon="-110.831044"><ele>3114.2</ele></trkpt>
      <trkpt lat="40.692760" lon="-110.830727"><ele>3117.0</ele></trkpt>
      <trkpt lat="40.692264" lon="-110.830502"><ele>3121.0</ele></trkpt>
      <trkpt lat="40.691898" lon="-110.830566"><ele>3123.8</ele></trkpt>
      <trkpt lat="40.691861" lon="-110.830244"><ele>3126.5</ele></trkpt>
      <trkpt lat="40.692064" lon="-110.829504"><ele>3129.5</ele></trkpt>
      <trkpt lat="40.692182" lon="-110.829027"><ele>3132.0</ele></trkpt>
      <trkpt lat="40.692296" lon="-110.828501"><ele>3135.5</ele></trkpt>
      <trkpt lat="40.691727" lon="-110.826774"><ele>3134.5</ele></trkpt>
      <trkpt lat="40.691511" lon="-110.826382"><ele>3136.0</ele></trkpt>
      <trkpt lat="40.690747" lon="-110.825073"><ele>3139.8</ele></trkpt>
      <trkpt lat="40.690161" lon="-110.824290"><ele>3136.2</ele></trkpt>
      <trkpt lat="40.689396" lon="-110.823609"><ele>3132.8</ele></trkpt>
      <trkpt lat="40.689087" lon="-110.822933"><ele>3134.0</ele></trkpt>
      <trkpt lat="40.688652" lon="-110.822267"><ele>3133.5</ele></trkpt>
      <trkpt lat="40.688322" lon="-110.821457"><ele>3131.8</ele></trkpt>
      <trkpt lat="40.687956" lon="-110.820901"><ele>3127.5</ele></trkpt>
      <trkpt lat="40.687869" lon="-110.820663"><ele>3126.0</ele></trkpt>
      <trkpt lat="40.688135" lon="-110.820406"><ele>3129.2</ele></trkpt>
      <trkpt lat="40.688265" lon="-110.820138"><ele>3131.0</ele></trkpt>
      <trkpt lat="40.688554" lon="-110.819591"><ele>3133.5</ele></trkpt>
      <trkpt lat="40.688782" lon="-110.819263"><ele>3136.8</ele></trkpt>
      <trkpt lat="40.689050" lon="-110.818759"><ele>3138.2</ele></trkpt>
      <trkpt lat="40.689282" lon="-110.818518"><ele>3139.5</ele></trkpt>
      <trkpt lat="40.689547" lon="-110.818207"><ele>3142.5</ele></trkpt>
      <trkpt lat="40.689774" lon="-110.817928"><ele>3144.8</ele></trkpt>
      <trkpt lat="40.690075" lon="-110.817584"><ele>3147.0</ele></trkpt>
      <trkpt lat="40.690254" lon="-110.817397"><ele>3149.2</ele></trkpt>
      <trkpt lat="40.691072" lon="-110.816839"><ele>3159.5</ele></trkpt>
      <trkpt lat="40.691300" lon="-110.816619"><ele>3161.2</ele></trkpt>
      <trkpt lat="40.691528" lon="-110.816211"><ele>3160.8</ele></trkpt>
      <trkpt lat="40.691877" lon="-110.815680"><ele>3161.8</ele></trkpt>
      <trkpt lat="40.692186" lon="-110.815353"><ele>3165.5</ele></trkpt>
      <trkpt lat="40.692243" lon="-110.814671"><ele>3169.2</ele></trkpt>
      <trkpt lat="40.691975" lon="-110.814360"><ele>3169.2</ele></trkpt>
      <trkpt lat="40.691597" lon="-110.814092"><ele>3167.5</ele></trkpt>
      <trkpt lat="40.691670" lon="-110.813379"><ele>3174.5</ele></trkpt>
      <trkpt lat="40.691694" lon="-110.812976"><ele>3177.5</ele></trkpt>
      <trkpt lat="40.691715" lon="-110.812799"><ele>3179.0</ele></trkpt>
      <trkpt lat="40.692195" lon="-110.813019"><ele>3185.5</ele></trkpt>
      <trkpt lat="40.692801" lon="-110.812612"><ele>3197.2</ele></trkpt>
      <trkpt lat="40.693049" lon="-110.812048"><ele>3198.5</ele></trkpt>
      <trkpt lat="40.693293" lon="-110.811024"><ele>3191.8</ele></trkpt>
      <trkpt lat="40.693285" lon="-110.810749"><ele>3190.0</ele></trkpt>
      <trkpt lat="40.693526" lon="-110.810404"><ele>3191.0</ele></trkpt>
      <trkpt lat="40.693602" lon="-110.809956"><ele>3190.5</ele></trkpt>
      <trkpt lat="40.693714" lon="-110.809642"><ele>3190.2</ele></trkpt>
      <trkpt lat="40.693834" lon="-110.809578"><ele>3190.5</ele></trkpt>
      <trkpt lat="40.693826" lon="-110.809385"><ele>3189.8</ele></trkpt>
      <trkpt lat="40.693968" lon="-110.808940"><ele>3187.5</ele></trkpt>
      <trkpt lat="40.694023" lon="-110.808714"><ele>3185.5</ele></trkpt>
      <trkpt lat="40.694013" lon="-110.808433"><ele>3183.0</ele></trkpt>
      <trkpt lat="40.694108" lon="-110.808285"><ele>3181.8</ele></trkpt>
      <trkpt lat="40.694529" lon="-110.808231"><ele>3183.2</ele></trkpt>
      <trkpt lat="40.694865" lon="-110.808181"><ele>3185.0</ele></trkpt>
      <trkpt lat="40.695184" lon="-110.808197"><ele>3187.8</ele></trkpt>
      <trkpt lat="40.695465" lon="-110.808124"><ele>3190.8</ele></trkpt>
      <trkpt lat="40.695627" lon="-110.808148"><ele>3192.8</ele></trkpt>
      <trkpt lat="40.695827" lon="-110.808382"><ele>3196.2</ele></trkpt>
      <trkpt lat="40.696534" lon="-110.808602"><ele>3200.8</ele></trkpt>
      <trkpt lat="40.696979" lon="-110.808628"><ele>3200.5</ele></trkpt>
      <trkpt lat="40.697397" lon="-110.808730"><ele>3200.5</ele></trkpt>
      <trkpt lat="40.697474" lon="-110.808902"><ele>3202.5</ele></trkpt>
      <trkpt lat="40.697690" lon="-110.809103"><ele>3205.0</ele></trkpt>
      <trkpt lat="40.697753" lon="-110.809575"><ele>3205.8</ele></trkpt>
      <trkpt lat="40.697700" lon="-110.810125"><ele>3206.0</ele></trkpt>
      <trkpt lat="40.697637" lon="-110.810613"><ele>3205.0</ele></trkpt>
      <trkpt lat="40.697545" lon="-110.810876"><ele>3204.5</ele></trkpt>
      <trkpt lat="40.697598" lon="-110.811042"><ele>3206.5</ele></trkpt>
      <trkpt lat="40.697598" lon="-110.811364"><ele>3209.8</ele></trkpt>
      <trkpt lat="40.697626" lon="-110.811780"><ele>3213.0</ele></trkpt>
      <trkpt lat="40.697873" lon="-110.812016"><ele>3215.0</ele></trkpt>
      <trkpt lat="40.698204" lon="-110.812249"><ele>3216.2</ele></trkpt>
      <trkpt lat="40.698556" lon="-110.812349"><ele>3222.8</ele></trkpt>
      <trkpt lat="40.698818" lon="-110.812561"><ele>3229.0</ele></trkpt>
      <trkpt lat="40.698879" lon="-110.812810"><ele>3229.0</ele></trkpt>
      <trkpt lat="40.698875" lon="-110.812992"><ele>3227.8</ele></trkpt>
      <trkpt lat="40.699129" lon="-110.813076"><ele>3232.0</ele></trkpt>
      <trkpt lat="40.699294" lon="-110.813384"><ele>3235.5</ele></trkpt>
      <trkpt lat="40.699499" lon="-110.813414"><ele>3243.8</ele></trkpt>
      <trkpt lat="40.699914" lon="-110.813631"><ele>3261.0</ele></trkpt>
      <trkpt lat="40.700146" lon="-110.813470"><ele>3266.5</ele></trkpt>
      <trkpt lat="40.700278" lon="-110.813279"><ele>3268.8</ele></trkpt>
      <trkpt lat="40.700420" lon="-110.813167"><ele>3271.8</ele></trkpt>
      <trkpt lat="40.700488" lon="-110.812882"><ele>3273.5</ele></trkpt>
      <trkpt lat="40.700963" lon="-110.812933"><ele>3279.2</ele></trkpt>
      <trkpt lat="40.701596" lon="-110.812958"><ele>3281.8</ele></trkpt>
      <trkpt lat="40.701776" lon="-110.813021"><ele>3284.8</ele></trkpt>
      <trkpt lat="40.702055" lon="-110.812901"><ele>3292.0</ele></trkpt>
      <trkpt lat="40.702385" lon="-110.812805"><ele>3300.5</ele></trkpt>
      <trkpt lat="40.702625" lon="-110.812665"><ele>3307.8</ele></trkpt>
      <trkpt lat="40.702824" lon="-110.812848"><ele>3313.5</ele></trkpt>
      <trkpt lat="40.703056" lon="-110.812936"><ele>3320.8</ele></trkpt>
      <trkpt lat="40.703223" lon="-110.813006"><ele>3325.8</ele></trkpt>
      <trkpt lat="40.703680" lon="-110.812850"><ele>3331.5</ele></trkpt>
      <trkpt lat="40.703950" lon="-110.812756"><ele>3332.8</ele></trkpt>
      <trkpt lat="40.704251" lon="-110.812645"><ele>3334.5</ele></trkpt>
      <trkpt lat="40.704578" lon="-110.812588"><ele>3336.2</ele></trkpt>
      <trkpt lat="40.704725" lon="-110.812555"><ele>3337.2</ele></trkpt>
      <trkpt lat="40.705107" lon="-110.812791"><ele>3339.8</ele></trkpt>
      <trkpt lat="40.705490" lon="-110.813051"><ele>3342.2</ele></trkpt>
      <trkpt lat="40.705772" lon="-110.813161"><ele>3343.5</ele></trkpt>
      <trkpt lat="40.706305" lon="-110.813507"><ele>3342.8</ele></trkpt>
      <trkpt lat="40.706571" lon="-110.813851"><ele>3341.0</ele></trkpt>
      <trkpt lat="40.706571" lon="-110.813851"><ele>3341.0</ele></trkpt>
      <trkpt lat="40.706305" lon="-110.813507"><ele>3342.8</ele></trkpt>
      <trkpt lat="40.705772" lon="-110.813161"><ele>3343.5</ele></trkpt>
      <trkpt lat="40.705490" lon="-110.813051"><ele>3342.2</ele></trkpt>
      <trkpt lat="40.705107" lon="-110.812791"><ele>3339.8</ele></trkpt>
      <trkpt lat="40.704725" lon="-110.812555"><ele>3337.2</ele></trkpt>
      <trkpt lat="40.704578" lon="-110.812588"><ele>3336.2</ele></trkpt>
      <trkpt lat="40.704251" lon="-110.812645"><ele>3334.5</ele></trkpt>
      <trkpt lat="40.703950" lon="-110.812756"><ele>3332.8</ele></trkpt>
      <trkpt lat="40.703680" lon="-110.812850"><ele>3331.5</ele></trkpt>
      <trkpt lat="40.703223" lon="-110.813006"><ele>3325.8</ele></trkpt>
      <trkpt lat="40.703056" lon="-110.812936"><ele>3320.8</ele></trkpt>
      <trkpt lat="40.702824" lon="-110.812848"><ele>3313.5</ele></trkpt>
      <trkpt lat="40.702625" lon="-110.812665"><ele>3307.8</ele></trkpt>
      <trkpt lat="40.702385" lon="-110.812805"><ele>3300.5</ele></trkpt>
      <trkpt lat="40.702055" lon="-110.812901"><ele>3292.0</ele></trkpt>
      <trkpt lat="40.701776" lon="-110.813021"><ele>3284.8</ele></trkpt>
      <trkpt lat="40.701596" lon="-110.812958"><ele>3281.8</ele></trkpt>
      <trkpt lat="40.700963" lon="-110.812933"><ele>3279.2</ele></trkpt>
      <trkpt lat="40.700488" lon="-110.812882"><ele>3273.5</ele></trkpt>
      <trkpt lat="40.700420" lon="-110.813167"><ele>3271.8</ele></trkpt>
      <trkpt lat="40.700278" lon="-110.813279"><ele>3268.8</ele></trkpt>
      <trkpt lat="40.700146" lon="-110.813470"><ele>3266.5</ele></trkpt>
      <trkpt lat="40.699914" lon="-110.813631"><ele>3261.0</ele></trkpt>
      <trkpt lat="40.699499" lon="-110.813414"><ele>3243.8</ele></trkpt>
      <trkpt lat="40.699294" lon="-110.813384"><ele>3235.5</ele></trkpt>
      <trkpt lat="40.699129" lon="-110.813076"><ele>3232.0</ele></trkpt>
      <trkpt lat="40.698875" lon="-110.812992"><ele>3227.8</ele></trkpt>
      <trkpt lat="40.698879" lon="-110.812810"><ele>3229.0</ele></trkpt>
      <trkpt lat="40.698818" lon="-110.812561"><ele>3229.0</ele></trkpt>
      <trkpt lat="40.698556" lon="-110.812349"><ele>3222.8</ele></trkpt>
      <trkpt lat="40.698204" lon="-110.812249"><ele>3216.2</ele></trkpt>
      <trkpt lat="40.697873" lon="-110.812016"><ele>3215.0</ele></trkpt>
      <trkpt lat="40.697626" lon="-110.811780"><ele>3213.0</ele></trkpt>
      <trkpt lat="40.697598" lon="-110.811364"><ele>3209.8</ele></trkpt>
      <trkpt lat="40.697598" lon="-110.811042"><ele>3206.5</ele></trkpt>
      <trkpt lat="40.697545" lon="-110.810876"><ele>3204.5</ele></trkpt>
      <trkpt lat="40.697637" lon="-110.810613"><ele>3205.0</ele></trkpt>
      <trkpt lat="40.697700" lon="-110.810125"><ele>3206.0</ele></trkpt>
      <trkpt lat="40.697753" lon="-110.809575"><ele>3205.8</ele></trkpt>
      <trkpt lat="40.697690" lon="-110.809103"><ele>3205.0</ele></trkpt>
      <trkpt lat="40.697474" lon="-110.808902"><ele>3202.5</ele></trkpt>
      <trkpt lat="40.697397" lon="-110.808730"><ele>3200.5</ele></trkpt>
      <trkpt lat="40.696979" lon="-110.808628"><ele>3200.5</ele></trkpt>
      <trkpt lat="40.696858" lon="-110.808484"><ele>3198.8</ele></trkpt>
      <trkpt lat="40.697061" lon="-110.808313"><ele>3196.0</ele></trkpt>
      <trkpt lat="40.697096" lon="-110.808177"><ele>3195.8</ele></trkpt>
      <trkpt lat="40.697283" lon="-110.807902"><ele>3194.8</ele></trkpt>
      <trkpt lat="40.697224" lon="-110.807708"><ele>3194.8</ele></trkpt>
      <trkpt lat="40.697075" lon="-110.807459"><ele>3195.5</ele></trkpt>
      <trkpt lat="40.697134" lon="-110.807193"><ele>3196.2</ele></trkpt>
      <trkpt lat="40.697360" lon="-110.806888"><ele>3196.0</ele></trkpt>
      <trkpt lat="40.697634" lon="-110.806623"><ele>3195.2</ele></trkpt>
      <trkpt lat="40.697730" lon="-110.806424"><ele>3195.5</ele></trkpt>
      <trkpt lat="40.697736" lon="-110.806091"><ele>3196.5</ele></trkpt>
      <trkpt lat="40.697659" lon="-110.805882"><ele>3197.0</ele></trkpt>
      <trkpt lat="40.697882" lon="-110.805281"><ele>3198.2</ele></trkpt>
      <trkpt lat="40.698155" lon="-110.804627"><ele>3199.0</ele></trkpt>
      <trkpt lat="40.698155" lon="-110.804160"><ele>3198.5</ele></trkpt>
      <trkpt lat="40.698293" lon="-110.803704"><ele>3200.8</ele></trkpt>
      <trkpt lat="40.698289" lon="-110.803513"><ele>3202.0</ele></trkpt>
      <trkpt lat="40.698342" lon="-110.803331"><ele>3203.0</ele></trkpt>
      <trkpt lat="40.698159" lon="-110.802698"><ele>3207.2</ele></trkpt>
      <trkpt lat="40.698117" lon="-110.802451"><ele>3208.5</ele></trkpt>
      <trkpt lat="40.698117" lon="-110.802218"><ele>3208.8</ele></trkpt>
      <trkpt lat="40.698125" lon="-110.801923"><ele>3209.2</ele></trkpt>
      <trkpt lat="40.698356" lon="-110.801609"><ele>3207.0</ele></trkpt>
      <trkpt lat="40.698318" lon="-110.801046"><ele>3207.8</ele></trkpt>
      <trkpt lat="40.698352" lon="-110.800764"><ele>3208.2</ele></trkpt>
      <trkpt lat="40.698550" lon="-110.800241"><ele>3211.0</ele></trkpt>
      <trkpt lat="40.698513" lon="-110.800083"><ele>3211.8</ele></trkpt>
      <trkpt lat="40.698623" lon="-110.799721"><ele>3213.8</ele></trkpt>
      <trkpt lat="40.698960" lon="-110.799608"><ele>3214.2</ele></trkpt>
      <trkpt lat="40.699087" lon="-110.799437"><ele>3216.0</ele></trkpt>
      <trkpt lat="40.699188" lon="-110.799195"><ele>3219.0</ele></trkpt>
      <trkpt lat="40.699341" lon="-110.799050"><ele>3222.5</ele></trkpt>
      <trkpt lat="40.699296" lon="-110.798871"><ele>3222.8</ele></trkpt>
      <trkpt lat="40.699379" lon="-110.798468"><ele>3227.0</ele></trkpt>
      <trkpt lat="40.699493" lon="-110.798369"><ele>3229.8</ele></trkpt>
      <trkpt lat="40.699668" lon="-110.798511"><ele>3232.0</ele></trkpt>
      <trkpt lat="40.699806" lon="-110.798479"><ele>3234.8</ele></trkpt>
      <trkpt lat="40.699928" lon="-110.798162"><ele>3238.5</ele></trkpt>
      <trkpt lat="40.700036" lon="-110.798246"><ele>3240.5</ele></trkpt>
      <trkpt lat="40.700195" lon="-110.798492"><ele>3241.8</ele></trkpt>
      <trkpt lat="40.700551" lon="-110.798549"><ele>3247.5</ele></trkpt>
      <trkpt lat="40.701016" lon="-110.798854"><ele>3250.0</ele></trkpt>
      <trkpt lat="40.701354" lon="-110.798838"><ele>3251.5</ele></trkpt>
      <trkpt lat="40.701695" lon="-110.798694"><ele>3253.8</ele></trkpt>
      <trkpt lat="40.701921" lon="-110.798798"><ele>3253.0</ele></trkpt>
      <trkpt lat="40.702183" lon="-110.798836"><ele>3252.8</ele></trkpt>
      <trkpt lat="40.702493" lon="-110.798758"><ele>3253.2</ele></trkpt>
      <trkpt lat="40.702789" lon="-110.798873"><ele>3252.2</ele></trkpt>
      <trkpt lat="40.702954" lon="-110.798567"><ele>3253.2</ele></trkpt>
      <trkpt lat="40.703160" lon="-110.798447"><ele>3253.2</ele></trkpt>
      <trkpt lat="40.703353" lon="-110.798278"><ele>3253.0</ele></trkpt>
      <trkpt lat="40.703538" lon="-110.797988"><ele>3253.2</ele></trkpt>
      <trkpt lat="40.703663" lon="-110.797609"><ele>3253.5</ele></trkpt>
      <trkpt lat="40.703647" lon="-110.797470"><ele>3253.8</ele></trkpt>
    </trkseg>
    <!-- Sat: Rocky Sea Pass to Four Lakes Basin (8.6 mi, 1637 ft up) -->
    <trkseg>
      <trkpt lat="40.703647" lon="-110.797470"><ele>3253.8</ele></trkpt>
      <trkpt lat="40.703645" lon="-110.797749"><ele>3253.2</ele></trkpt>
      <trkpt lat="40.703497" lon="-110.798176"><ele>3252.8</ele></trkpt>
      <trkpt lat="40.703227" lon="-110.798339"><ele>3253.2</ele></trkpt>
      <trkpt lat="40.703038" lon="-110.798487"><ele>3253.2</ele></trkpt>
      <trkpt lat="40.702861" lon="-110.798750"><ele>3252.8</ele></trkpt>
      <trkpt lat="40.702730" lon="-110.798907"><ele>3252.2</ele></trkpt>
      <trkpt lat="40.702383" lon="-110.798758"><ele>3253.2</ele></trkpt>
      <trkpt lat="40.702066" lon="-110.798787"><ele>3253.0</ele></trkpt>
      <trkpt lat="40.701815" lon="-110.798659"><ele>3254.0</ele></trkpt>
      <trkpt lat="40.701598" lon="-110.798672"><ele>3253.8</ele></trkpt>
      <trkpt lat="40.701173" lon="-110.798892"><ele>3250.2</ele></trkpt>
      <trkpt lat="40.700687" lon="-110.798702"><ele>3248.2</ele></trkpt>
      <trkpt lat="40.700311" lon="-110.798581"><ele>3243.0</ele></trkpt>
      <trkpt lat="40.700097" lon="-110.798380"><ele>3241.2</ele></trkpt>
      <trkpt lat="40.699987" lon="-110.798168"><ele>3239.5</ele></trkpt>
      <trkpt lat="40.699851" lon="-110.798238"><ele>3237.0</ele></trkpt>
      <trkpt lat="40.699743" lon="-110.798530"><ele>3233.2</ele></trkpt>
      <trkpt lat="40.699556" lon="-110.798374"><ele>3231.0</ele></trkpt>
      <trkpt lat="40.699432" lon="-110.798447"><ele>3228.2</ele></trkpt>
      <trkpt lat="40.699306" lon="-110.798632"><ele>3224.5</ele></trkpt>
      <trkpt lat="40.699329" lon="-110.798932"><ele>3223.0</ele></trkpt>
      <trkpt lat="40.699298" lon="-110.799141"><ele>3221.0</ele></trkpt>
      <trkpt lat="40.699143" lon="-110.799394"><ele>3216.5</ele></trkpt>
      <trkpt lat="40.699046" lon="-110.799541"><ele>3214.8</ele></trkpt>
      <trkpt lat="40.698729" lon="-110.799638"><ele>3214.2</ele></trkpt>
      <trkpt lat="40.698531" lon="-110.799890"><ele>3212.8</ele></trkpt>
      <trkpt lat="40.698546" lon="-110.800171"><ele>3211.2</ele></trkpt>
      <trkpt lat="40.698476" lon="-110.800528"><ele>3209.8</ele></trkpt>
      <trkpt lat="40.698316" lon="-110.800971"><ele>3208.0</ele></trkpt>
      <trkpt lat="40.698395" lon="-110.801333"><ele>3207.2</ele></trkpt>
      <trkpt lat="40.698243" lon="-110.801741"><ele>3208.0</ele></trkpt>
      <trkpt lat="40.698096" lon="-110.802081"><ele>3209.2</ele></trkpt>
      <trkpt lat="40.698077" lon="-110.802367"><ele>3209.0</ele></trkpt>
      <trkpt lat="40.698109" lon="-110.802547"><ele>3208.2</ele></trkpt>
      <trkpt lat="40.698171" lon="-110.802832"><ele>3206.2</ele></trkpt>
      <trkpt lat="40.698346" lon="-110.803409"><ele>3202.8</ele></trkpt>
      <trkpt lat="40.698271" lon="-110.803599"><ele>3201.5</ele></trkpt>
      <trkpt lat="40.698200" lon="-110.803975"><ele>3199.5</ele></trkpt>
      <trkpt lat="40.698180" lon="-110.804372"><ele>3198.8</ele></trkpt>
      <trkpt lat="40.698048" lon="-110.804905"><ele>3199.2</ele></trkpt>
      <trkpt lat="40.697763" lon="-110.805616"><ele>3197.5</ele></trkpt>
      <trkpt lat="40.697663" lon="-110.805968"><ele>3196.8</ele></trkpt>
      <trkpt lat="40.697765" lon="-110.806188"><ele>3196.0</ele></trkpt>
      <trkpt lat="40.697688" lon="-110.806540"><ele>3195.2</ele></trkpt>
      <trkpt lat="40.697417" lon="-110.806732"><ele>3196.2</ele></trkpt>
      <trkpt lat="40.697338" lon="-110.806995"><ele>3195.8</ele></trkpt>
      <trkpt lat="40.697069" lon="-110.807317"><ele>3196.0</ele></trkpt>
      <trkpt lat="40.697145" lon="-110.807660"><ele>3195.2</ele></trkpt>
      <trkpt lat="40.697269" lon="-110.807770"><ele>3194.8</ele></trkpt>
      <trkpt lat="40.697252" lon="-110.808006"><ele>3195.0</ele></trkpt>
      <trkpt lat="40.697064" lon="-110.808261"><ele>3196.0</ele></trkpt>
      <trkpt lat="40.697059" lon="-110.808348"><ele>3196.2</ele></trkpt>
      <trkpt lat="40.696758" lon="-110.808594"><ele>3200.8</ele></trkpt>
      <trkpt lat="40.695996" lon="-110.808409"><ele>3197.0</ele></trkpt>
      <trkpt lat="40.695727" lon="-110.808288"><ele>3194.5</ele></trkpt>
      <trkpt lat="40.695573" lon="-110.808127"><ele>3192.0</ele></trkpt>
      <trkpt lat="40.695326" lon="-110.808234"><ele>3189.5</ele></trkpt>
      <trkpt lat="40.695007" lon="-110.808215"><ele>3185.8</ele></trkpt>
      <trkpt lat="40.694714" lon="-110.808218"><ele>3184.2</ele></trkpt>
      <trkpt lat="40.694330" lon="-110.808288"><ele>3182.5</ele></trkpt>
      <trkpt lat="40.694053" lon="-110.808325"><ele>3182.0</ele></trkpt>
      <trkpt lat="40.693998" lon="-110.808602"><ele>3184.5</ele></trkpt>
      <trkpt lat="40.694021" lon="-110.808859"><ele>3186.8</ele></trkpt>
      <trkpt lat="40.693940" lon="-110.809149"><ele>3189.2</ele></trkpt>
      <trkpt lat="40.693819" lon="-110.809479"><ele>3190.0</ele></trkpt>
      <trkpt lat="40.693805" lon="-110.809621"><ele>3190.5</ele></trkpt>
      <trkpt lat="40.693661" lon="-110.809707"><ele>3190.0</ele></trkpt>
      <trkpt lat="40.693576" lon="-110.810179"><ele>3190.8</ele></trkpt>
      <trkpt lat="40.693419" lon="-110.810565"><ele>3190.2</ele></trkpt>
      <trkpt lat="40.693260" lon="-110.810857"><ele>3190.2</ele></trkpt>
      <trkpt lat="40.693167" lon="-110.811260"><ele>3194.0</ele></trkpt>
      <trkpt lat="40.692919" lon="-110.812182"><ele>3198.2</ele></trkpt>
      <trkpt lat="40.692528" lon="-110.813009"><ele>3191.0</ele></trkpt>
      <trkpt lat="40.691816" lon="-110.812831"><ele>3180.5</ele></trkpt>
      <trkpt lat="40.691682" lon="-110.812880"><ele>3177.8</ele></trkpt>
      <trkpt lat="40.691654" lon="-110.813105"><ele>3176.0</ele></trkpt>
      <trkpt lat="40.691576" lon="-110.813899"><ele>3168.8</ele></trkpt>
      <trkpt lat="40.691698" lon="-110.814194"><ele>3168.0</ele></trkpt>
      <trkpt lat="40.692154" lon="-110.814505"><ele>3170.0</ele></trkpt>
      <trkpt lat="40.692280" lon="-110.814929"><ele>3166.8</ele></trkpt>
      <trkpt lat="40.692097" lon="-110.815514"><ele>3164.5</ele></trkpt>
      <trkpt lat="40.691755" lon="-110.815937"><ele>3161.0</ele></trkpt>
      <trkpt lat="40.691479" lon="-110.816377"><ele>3161.5</ele></trkpt>
      <trkpt lat="40.691162" lon="-110.816715"><ele>3160.0</ele></trkpt>
      <trkpt lat="40.690759" lon="-110.817123"><ele>3157.2</ele></trkpt>
      <trkpt lat="40.690165" lon="-110.817520"><ele>3148.2</ele></trkpt>
      <trkpt lat="40.689925" lon="-110.817815"><ele>3146.2</ele></trkpt>
      <trkpt lat="40.689713" lon="-110.818040"><ele>3144.5</ele></trkpt>
      <trkpt lat="40.689445" lon="-110.818400"><ele>3141.8</ele></trkpt>
      <trkpt lat="40.689152" lon="-110.818711"><ele>3139.2</ele></trkpt>
      <trkpt lat="40.688945" lon="-110.818936"><ele>3138.0</ele></trkpt>
      <trkpt lat="40.688652" lon="-110.819392"><ele>3134.8</ele></trkpt>
      <trkpt lat="40.688465" lon="-110.819682"><ele>3132.5</ele></trkpt>
      <trkpt lat="40.688176" lon="-110.820267"><ele>3129.8</ele></trkpt>
      <trkpt lat="40.688087" lon="-110.820453"><ele>3128.8</ele></trkpt>
      <trkpt lat="40.687716" lon="-110.820138"><ele>3123.2</ele></trkpt>
      <trkpt lat="40.687521" lon="-110.819526"><ele>3122.2</ele></trkpt>
      <trkpt lat="40.687175" lon="-110.818368"><ele>3123.2</ele></trkpt>
      <trkpt lat="40.687037" lon="-110.816721"><ele>3130.0</ele></trkpt>
      <trkpt lat="40.686862" lon="-110.815589"><ele>3130.2</ele></trkpt>
      <trkpt lat="40.686972" lon="-110.815256"><ele>3131.0</ele></trkpt>
      <trkpt lat="40.687383" lon="-110.814650"><ele>3134.2</ele></trkpt>
      <trkpt lat="40.687460" lon="-110.814194"><ele>3134.5</ele></trkpt>
      <trkpt lat="40.687322" lon="-110.813819"><ele>3133.5</ele></trkpt>
      <trkpt lat="40.687578" lon="-110.812837"><ele>3140.0</ele></trkpt>
      <trkpt lat="40.687911" lon="-110.811903"><ele>3145.0</ele></trkpt>
      <trkpt lat="40.687985" lon="-110.811388"><ele>3146.5</ele></trkpt>
      <trkpt lat="40.687761" lon="-110.810675"><ele>3144.8</ele></trkpt>
      <trkpt lat="40.687456" lon="-110.809441"><ele>3131.8</ele></trkpt>
      <trkpt lat="40.687314" lon="-110.808486"><ele>3117.2</ele></trkpt>
      <trkpt lat="40.687248" lon="-110.807805"><ele>3113.0</ele></trkpt>
      <trkpt lat="40.687448" lon="-110.807478"><ele>3114.5</ele></trkpt>
      <trkpt lat="40.687452" lon="-110.807322"><ele>3114.8</ele></trkpt>
      <trkpt lat="40.687281" lon="-110.806716"><ele>3116.8</ele></trkpt>
      <trkpt lat="40.687338" lon="-110.806416"><ele>3117.8</ele></trkpt>
      <trkpt lat="40.687240" lon="-110.806099"><ele>3119.2</ele></trkpt>
      <trkpt lat="40.686838" lon="-110.805262"><ele>3120.0</ele></trkpt>
      <trkpt lat="40.686419" lon="-110.804667"><ele>3112.0</ele></trkpt>
      <trkpt lat="40.686427" lon="-110.804286"><ele>3111.2</ele></trkpt>
      <trkpt lat="40.686256" lon="-110.803589"><ele>3104.8</ele></trkpt>
      <trkpt lat="40.685947" lon="-110.802934"><ele>3096.2</ele></trkpt>
      <trkpt lat="40.685691" lon="-110.802687"><ele>3092.0</ele></trkpt>
      <trkpt lat="40.685662" lon="-110.802451"><ele>3092.0</ele></trkpt>
      <trkpt lat="40.685658" lon="-110.802183"><ele>3091.8</ele></trkpt>
      <trkpt lat="40.685333" lon="-110.801352"><ele>3089.5</ele></trkpt>
      <trkpt lat="40.685333" lon="-110.800987"><ele>3089.8</ele></trkpt>
      <trkpt lat="40.685259" lon="-110.799946"><ele>3086.5</ele></trkpt>
      <trkpt lat="40.685389" lon="-110.799023"><ele>3087.5</ele></trkpt>
      <trkpt lat="40.685634" lon="-110.798095"><ele>3086.0</ele></trkpt>
      <trkpt lat="40.685532" lon="-110.797511"><ele>3080.8</ele></trkpt>
      <trkpt lat="40.685589" lon="-110.797130"><ele>3079.5</ele></trkpt>
      <trkpt lat="40.685589" lon="-110.796888"><ele>3078.0</ele></trkpt>
      <trkpt lat="40.686024" lon="-110.796030"><ele>3083.2</ele></trkpt>
      <trkpt lat="40.686431" lon="-110.795102"><ele>3094.2</ele></trkpt>
      <trkpt lat="40.686687" lon="-110.794582"><ele>3102.8</ele></trkpt>
      <trkpt lat="40.686846" lon="-110.794131"><ele>3109.2</ele></trkpt>
      <trkpt lat="40.686960" lon="-110.793938"><ele>3113.0</ele></trkpt>
      <trkpt lat="40.686842" lon="-110.793402"><ele>3117.0</ele></trkpt>
      <trkpt lat="40.686675" lon="-110.792833"><ele>3122.5</ele></trkpt>
      <trkpt lat="40.686411" lon="-110.792173"><ele>3130.8</ele></trkpt>
      <trkpt lat="40.686288" lon="-110.791551"><ele>3140.0</ele></trkpt>
      <trkpt lat="40.686358" lon="-110.791116"><ele>3142.2</ele></trkpt>
      <trkpt lat="40.686223" lon="-110.790789"><ele>3144.5</ele></trkpt>
      <trkpt lat="40.686045" lon="-110.790657"><ele>3145.2</ele></trkpt>
      <trkpt lat="40.685857" lon="-110.790805"><ele>3145.8</ele></trkpt>
      <trkpt lat="40.685434" lon="-110.791095"><ele>3146.8</ele></trkpt>
      <trkpt lat="40.685145" lon="-110.791336"><ele>3147.5</ele></trkpt>
      <trkpt lat="40.684865" lon="-110.791476"><ele>3150.0</ele></trkpt>
      <trkpt lat="40.684429" lon="-110.791722"><ele>3154.2</ele></trkpt>
      <trkpt lat="40.684071" lon="-110.791800"><ele>3157.5</ele></trkpt>
      <trkpt lat="40.683791" lon="-110.791824"><ele>3157.5</ele></trkpt>
      <trkpt lat="40.683492" lon="-110.791535"><ele>3162.5</ele></trkpt>
      <trkpt lat="40.683311" lon="-110.790950"><ele>3172.8</ele></trkpt>
      <trkpt lat="40.683404" lon="-110.790553"><ele>3178.5</ele></trkpt>
      <trkpt lat="40.683381" lon="-110.790029"><ele>3186.0</ele></trkpt>
      <trkpt lat="40.683421" lon="-110.789743"><ele>3189.0</ele></trkpt>
      <trkpt lat="40.683322" lon="-110.789492"><ele>3192.2</ele></trkpt>
      <trkpt lat="40.682987" lon="-110.789220"><ele>3195.2</ele></trkpt>
      <trkpt lat="40.682560" lon="-110.788708"><ele>3198.0</ele></trkpt>
      <trkpt lat="40.682201" lon="-110.788028"><ele>3198.8</ele></trkpt>
      <trkpt lat="40.682207" lon="-110.787557"><ele>3202.0</ele></trkpt>
      <trkpt lat="40.682428" lon="-110.787064"><ele>3204.0</ele></trkpt>
      <trkpt lat="40.682566" lon="-110.786621"><ele>3206.2</ele></trkpt>
      <trkpt lat="40.682566" lon="-110.785993"><ele>3212.2</ele></trkpt>
      <trkpt lat="40.682522" lon="-110.785451"><ele>3217.8</ele></trkpt>
      <trkpt lat="40.682534" lon="-110.784855"><ele>3224.5</ele></trkpt>
      <trkpt lat="40.682423" lon="-110.784460"><ele>3227.8</ele></trkpt>
      <trkpt lat="40.682283" lon="-110.784195"><ele>3230.0</ele></trkpt>
      <trkpt lat="40.682070" lon="-110.783993"><ele>3231.0</ele></trkpt>
      <trkpt lat="40.682066" lon="-110.783504"><ele>3234.2</ele></trkpt>
      <trkpt lat="40.682137" lon="-110.783126"><ele>3235.8</ele></trkpt>
      <trkpt lat="40.682083" lon="-110.782801"><ele>3236.2</ele></trkpt>
      <trkpt lat="40.682070" lon="-110.782297"><ele>3238.0</ele></trkpt>
      <trkpt lat="40.682200" lon="-110.781616"><ele>3241.0</ele></trkpt>
      <trkpt lat="40.682405" lon="-110.781260"><ele>3242.8</ele></trkpt>
      <trkpt lat="40.682477" lon="-110.780677"><ele>3245.0</ele></trkpt>
      <trkpt lat="40.682650" lon="-110.779742"><ele>3247.2</ele></trkpt>
      <trkpt lat="40.682945" lon="-110.779042"><ele>3250.0</ele></trkpt>
      <trkpt lat="40.683014" lon="-110.778590"><ele>3253.0</ele></trkpt>
      <trkpt lat="40.683225" lon="-110.778435"><ele>3254.8</ele></trkpt>
      <trkpt lat="40.683432" lon="-110.778206"><ele>3256.8</ele></trkpt>
      <trkpt lat="40.683735" lon="-110.777749"><ele>3259.8</ele></trkpt>
      <trkpt lat="40.683835" lon="-110.777560"><ele>3260.5</ele></trkpt>
      <trkpt lat="40.683700" lon="-110.777195"><ele>3262.0</ele></trkpt>
      <trkpt lat="40.683707" lon="-110.776956"><ele>3262.8</ele></trkpt>
      <trkpt lat="40.683522" lon="-110.775984"><ele>3265.2</ele></trkpt>
      <trkpt lat="40.683697" lon="-110.775318"><ele>3275.8</ele></trkpt>
      <trkpt lat="40.683811" lon="-110.775234"><ele>3277.5</ele></trkpt>
      <trkpt lat="40.683963" lon="-110.775264"><ele>3277.5</ele></trkpt>
      <trkpt lat="40.684351" lon="-110.775512"><ele>3279.2</ele></trkpt>
      <trkpt lat="40.684481" lon="-110.775348"><ele>3283.2</ele></trkpt>
      <trkpt lat="40.684742" lon="-110.775062"><ele>3290.2</ele></trkpt>
      <trkpt lat="40.684820" lon="-110.775364"><ele>3290.0</ele></trkpt>
      <trkpt lat="40.684926" lon="-110.775511"><ele>3291.5</ele></trkpt>
      <trkpt lat="40.685123" lon="-110.775050"><ele>3297.0</ele></trkpt>
      <trkpt lat="40.685343" lon="-110.775076"><ele>3300.8</ele></trkpt>
      <trkpt lat="40.685621" lon="-110.775238"><ele>3305.5</ele></trkpt>
      <trkpt lat="40.685845" lon="-110.775302"><ele>3309.2</ele></trkpt>
      <trkpt lat="40.686197" lon="-110.775158"><ele>3313.0</ele></trkpt>
      <trkpt lat="40.686508" lon="-110.774524"><ele>3315.5</ele></trkpt>
      <trkpt lat="40.686801" lon="-110.773886"><ele>3320.2</ele></trkpt>
      <trkpt lat="40.686968" lon="-110.773488"><ele>3323.8</ele></trkpt>
      <trkpt lat="40.687212" lon="-110.773280"><ele>3326.5</ele></trkpt>
      <trkpt lat="40.687589" lon="-110.773154"><ele>3330.2</ele></trkpt>
      <trkpt lat="40.688005" lon="-110.772965"><ele>3334.2</ele></trkpt>
      <trkpt lat="40.688260" lon="-110.772819"><ele>3335.8</ele></trkpt>
      <trkpt lat="40.688545" lon="-110.772640"><ele>3337.5</ele></trkpt>
      <trkpt lat="40.688689" lon="-110.772477"><ele>3339.0</ele></trkpt>
      <trkpt lat="40.689137" lon="-110.772317"><ele>3342.5</ele></trkpt>
      <trkpt lat="40.689298" lon="-110.772342"><ele>3343.8</ele></trkpt>
      <trkpt lat="40.689530" lon="-110.772441"><ele>3346.2</ele></trkpt>
      <trkpt lat="40.689803" lon="-110.772636"><ele>3349.2</ele></trkpt>
      <trkpt lat="40.690053" lon="-110.772617"><ele>3353.0</ele></trkpt>
      <trkpt lat="40.690348" lon="-110.772834"><ele>3356.5</ele></trkpt>
      <trkpt lat="40.690742" lon="-110.772965"><ele>3362.0</ele></trkpt>
      <trkpt lat="40.690932" lon="-110.772953"><ele>3365.0</ele></trkpt>
      <trkpt lat="40.691065" lon="-110.773025"><ele>3366.2</ele></trkpt>
      <trkpt lat="40.691086" lon="-110.773147"><ele>3365.8</ele></trkpt>
      <trkpt lat="40.691269" lon="-110.773116"><ele>3368.5</ele></trkpt>
      <trkpt lat="40.691607" lon="-110.773080"><ele>3373.5</ele></trkpt>
      <trkpt lat="40.691755" lon="-110.772890"><ele>3377.8</ele></trkpt>
      <trkpt lat="40.691796" lon="-110.772762"><ele>3379.5</ele></trkpt>
      <trkpt lat="40.692097" lon="-110.772486"><ele>3385.5</ele></trkpt>
      <trkpt lat="40.692166" lon="-110.772180"><ele>3386.2</ele></trkpt>
      <trkpt lat="40.692357" lon="-110.771767"><ele>3387.8</ele></trkpt>
      <trkpt lat="40.692478" lon="-110.771691"><ele>3388.8</ele></trkpt>
      <trkpt lat="40.692604" lon="-110.771766"><ele>3391.2</ele></trkpt>
      <trkpt lat="40.692902" lon="-110.771575"><ele>3397.5</ele></trkpt>
      <trkpt lat="40.693117" lon="-110.771640"><ele>3401.5</ele></trkpt>
      <trkpt lat="40.693260" lon="-110.771692"><ele>3404.5</ele></trkpt>
      <trkpt lat="40.693602" lon="-110.771617"><ele>3411.5</ele></trkpt>
      <trkpt lat="40.694059" lon="-110.771479"><ele>3421.0</ele></trkpt>
      <trkpt lat="40.694385" lon="-110.771417"><ele>3424.8</ele></trkpt>
      <trkpt lat="40.694611" lon="-110.771209"><ele>3426.5</ele></trkpt>
      <trkpt lat="40.694707" lon="-110.771010"><ele>3427.5</ele></trkpt>
      <trkpt lat="40.694795" lon="-110.770576"><ele>3431.0</ele></trkpt>
      <trkpt lat="40.694826" lon="-110.770339"><ele>3433.8</ele></trkpt>
      <trkpt lat="40.694948" lon="-110.770008"><ele>3438.2</ele></trkpt>
      <trkpt lat="40.694948" lon="-110.770008"><ele>3438.2</ele></trkpt>
      <trkpt lat="40.694826" lon="-110.770339"><ele>3433.8</ele></trkpt>
      <trkpt lat="40.694795" lon="-110.770576"><ele>3431.0</ele></trkpt>
      <trkpt lat="40.694707" lon="-110.771010"><ele>3427.5</ele></trkpt>
      <trkpt lat="40.694611" lon="-110.771209"><ele>3426.5</ele></trkpt>
      <trkpt lat="40.694385" lon="-110.771417"><ele>3424.8</ele></trkpt>
      <trkpt lat="40.694059" lon="-110.771479"><ele>3421.0</ele></trkpt>
      <trkpt lat="40.693602" lon="-110.771617"><ele>3411.5</ele></trkpt>
      <trkpt lat="40.693260" lon="-110.771692"><ele>3404.5</ele></trkpt>
      <trkpt lat="40.693117" lon="-110.771640"><ele>3401.5</ele></trkpt>
      <trkpt lat="40.692902" lon="-110.771575"><ele>3397.5</ele></trkpt>
      <trkpt lat="40.692604" lon="-110.771766"><ele>3391.2</ele></trkpt>
      <trkpt lat="40.692478" lon="-110.771691"><ele>3388.8</ele></trkpt>
      <trkpt lat="40.692357" lon="-110.771767"><ele>3387.8</ele></trkpt>
      <trkpt lat="40.692166" lon="-110.772180"><ele>3386.2</ele></trkpt>
      <trkpt lat="40.692097" lon="-110.772486"><ele>3385.5</ele></trkpt>
      <trkpt lat="40.691796" lon="-110.772762"><ele>3379.5</ele></trkpt>
      <trkpt lat="40.691755" lon="-110.772890"><ele>3377.8</ele></trkpt>
      <trkpt lat="40.691607" lon="-110.773080"><ele>3373.5</ele></trkpt>
      <trkpt lat="40.691269" lon="-110.773116"><ele>3368.5</ele></trkpt>
      <trkpt lat="40.691086" lon="-110.773147"><ele>3365.8</ele></trkpt>
      <trkpt lat="40.691065" lon="-110.773025"><ele>3366.2</ele></trkpt>
      <trkpt lat="40.690932" lon="-110.772953"><ele>3365.0</ele></trkpt>
      <trkpt lat="40.690742" lon="-110.772965"><ele>3362.0</ele></trkpt>
      <trkpt lat="40.690348" lon="-110.772834"><ele>3356.5</ele></trkpt>
      <trkpt lat="40.690053" lon="-110.772617"><ele>3353.0</ele></trkpt>
      <trkpt lat="40.689803" lon="-110.772636"><ele>3349.2</ele></trkpt>
      <trkpt lat="40.689530" lon="-110.772441"><ele>3346.2</ele></trkpt>
      <trkpt lat="40.689298" lon="-110.772342"><ele>3343.8</ele></trkpt>
      <trkpt lat="40.689137" lon="-110.772317"><ele>3342.5</ele></trkpt>
      <trkpt lat="40.688689" lon="-110.772477"><ele>3339.0</ele></trkpt>
      <trkpt lat="40.688545" lon="-110.772640"><ele>3337.5</ele></trkpt>
      <trkpt lat="40.688260" lon="-110.772819"><ele>3335.8</ele></trkpt>
      <trkpt lat="40.688005" lon="-110.772965"><ele>3334.2</ele></trkpt>
      <trkpt lat="40.687589" lon="-110.773154"><ele>3330.2</ele></trkpt>
      <trkpt lat="40.687212" lon="-110.773280"><ele>3326.5</ele></trkpt>
      <trkpt lat="40.686968" lon="-110.773488"><ele>3323.8</ele></trkpt>
      <trkpt lat="40.686801" lon="-110.773886"><ele>3320.2</ele></trkpt>
      <trkpt lat="40.686508" lon="-110.774524"><ele>3315.5</ele></trkpt>
      <trkpt lat="40.686197" lon="-110.775158"><ele>3313.0</ele></trkpt>
      <trkpt lat="40.685845" lon="-110.775302"><ele>3309.2</ele></trkpt>
      <trkpt lat="40.685621" lon="-110.775238"><ele>3305.5</ele></trkpt>
      <trkpt lat="40.685343" lon="-110.775076"><ele>3300.8</ele></trkpt>
      <trkpt lat="40.685123" lon="-110.775050"><ele>3297.0</ele></trkpt>
      <trkpt lat="40.684926" lon="-110.775511"><ele>3291.5</ele></trkpt>
      <trkpt lat="40.684820" lon="-110.775364"><ele>3290.0</ele></trkpt>
      <trkpt lat="40.684742" lon="-110.775062"><ele>3290.2</ele></trkpt>
      <trkpt lat="40.684481" lon="-110.775348"><ele>3283.2</ele></trkpt>
      <trkpt lat="40.684351" lon="-110.775512"><ele>3279.2</ele></trkpt>
      <trkpt lat="40.683963" lon="-110.775264"><ele>3277.5</ele></trkpt>
      <trkpt lat="40.683811" lon="-110.775234"><ele>3277.5</ele></trkpt>
      <trkpt lat="40.683697" lon="-110.775318"><ele>3275.8</ele></trkpt>
      <trkpt lat="40.683522" lon="-110.775984"><ele>3265.2</ele></trkpt>
      <trkpt lat="40.683707" lon="-110.776956"><ele>3262.8</ele></trkpt>
      <trkpt lat="40.683700" lon="-110.777195"><ele>3262.0</ele></trkpt>
      <trkpt lat="40.683835" lon="-110.777560"><ele>3260.5</ele></trkpt>
      <trkpt lat="40.683735" lon="-110.777749"><ele>3259.8</ele></trkpt>
      <trkpt lat="40.683432" lon="-110.778206"><ele>3256.8</ele></trkpt>
      <trkpt lat="40.683225" lon="-110.778435"><ele>3254.8</ele></trkpt>
      <trkpt lat="40.683014" lon="-110.778590"><ele>3253.0</ele></trkpt>
      <trkpt lat="40.682945" lon="-110.779042"><ele>3250.0</ele></trkpt>
      <trkpt lat="40.682332" lon="-110.778594"><ele>3253.0</ele></trkpt>
      <trkpt lat="40.682229" lon="-110.777982"><ele>3256.2</ele></trkpt>
      <trkpt lat="40.681484" lon="-110.777888"><ele>3261.0</ele></trkpt>
      <trkpt lat="40.681153" lon="-110.778013"><ele>3262.0</ele></trkpt>
      <trkpt lat="40.680721" lon="-110.778402"><ele>3261.2</ele></trkpt>
      <trkpt lat="40.679649" lon="-110.778266"><ele>3262.0</ele></trkpt>
      <trkpt lat="40.678734" lon="-110.777923"><ele>3262.8</ele></trkpt>
      <trkpt lat="40.678519" lon="-110.777638"><ele>3264.2</ele></trkpt>
      <trkpt lat="40.677847" lon="-110.777700"><ele>3265.2</ele></trkpt>
      <trkpt lat="40.676928" lon="-110.777850"><ele>3266.8</ele></trkpt>
      <trkpt lat="40.675980" lon="-110.777705"><ele>3273.8</ele></trkpt>
      <trkpt lat="40.675451" lon="-110.777383"><ele>3283.2</ele></trkpt>
      <trkpt lat="40.674995" lon="-110.777166"><ele>3290.0</ele></trkpt>
      <trkpt lat="40.674657" lon="-110.777062"><ele>3292.0</ele></trkpt>
      <trkpt lat="40.674328" lon="-110.776817"><ele>3295.8</ele></trkpt>
      <trkpt lat="40.674275" lon="-110.776600"><ele>3298.8</ele></trkpt>
      <trkpt lat="40.673592" lon="-110.775991"><ele>3307.2</ele></trkpt>
      <trkpt lat="40.674019" lon="-110.775104"><ele>3317.0</ele></trkpt>
      <trkpt lat="40.674440" lon="-110.774124"><ele>3332.5</ele></trkpt>
      <trkpt lat="40.674411" lon="-110.773685"><ele>3335.2</ele></trkpt>
      <trkpt lat="40.674448" lon="-110.773043"><ele>3339.0</ele></trkpt>
      <trkpt lat="40.673917" lon="-110.772462"><ele>3329.2</ele></trkpt>
      <trkpt lat="40.673395" lon="-110.772094"><ele>3322.2</ele></trkpt>
      <trkpt lat="40.673573" lon="-110.771949"><ele>3322.0</ele></trkpt>
      <trkpt lat="40.674379" lon="-110.771831"><ele>3326.0</ele></trkpt>
      <trkpt lat="40.673911" lon="-110.770782"><ele>3306.8</ele></trkpt>
      <trkpt lat="40.673421" lon="-110.770179"><ele>3299.0</ele></trkpt>
      <trkpt lat="40.673431" lon="-110.769396"><ele>3292.8</ele></trkpt>
      <trkpt lat="40.673563" lon="-110.768891"><ele>3288.5</ele></trkpt>
      <trkpt lat="40.673348" lon="-110.767990"><ele>3286.8</ele></trkpt>
      <trkpt lat="40.673361" lon="-110.767752"><ele>3285.2</ele></trkpt>
    </trkseg>
    <!-- Sun: back over Rocky Sea Pass, camp Jordan Lake (8.6 mi, 1535 ft up) -->
    <trkseg>
      <trkpt lat="40.673361" lon="-110.767752"><ele>3285.2</ele></trkpt>
      <trkpt lat="40.673419" lon="-110.768146"><ele>3286.8</ele></trkpt>
      <trkpt lat="40.673420" lon="-110.769203"><ele>3291.8</ele></trkpt>
      <trkpt lat="40.673311" lon="-110.769739"><ele>3295.8</ele></trkpt>
      <trkpt lat="40.673551" lon="-110.770466"><ele>3303.0</ele></trkpt>
      <trkpt lat="40.674159" lon="-110.771429"><ele>3317.0</ele></trkpt>
      <trkpt lat="40.674318" lon="-110.771898"><ele>3326.2</ele></trkpt>
      <trkpt lat="40.673427" lon="-110.771976"><ele>3321.5</ele></trkpt>
      <trkpt lat="40.673647" lon="-110.772239"><ele>3325.0</ele></trkpt>
      <trkpt lat="40.674316" lon="-110.772663"><ele>3335.5</ele></trkpt>
      <trkpt lat="40.674457" lon="-110.773159"><ele>3339.2</ele></trkpt>
      <trkpt lat="40.674454" lon="-110.773937"><ele>3334.2</ele></trkpt>
      <trkpt lat="40.674123" lon="-110.774755"><ele>3320.8</ele></trkpt>
      <trkpt lat="40.673734" lon="-110.775406"><ele>3312.8</ele></trkpt>
      <trkpt lat="40.673594" lon="-110.776123"><ele>3305.2</ele></trkpt>
      <trkpt lat="40.674273" lon="-110.776679"><ele>3297.8</ele></trkpt>
      <trkpt lat="40.674511" lon="-110.777019"><ele>3292.8</ele></trkpt>
      <trkpt lat="40.674836" lon="-110.777136"><ele>3290.8</ele></trkpt>
      <trkpt lat="40.675264" lon="-110.777150"><ele>3288.8</ele></trkpt>
      <trkpt lat="40.675791" lon="-110.777697"><ele>3275.0</ele></trkpt>
      <trkpt lat="40.676324" lon="-110.777847"><ele>3270.0</ele></trkpt>
      <trkpt lat="40.677335" lon="-110.777595"><ele>3268.2</ele></trkpt>
      <trkpt lat="40.678258" lon="-110.777574"><ele>3265.0</ele></trkpt>
      <trkpt lat="40.678601" lon="-110.777822"><ele>3263.5</ele></trkpt>
      <trkpt lat="40.679224" lon="-110.777979"><ele>3262.2</ele></trkpt>
      <trkpt lat="40.680036" lon="-110.778343"><ele>3262.8</ele></trkpt>
      <trkpt lat="40.681008" lon="-110.778195"><ele>3261.8</ele></trkpt>
      <trkpt lat="40.681285" lon="-110.777888"><ele>3261.8</ele></trkpt>
      <trkpt lat="40.681926" lon="-110.777796"><ele>3259.0</ele></trkpt>
      <trkpt lat="40.682347" lon="-110.778368"><ele>3253.8</ele></trkpt>
      <trkpt lat="40.682475" lon="-110.778918"><ele>3251.0</ele></trkpt>
      <trkpt lat="40.682998" lon="-110.778864"><ele>3251.2</ele></trkpt>
      <trkpt lat="40.683079" lon="-110.778487"><ele>3254.0</ele></trkpt>
      <trkpt lat="40.683343" lon="-110.778338"><ele>3255.8</ele></trkpt>
      <trkpt lat="40.683556" lon="-110.778093"><ele>3257.8</ele></trkpt>
      <trkpt lat="40.683828" lon="-110.777653"><ele>3260.2</ele></trkpt>
      <trkpt lat="40.683830" lon="-110.777456"><ele>3261.0</ele></trkpt>
      <trkpt lat="40.683681" lon="-110.777098"><ele>3262.2</ele></trkpt>
      <trkpt lat="40.683669" lon="-110.776429"><ele>3264.8</ele></trkpt>
      <trkpt lat="40.683525" lon="-110.775858"><ele>3265.8</ele></trkpt>
      <trkpt lat="40.683728" lon="-110.775274"><ele>3276.5</ele></trkpt>
      <trkpt lat="40.683889" lon="-110.775237"><ele>3277.5</ele></trkpt>
      <trkpt lat="40.684320" lon="-110.775532"><ele>3278.5</ele></trkpt>
      <trkpt lat="40.684385" lon="-110.775436"><ele>3280.8</ele></trkpt>
      <trkpt lat="40.684553" lon="-110.775233"><ele>3285.5</ele></trkpt>
      <trkpt lat="40.684760" lon="-110.775090"><ele>3290.2</ele></trkpt>
      <trkpt lat="40.684893" lon="-110.775521"><ele>3290.8</ele></trkpt>
      <trkpt lat="40.685076" lon="-110.775130"><ele>3295.8</ele></trkpt>
      <trkpt lat="40.685277" lon="-110.775003"><ele>3299.8</ele></trkpt>
      <trkpt lat="40.685461" lon="-110.775098"><ele>3303.0</ele></trkpt>
      <trkpt lat="40.685695" lon="-110.775291"><ele>3306.5</ele></trkpt>
      <trkpt lat="40.686018" lon="-110.775220"><ele>3311.0</ele></trkpt>
      <trkpt lat="40.686469" lon="-110.774777"><ele>3315.5</ele></trkpt>
      <trkpt lat="40.686635" lon="-110.774370"><ele>3316.8</ele></trkpt>
      <trkpt lat="40.686912" lon="-110.773642"><ele>3322.5</ele></trkpt>
      <trkpt lat="40.687025" lon="-110.773405"><ele>3324.2</ele></trkpt>
      <trkpt lat="40.687356" lon="-110.773282"><ele>3327.0</ele></trkpt>
      <trkpt lat="40.687940" lon="-110.772966"><ele>3334.0</ele></trkpt>
      <trkpt lat="40.688050" lon="-110.772920"><ele>3334.8</ele></trkpt>
      <trkpt lat="40.688294" lon="-110.772770"><ele>3336.0</ele></trkpt>
      <trkpt lat="40.688607" lon="-110.772562"><ele>3338.0</ele></trkpt>
      <trkpt lat="40.689014" lon="-110.772346"><ele>3342.0</ele></trkpt>
      <trkpt lat="40.689231" lon="-110.772315"><ele>3343.0</ele></trkpt>
      <trkpt lat="40.689364" lon="-110.772417"><ele>3344.0</ele></trkpt>
      <trkpt lat="40.689641" lon="-110.772487"><ele>3347.8</ele></trkpt>
      <trkpt lat="40.689963" lon="-110.772603"><ele>3351.8</ele></trkpt>
      <trkpt lat="40.690262" lon="-110.772793"><ele>3355.5</ele></trkpt>
      <trkpt lat="40.690612" lon="-110.772867"><ele>3360.8</ele></trkpt>
      <trkpt lat="40.690791" lon="-110.772974"><ele>3362.8</ele></trkpt>
      <trkpt lat="40.691003" lon="-110.772958"><ele>3366.0</ele></trkpt>
      <trkpt lat="40.691065" lon="-110.773108"><ele>3365.8</ele></trkpt>
      <trkpt lat="40.691129" lon="-110.773156"><ele>3366.2</ele></trkpt>
      <trkpt lat="40.691446" lon="-110.773081"><ele>3371.2</ele></trkpt>
      <trkpt lat="40.691727" lon="-110.772982"><ele>3376.2</ele></trkpt>
      <trkpt lat="40.691760" lon="-110.772811"><ele>3378.5</ele></trkpt>
      <trkpt lat="40.691877" lon="-110.772679"><ele>3381.2</ele></trkpt>
      <trkpt lat="40.692152" lon="-110.772347"><ele>3386.2</ele></trkpt>
      <trkpt lat="40.692207" lon="-110.772065"><ele>3386.5</ele></trkpt>
      <trkpt lat="40.692412" lon="-110.771709"><ele>3388.0</ele></trkpt>
      <trkpt lat="40.692561" lon="-110.771698"><ele>3390.2</ele></trkpt>
      <trkpt lat="40.692829" lon="-110.771593"><ele>3396.0</ele></trkpt>
      <trkpt lat="40.693033" lon="-110.771606"><ele>3400.0</ele></trkpt>
      <trkpt lat="40.693193" lon="-110.771641"><ele>3403.0</ele></trkpt>
      <trkpt lat="40.693456" lon="-110.771617"><ele>3408.5</ele></trkpt>
      <trkpt lat="40.693873" lon="-110.771492"><ele>3417.0</ele></trkpt>
      <trkpt lat="40.694137" lon="-110.771459"><ele>3422.5</ele></trkpt>
      <trkpt lat="40.694516" lon="-110.771342"><ele>3425.8</ele></trkpt>
      <trkpt lat="40.694637" lon="-110.771122"><ele>3426.8</ele></trkpt>
      <trkpt lat="40.694769" lon="-110.770804"><ele>3428.5</ele></trkpt>
      <trkpt lat="40.694802" lon="-110.770455"><ele>3432.2</ele></trkpt>
      <trkpt lat="40.694863" lon="-110.770225"><ele>3435.2</ele></trkpt>
      <trkpt lat="40.695009" lon="-110.769911"><ele>3437.2</ele></trkpt>
      <trkpt lat="40.694863" lon="-110.770225"><ele>3435.2</ele></trkpt>
      <trkpt lat="40.694802" lon="-110.770455"><ele>3432.2</ele></trkpt>
      <trkpt lat="40.694769" lon="-110.770804"><ele>3428.5</ele></trkpt>
      <trkpt lat="40.694637" lon="-110.771122"><ele>3426.8</ele></trkpt>
      <trkpt lat="40.694516" lon="-110.771342"><ele>3425.8</ele></trkpt>
      <trkpt lat="40.694137" lon="-110.771459"><ele>3422.5</ele></trkpt>
      <trkpt lat="40.693873" lon="-110.771492"><ele>3417.0</ele></trkpt>
      <trkpt lat="40.693456" lon="-110.771617"><ele>3408.5</ele></trkpt>
      <trkpt lat="40.693193" lon="-110.771641"><ele>3403.0</ele></trkpt>
      <trkpt lat="40.693033" lon="-110.771606"><ele>3400.0</ele></trkpt>
      <trkpt lat="40.692829" lon="-110.771593"><ele>3396.0</ele></trkpt>
      <trkpt lat="40.692561" lon="-110.771698"><ele>3390.2</ele></trkpt>
      <trkpt lat="40.692412" lon="-110.771709"><ele>3388.0</ele></trkpt>
      <trkpt lat="40.692207" lon="-110.772065"><ele>3386.5</ele></trkpt>
      <trkpt lat="40.692152" lon="-110.772347"><ele>3386.2</ele></trkpt>
      <trkpt lat="40.691877" lon="-110.772679"><ele>3381.2</ele></trkpt>
      <trkpt lat="40.691760" lon="-110.772811"><ele>3378.5</ele></trkpt>
      <trkpt lat="40.691727" lon="-110.772982"><ele>3376.2</ele></trkpt>
      <trkpt lat="40.691446" lon="-110.773081"><ele>3371.2</ele></trkpt>
      <trkpt lat="40.691129" lon="-110.773156"><ele>3366.2</ele></trkpt>
      <trkpt lat="40.691065" lon="-110.773108"><ele>3365.8</ele></trkpt>
      <trkpt lat="40.691003" lon="-110.772958"><ele>3366.0</ele></trkpt>
      <trkpt lat="40.690791" lon="-110.772974"><ele>3362.8</ele></trkpt>
      <trkpt lat="40.690612" lon="-110.772867"><ele>3360.8</ele></trkpt>
      <trkpt lat="40.690262" lon="-110.772793"><ele>3355.5</ele></trkpt>
      <trkpt lat="40.689963" lon="-110.772603"><ele>3351.8</ele></trkpt>
      <trkpt lat="40.689641" lon="-110.772487"><ele>3347.8</ele></trkpt>
      <trkpt lat="40.689364" lon="-110.772417"><ele>3344.0</ele></trkpt>
      <trkpt lat="40.689231" lon="-110.772315"><ele>3343.0</ele></trkpt>
      <trkpt lat="40.689014" lon="-110.772346"><ele>3342.0</ele></trkpt>
      <trkpt lat="40.688607" lon="-110.772562"><ele>3338.0</ele></trkpt>
      <trkpt lat="40.688294" lon="-110.772770"><ele>3336.0</ele></trkpt>
      <trkpt lat="40.688050" lon="-110.772920"><ele>3334.8</ele></trkpt>
      <trkpt lat="40.687940" lon="-110.772966"><ele>3334.0</ele></trkpt>
      <trkpt lat="40.687356" lon="-110.773282"><ele>3327.0</ele></trkpt>
      <trkpt lat="40.687025" lon="-110.773405"><ele>3324.2</ele></trkpt>
      <trkpt lat="40.686912" lon="-110.773642"><ele>3322.5</ele></trkpt>
      <trkpt lat="40.686635" lon="-110.774370"><ele>3316.8</ele></trkpt>
      <trkpt lat="40.686469" lon="-110.774777"><ele>3315.5</ele></trkpt>
      <trkpt lat="40.686018" lon="-110.775220"><ele>3311.0</ele></trkpt>
      <trkpt lat="40.685695" lon="-110.775291"><ele>3306.5</ele></trkpt>
      <trkpt lat="40.685461" lon="-110.775098"><ele>3303.0</ele></trkpt>
      <trkpt lat="40.685277" lon="-110.775003"><ele>3299.8</ele></trkpt>
      <trkpt lat="40.685076" lon="-110.775130"><ele>3295.8</ele></trkpt>
      <trkpt lat="40.684893" lon="-110.775521"><ele>3290.8</ele></trkpt>
      <trkpt lat="40.684760" lon="-110.775090"><ele>3290.2</ele></trkpt>
      <trkpt lat="40.684553" lon="-110.775233"><ele>3285.5</ele></trkpt>
      <trkpt lat="40.684385" lon="-110.775436"><ele>3280.8</ele></trkpt>
      <trkpt lat="40.684320" lon="-110.775532"><ele>3278.5</ele></trkpt>
      <trkpt lat="40.683889" lon="-110.775237"><ele>3277.5</ele></trkpt>
      <trkpt lat="40.683728" lon="-110.775274"><ele>3276.5</ele></trkpt>
      <trkpt lat="40.683525" lon="-110.775858"><ele>3265.8</ele></trkpt>
      <trkpt lat="40.683669" lon="-110.776429"><ele>3264.8</ele></trkpt>
      <trkpt lat="40.683681" lon="-110.777098"><ele>3262.2</ele></trkpt>
      <trkpt lat="40.683830" lon="-110.777456"><ele>3261.0</ele></trkpt>
      <trkpt lat="40.683828" lon="-110.777653"><ele>3260.2</ele></trkpt>
      <trkpt lat="40.683556" lon="-110.778093"><ele>3257.8</ele></trkpt>
      <trkpt lat="40.683343" lon="-110.778338"><ele>3255.8</ele></trkpt>
      <trkpt lat="40.683079" lon="-110.778487"><ele>3254.0</ele></trkpt>
      <trkpt lat="40.682998" lon="-110.778864"><ele>3251.2</ele></trkpt>
      <trkpt lat="40.682847" lon="-110.779395"><ele>3248.5</ele></trkpt>
      <trkpt lat="40.682555" lon="-110.780285"><ele>3245.5</ele></trkpt>
      <trkpt lat="40.682412" lon="-110.780945"><ele>3244.2</ele></trkpt>
      <trkpt lat="40.682372" lon="-110.781380"><ele>3242.2</ele></trkpt>
      <trkpt lat="40.682090" lon="-110.781959"><ele>3239.5</ele></trkpt>
      <trkpt lat="40.682103" lon="-110.782652"><ele>3236.5</ele></trkpt>
      <trkpt lat="40.682089" lon="-110.782956"><ele>3236.0</ele></trkpt>
      <trkpt lat="40.682131" lon="-110.783315"><ele>3235.2</ele></trkpt>
      <trkpt lat="40.682049" lon="-110.783674"><ele>3233.0</ele></trkpt>
      <trkpt lat="40.682174" lon="-110.784121"><ele>3230.2</ele></trkpt>
      <trkpt lat="40.682343" lon="-110.784289"><ele>3229.2</ele></trkpt>
      <trkpt lat="40.682461" lon="-110.784610"><ele>3226.5</ele></trkpt>
      <trkpt lat="40.682542" lon="-110.785119"><ele>3221.8</ele></trkpt>
      <trkpt lat="40.682595" lon="-110.785779"><ele>3214.5</ele></trkpt>
      <trkpt lat="40.682587" lon="-110.786149"><ele>3211.0</ele></trkpt>
      <trkpt lat="40.682474" lon="-110.786911"><ele>3204.5</ele></trkpt>
      <trkpt lat="40.682355" lon="-110.787259"><ele>3203.5</ele></trkpt>
      <trkpt lat="40.682197" lon="-110.787854"><ele>3200.0</ele></trkpt>
      <trkpt lat="40.682356" lon="-110.788398"><ele>3198.0</ele></trkpt>
      <trkpt lat="40.682644" lon="-110.788915"><ele>3197.2</ele></trkpt>
      <trkpt lat="40.683225" lon="-110.789357"><ele>3193.8</ele></trkpt>
      <trkpt lat="40.683404" lon="-110.789636"><ele>3190.2</ele></trkpt>
      <trkpt lat="40.683404" lon="-110.789899"><ele>3187.5</ele></trkpt>
      <trkpt lat="40.683400" lon="-110.790226"><ele>3183.2</ele></trkpt>
      <trkpt lat="40.683339" lon="-110.790741"><ele>3176.2</ele></trkpt>
      <trkpt lat="40.683353" lon="-110.791173"><ele>3169.0</ele></trkpt>
      <trkpt lat="40.683638" lon="-110.791755"><ele>3158.8</ele></trkpt>
      <trkpt lat="40.683978" lon="-110.791787"><ele>3157.8</ele></trkpt>
      <trkpt lat="40.684320" lon="-110.791663"><ele>3156.8</ele></trkpt>
      <trkpt lat="40.684535" lon="-110.791712"><ele>3153.0</ele></trkpt>
      <trkpt lat="40.684995" lon="-110.791465"><ele>3148.0</ele></trkpt>
      <trkpt lat="40.685263" lon="-110.791299"><ele>3147.0</ele></trkpt>
      <trkpt lat="40.685605" lon="-110.791030"><ele>3146.2</ele></trkpt>
      <trkpt lat="40.685979" lon="-110.790644"><ele>3145.5</ele></trkpt>
      <trkpt lat="40.686211" lon="-110.790754"><ele>3144.8</ele></trkpt>
      <trkpt lat="40.686236" lon="-110.790902"><ele>3144.0</ele></trkpt>
      <trkpt lat="40.686370" lon="-110.791331"><ele>3141.0</ele></trkpt>
      <trkpt lat="40.686293" lon="-110.791959"><ele>3134.2</ele></trkpt>
      <trkpt lat="40.686565" lon="-110.792677"><ele>3123.8</ele></trkpt>
      <trkpt lat="40.686748" lon="-110.793198"><ele>3118.5</ele></trkpt>
      <trkpt lat="40.686968" lon="-110.793745"><ele>3115.0</ele></trkpt>
      <trkpt lat="40.686891" lon="-110.794029"><ele>3111.0</ele></trkpt>
      <trkpt lat="40.686834" lon="-110.794249"><ele>3108.0</ele></trkpt>
      <trkpt lat="40.686549" lon="-110.794737"><ele>3099.0</ele></trkpt>
      <trkpt lat="40.686317" lon="-110.795306"><ele>3091.5</ele></trkpt>
      <trkpt lat="40.685768" lon="-110.796389"><ele>3078.2</ele></trkpt>
      <trkpt lat="40.685589" lon="-110.796979"><ele>3078.5</ele></trkpt>
      <trkpt lat="40.685532" lon="-110.797226"><ele>3079.2</ele></trkpt>
      <trkpt lat="40.685609" lon="-110.797811"><ele>3083.8</ele></trkpt>
      <trkpt lat="40.685593" lon="-110.798594"><ele>3088.0</ele></trkpt>
      <trkpt lat="40.685369" lon="-110.799431"><ele>3088.2</ele></trkpt>
      <trkpt lat="40.685227" lon="-110.800547"><ele>3087.8</ele></trkpt>
      <trkpt lat="40.685324" lon="-110.801212"><ele>3089.5</ele></trkpt>
      <trkpt lat="40.685503" lon="-110.802054"><ele>3090.5</ele></trkpt>
      <trkpt lat="40.685695" lon="-110.802333"><ele>3092.2</ele></trkpt>
      <trkpt lat="40.685638" lon="-110.802569"><ele>3091.5</ele></trkpt>
      <trkpt lat="40.685861" lon="-110.802800"><ele>3094.2</ele></trkpt>
      <trkpt lat="40.686069" lon="-110.803326"><ele>3099.0</ele></trkpt>
      <trkpt lat="40.686419" lon="-110.804087"><ele>3110.5</ele></trkpt>
      <trkpt lat="40.686394" lon="-110.804468"><ele>3110.8</ele></trkpt>
      <trkpt lat="40.686549" lon="-110.804930"><ele>3115.2</ele></trkpt>
      <trkpt lat="40.687131" lon="-110.805793"><ele>3120.2</ele></trkpt>
      <trkpt lat="40.687334" lon="-110.806282"><ele>3118.5</ele></trkpt>
      <trkpt lat="40.687305" lon="-110.806501"><ele>3117.5</ele></trkpt>
      <trkpt lat="40.687334" lon="-110.807027"><ele>3115.2</ele></trkpt>
      <trkpt lat="40.687451" lon="-110.807354"><ele>3114.8</ele></trkpt>
      <trkpt lat="40.687277" lon="-110.807655"><ele>3113.2</ele></trkpt>
      <trkpt lat="40.687289" lon="-110.808068"><ele>3114.5</ele></trkpt>
      <trkpt lat="40.687415" lon="-110.808932"><ele>3125.8</ele></trkpt>
      <trkpt lat="40.687549" lon="-110.809945"><ele>3137.2</ele></trkpt>
      <trkpt lat="40.687887" lon="-110.810938"><ele>3146.5</ele></trkpt>
      <trkpt lat="40.687985" lon="-110.811630"><ele>3146.0</ele></trkpt>
      <trkpt lat="40.687680" lon="-110.812497"><ele>3141.8</ele></trkpt>
      <trkpt lat="40.687346" lon="-110.813609"><ele>3134.5</ele></trkpt>
      <trkpt lat="40.687354" lon="-110.813979"><ele>3133.5</ele></trkpt>
      <trkpt lat="40.687460" lon="-110.814409"><ele>3134.8</ele></trkpt>
      <trkpt lat="40.687175" lon="-110.815111"><ele>3132.8</ele></trkpt>
      <trkpt lat="40.686903" lon="-110.815342"><ele>3130.5</ele></trkpt>
      <trkpt lat="40.686870" lon="-110.815841"><ele>3130.5</ele></trkpt>
      <trkpt lat="40.687090" lon="-110.817718"><ele>3125.0</ele></trkpt>
      <trkpt lat="40.687269" lon="-110.818641"><ele>3123.0</ele></trkpt>
      <trkpt lat="40.687680" lon="-110.819976"><ele>3122.5</ele></trkpt>
      <trkpt lat="40.687869" lon="-110.820663"><ele>3126.0</ele></trkpt>
      <trkpt lat="40.688135" lon="-110.820406"><ele>3129.2</ele></trkpt>
      <trkpt lat="40.688265" lon="-110.820138"><ele>3131.0</ele></trkpt>
      <trkpt lat="40.688554" lon="-110.819591"><ele>3133.5</ele></trkpt>
      <trkpt lat="40.688782" lon="-110.819263"><ele>3136.8</ele></trkpt>
      <trkpt lat="40.689050" lon="-110.818759"><ele>3138.2</ele></trkpt>
      <trkpt lat="40.689282" lon="-110.818518"><ele>3139.5</ele></trkpt>
      <trkpt lat="40.689547" lon="-110.818207"><ele>3142.5</ele></trkpt>
      <trkpt lat="40.689774" lon="-110.817928"><ele>3144.8</ele></trkpt>
      <trkpt lat="40.690075" lon="-110.817584"><ele>3147.0</ele></trkpt>
      <trkpt lat="40.690254" lon="-110.817397"><ele>3149.2</ele></trkpt>
      <trkpt lat="40.691072" lon="-110.816839"><ele>3159.5</ele></trkpt>
      <trkpt lat="40.691300" lon="-110.816619"><ele>3161.2</ele></trkpt>
      <trkpt lat="40.691528" lon="-110.816211"><ele>3160.8</ele></trkpt>
      <trkpt lat="40.691877" lon="-110.815680"><ele>3161.8</ele></trkpt>
      <trkpt lat="40.692186" lon="-110.815353"><ele>3165.5</ele></trkpt>
      <trkpt lat="40.692243" lon="-110.814671"><ele>3169.2</ele></trkpt>
      <trkpt lat="40.691975" lon="-110.814360"><ele>3169.2</ele></trkpt>
      <trkpt lat="40.691597" lon="-110.814092"><ele>3167.5</ele></trkpt>
      <trkpt lat="40.691670" lon="-110.813379"><ele>3174.5</ele></trkpt>
      <trkpt lat="40.691694" lon="-110.812976"><ele>3177.5</ele></trkpt>
      <trkpt lat="40.691715" lon="-110.812799"><ele>3179.0</ele></trkpt>
      <trkpt lat="40.692195" lon="-110.813019"><ele>3185.5</ele></trkpt>
      <trkpt lat="40.692801" lon="-110.812612"><ele>3197.2</ele></trkpt>
      <trkpt lat="40.693049" lon="-110.812048"><ele>3198.5</ele></trkpt>
      <trkpt lat="40.693293" lon="-110.811024"><ele>3191.8</ele></trkpt>
      <trkpt lat="40.693285" lon="-110.810749"><ele>3190.0</ele></trkpt>
      <trkpt lat="40.693526" lon="-110.810404"><ele>3191.0</ele></trkpt>
      <trkpt lat="40.693602" lon="-110.809956"><ele>3190.5</ele></trkpt>
      <trkpt lat="40.693714" lon="-110.809642"><ele>3190.2</ele></trkpt>
      <trkpt lat="40.693834" lon="-110.809578"><ele>3190.5</ele></trkpt>
      <trkpt lat="40.693826" lon="-110.809385"><ele>3189.8</ele></trkpt>
      <trkpt lat="40.693968" lon="-110.808940"><ele>3187.5</ele></trkpt>
      <trkpt lat="40.694023" lon="-110.808714"><ele>3185.5</ele></trkpt>
      <trkpt lat="40.694013" lon="-110.808433"><ele>3183.0</ele></trkpt>
      <trkpt lat="40.694108" lon="-110.808285"><ele>3181.8</ele></trkpt>
      <trkpt lat="40.694529" lon="-110.808231"><ele>3183.2</ele></trkpt>
      <trkpt lat="40.694865" lon="-110.808181"><ele>3185.0</ele></trkpt>
      <trkpt lat="40.695184" lon="-110.808197"><ele>3187.8</ele></trkpt>
      <trkpt lat="40.695465" lon="-110.808124"><ele>3190.8</ele></trkpt>
      <trkpt lat="40.695627" lon="-110.808148"><ele>3192.8</ele></trkpt>
      <trkpt lat="40.695827" lon="-110.808382"><ele>3196.2</ele></trkpt>
      <trkpt lat="40.696534" lon="-110.808602"><ele>3200.8</ele></trkpt>
      <trkpt lat="40.696858" lon="-110.808484"><ele>3198.8</ele></trkpt>
      <trkpt lat="40.697061" lon="-110.808313"><ele>3196.0</ele></trkpt>
      <trkpt lat="40.697096" lon="-110.808177"><ele>3195.8</ele></trkpt>
      <trkpt lat="40.697283" lon="-110.807902"><ele>3194.8</ele></trkpt>
      <trkpt lat="40.697224" lon="-110.807708"><ele>3194.8</ele></trkpt>
      <trkpt lat="40.697075" lon="-110.807459"><ele>3195.5</ele></trkpt>
      <trkpt lat="40.697134" lon="-110.807193"><ele>3196.2</ele></trkpt>
      <trkpt lat="40.697360" lon="-110.806888"><ele>3196.0</ele></trkpt>
      <trkpt lat="40.697634" lon="-110.806623"><ele>3195.2</ele></trkpt>
      <trkpt lat="40.697730" lon="-110.806424"><ele>3195.5</ele></trkpt>
      <trkpt lat="40.697736" lon="-110.806091"><ele>3196.5</ele></trkpt>
      <trkpt lat="40.697659" lon="-110.805882"><ele>3197.0</ele></trkpt>
      <trkpt lat="40.697882" lon="-110.805281"><ele>3198.2</ele></trkpt>
      <trkpt lat="40.698155" lon="-110.804627"><ele>3199.0</ele></trkpt>
      <trkpt lat="40.698155" lon="-110.804160"><ele>3198.5</ele></trkpt>
      <trkpt lat="40.698293" lon="-110.803704"><ele>3200.8</ele></trkpt>
      <trkpt lat="40.698289" lon="-110.803513"><ele>3202.0</ele></trkpt>
      <trkpt lat="40.698342" lon="-110.803331"><ele>3203.0</ele></trkpt>
      <trkpt lat="40.698159" lon="-110.802698"><ele>3207.2</ele></trkpt>
      <trkpt lat="40.698117" lon="-110.802451"><ele>3208.5</ele></trkpt>
      <trkpt lat="40.698117" lon="-110.802218"><ele>3208.8</ele></trkpt>
      <trkpt lat="40.698125" lon="-110.801923"><ele>3209.2</ele></trkpt>
      <trkpt lat="40.698356" lon="-110.801609"><ele>3207.0</ele></trkpt>
      <trkpt lat="40.698318" lon="-110.801046"><ele>3207.8</ele></trkpt>
      <trkpt lat="40.698352" lon="-110.800764"><ele>3208.2</ele></trkpt>
      <trkpt lat="40.698550" lon="-110.800241"><ele>3211.0</ele></trkpt>
      <trkpt lat="40.698513" lon="-110.800083"><ele>3211.8</ele></trkpt>
      <trkpt lat="40.698623" lon="-110.799721"><ele>3213.8</ele></trkpt>
      <trkpt lat="40.698960" lon="-110.799608"><ele>3214.2</ele></trkpt>
      <trkpt lat="40.699087" lon="-110.799437"><ele>3216.0</ele></trkpt>
      <trkpt lat="40.699188" lon="-110.799195"><ele>3219.0</ele></trkpt>
      <trkpt lat="40.699341" lon="-110.799050"><ele>3222.5</ele></trkpt>
      <trkpt lat="40.699296" lon="-110.798871"><ele>3222.8</ele></trkpt>
      <trkpt lat="40.699379" lon="-110.798468"><ele>3227.0</ele></trkpt>
      <trkpt lat="40.699493" lon="-110.798369"><ele>3229.8</ele></trkpt>
      <trkpt lat="40.699668" lon="-110.798511"><ele>3232.0</ele></trkpt>
      <trkpt lat="40.699806" lon="-110.798479"><ele>3234.8</ele></trkpt>
      <trkpt lat="40.699928" lon="-110.798162"><ele>3238.5</ele></trkpt>
      <trkpt lat="40.700036" lon="-110.798246"><ele>3240.5</ele></trkpt>
      <trkpt lat="40.700195" lon="-110.798492"><ele>3241.8</ele></trkpt>
      <trkpt lat="40.700551" lon="-110.798549"><ele>3247.5</ele></trkpt>
      <trkpt lat="40.701016" lon="-110.798854"><ele>3250.0</ele></trkpt>
      <trkpt lat="40.701354" lon="-110.798838"><ele>3251.5</ele></trkpt>
      <trkpt lat="40.701695" lon="-110.798694"><ele>3253.8</ele></trkpt>
      <trkpt lat="40.701921" lon="-110.798798"><ele>3253.0</ele></trkpt>
      <trkpt lat="40.702183" lon="-110.798836"><ele>3252.8</ele></trkpt>
      <trkpt lat="40.702493" lon="-110.798758"><ele>3253.2</ele></trkpt>
      <trkpt lat="40.702789" lon="-110.798873"><ele>3252.2</ele></trkpt>
      <trkpt lat="40.702954" lon="-110.798567"><ele>3253.2</ele></trkpt>
      <trkpt lat="40.703160" lon="-110.798447"><ele>3253.2</ele></trkpt>
      <trkpt lat="40.703353" lon="-110.798278"><ele>3253.0</ele></trkpt>
      <trkpt lat="40.703538" lon="-110.797988"><ele>3253.2</ele></trkpt>
      <trkpt lat="40.703663" lon="-110.797609"><ele>3253.5</ele></trkpt>
      <trkpt lat="40.703647" lon="-110.797470"><ele>3253.8</ele></trkpt>
    </trkseg>
    <!-- Mon: out via the Highline (6.3 mi, 624 ft up) -->
    <trkseg>
      <trkpt lat="40.703647" lon="-110.797470"><ele>3253.8</ele></trkpt>
      <trkpt lat="40.703645" lon="-110.797749"><ele>3253.2</ele></trkpt>
      <trkpt lat="40.703497" lon="-110.798176"><ele>3252.8</ele></trkpt>
      <trkpt lat="40.703227" lon="-110.798339"><ele>3253.2</ele></trkpt>
      <trkpt lat="40.703038" lon="-110.798487"><ele>3253.2</ele></trkpt>
      <trkpt lat="40.702861" lon="-110.798750"><ele>3252.8</ele></trkpt>
      <trkpt lat="40.702730" lon="-110.798907"><ele>3252.2</ele></trkpt>
      <trkpt lat="40.702383" lon="-110.798758"><ele>3253.2</ele></trkpt>
      <trkpt lat="40.702066" lon="-110.798787"><ele>3253.0</ele></trkpt>
      <trkpt lat="40.701815" lon="-110.798659"><ele>3254.0</ele></trkpt>
      <trkpt lat="40.701598" lon="-110.798672"><ele>3253.8</ele></trkpt>
      <trkpt lat="40.701173" lon="-110.798892"><ele>3250.2</ele></trkpt>
      <trkpt lat="40.700687" lon="-110.798702"><ele>3248.2</ele></trkpt>
      <trkpt lat="40.700311" lon="-110.798581"><ele>3243.0</ele></trkpt>
      <trkpt lat="40.700097" lon="-110.798380"><ele>3241.2</ele></trkpt>
      <trkpt lat="40.699987" lon="-110.798168"><ele>3239.5</ele></trkpt>
      <trkpt lat="40.699851" lon="-110.798238"><ele>3237.0</ele></trkpt>
      <trkpt lat="40.699743" lon="-110.798530"><ele>3233.2</ele></trkpt>
      <trkpt lat="40.699556" lon="-110.798374"><ele>3231.0</ele></trkpt>
      <trkpt lat="40.699432" lon="-110.798447"><ele>3228.2</ele></trkpt>
      <trkpt lat="40.699306" lon="-110.798632"><ele>3224.5</ele></trkpt>
      <trkpt lat="40.699329" lon="-110.798932"><ele>3223.0</ele></trkpt>
      <trkpt lat="40.699298" lon="-110.799141"><ele>3221.0</ele></trkpt>
      <trkpt lat="40.699143" lon="-110.799394"><ele>3216.5</ele></trkpt>
      <trkpt lat="40.699046" lon="-110.799541"><ele>3214.8</ele></trkpt>
      <trkpt lat="40.698729" lon="-110.799638"><ele>3214.2</ele></trkpt>
      <trkpt lat="40.698531" lon="-110.799890"><ele>3212.8</ele></trkpt>
      <trkpt lat="40.698546" lon="-110.800171"><ele>3211.2</ele></trkpt>
      <trkpt lat="40.698476" lon="-110.800528"><ele>3209.8</ele></trkpt>
      <trkpt lat="40.698316" lon="-110.800971"><ele>3208.0</ele></trkpt>
      <trkpt lat="40.698395" lon="-110.801333"><ele>3207.2</ele></trkpt>
      <trkpt lat="40.698243" lon="-110.801741"><ele>3208.0</ele></trkpt>
      <trkpt lat="40.698096" lon="-110.802081"><ele>3209.2</ele></trkpt>
      <trkpt lat="40.698077" lon="-110.802367"><ele>3209.0</ele></trkpt>
      <trkpt lat="40.698109" lon="-110.802547"><ele>3208.2</ele></trkpt>
      <trkpt lat="40.698171" lon="-110.802832"><ele>3206.2</ele></trkpt>
      <trkpt lat="40.698346" lon="-110.803409"><ele>3202.8</ele></trkpt>
      <trkpt lat="40.698271" lon="-110.803599"><ele>3201.5</ele></trkpt>
      <trkpt lat="40.698200" lon="-110.803975"><ele>3199.5</ele></trkpt>
      <trkpt lat="40.698180" lon="-110.804372"><ele>3198.8</ele></trkpt>
      <trkpt lat="40.698048" lon="-110.804905"><ele>3199.2</ele></trkpt>
      <trkpt lat="40.697763" lon="-110.805616"><ele>3197.5</ele></trkpt>
      <trkpt lat="40.697663" lon="-110.805968"><ele>3196.8</ele></trkpt>
      <trkpt lat="40.697765" lon="-110.806188"><ele>3196.0</ele></trkpt>
      <trkpt lat="40.697688" lon="-110.806540"><ele>3195.2</ele></trkpt>
      <trkpt lat="40.697417" lon="-110.806732"><ele>3196.2</ele></trkpt>
      <trkpt lat="40.697338" lon="-110.806995"><ele>3195.8</ele></trkpt>
      <trkpt lat="40.697069" lon="-110.807317"><ele>3196.0</ele></trkpt>
      <trkpt lat="40.697145" lon="-110.807660"><ele>3195.2</ele></trkpt>
      <trkpt lat="40.697269" lon="-110.807770"><ele>3194.8</ele></trkpt>
      <trkpt lat="40.697252" lon="-110.808006"><ele>3195.0</ele></trkpt>
      <trkpt lat="40.697064" lon="-110.808261"><ele>3196.0</ele></trkpt>
      <trkpt lat="40.697059" lon="-110.808348"><ele>3196.2</ele></trkpt>
      <trkpt lat="40.696758" lon="-110.808594"><ele>3200.8</ele></trkpt>
      <trkpt lat="40.695996" lon="-110.808409"><ele>3197.0</ele></trkpt>
      <trkpt lat="40.695727" lon="-110.808288"><ele>3194.5</ele></trkpt>
      <trkpt lat="40.695573" lon="-110.808127"><ele>3192.0</ele></trkpt>
      <trkpt lat="40.695326" lon="-110.808234"><ele>3189.5</ele></trkpt>
      <trkpt lat="40.695007" lon="-110.808215"><ele>3185.8</ele></trkpt>
      <trkpt lat="40.694714" lon="-110.808218"><ele>3184.2</ele></trkpt>
      <trkpt lat="40.694330" lon="-110.808288"><ele>3182.5</ele></trkpt>
      <trkpt lat="40.694053" lon="-110.808325"><ele>3182.0</ele></trkpt>
      <trkpt lat="40.693998" lon="-110.808602"><ele>3184.5</ele></trkpt>
      <trkpt lat="40.694021" lon="-110.808859"><ele>3186.8</ele></trkpt>
      <trkpt lat="40.693940" lon="-110.809149"><ele>3189.2</ele></trkpt>
      <trkpt lat="40.693819" lon="-110.809479"><ele>3190.0</ele></trkpt>
      <trkpt lat="40.693805" lon="-110.809621"><ele>3190.5</ele></trkpt>
      <trkpt lat="40.693661" lon="-110.809707"><ele>3190.0</ele></trkpt>
      <trkpt lat="40.693576" lon="-110.810179"><ele>3190.8</ele></trkpt>
      <trkpt lat="40.693419" lon="-110.810565"><ele>3190.2</ele></trkpt>
      <trkpt lat="40.693260" lon="-110.810857"><ele>3190.2</ele></trkpt>
      <trkpt lat="40.693167" lon="-110.811260"><ele>3194.0</ele></trkpt>
      <trkpt lat="40.692919" lon="-110.812182"><ele>3198.2</ele></trkpt>
      <trkpt lat="40.692528" lon="-110.813009"><ele>3191.0</ele></trkpt>
      <trkpt lat="40.691816" lon="-110.812831"><ele>3180.5</ele></trkpt>
      <trkpt lat="40.691682" lon="-110.812880"><ele>3177.8</ele></trkpt>
      <trkpt lat="40.691654" lon="-110.813105"><ele>3176.0</ele></trkpt>
      <trkpt lat="40.691576" lon="-110.813899"><ele>3168.8</ele></trkpt>
      <trkpt lat="40.691698" lon="-110.814194"><ele>3168.0</ele></trkpt>
      <trkpt lat="40.692154" lon="-110.814505"><ele>3170.0</ele></trkpt>
      <trkpt lat="40.692280" lon="-110.814929"><ele>3166.8</ele></trkpt>
      <trkpt lat="40.692097" lon="-110.815514"><ele>3164.5</ele></trkpt>
      <trkpt lat="40.691755" lon="-110.815937"><ele>3161.0</ele></trkpt>
      <trkpt lat="40.691479" lon="-110.816377"><ele>3161.5</ele></trkpt>
      <trkpt lat="40.691162" lon="-110.816715"><ele>3160.0</ele></trkpt>
      <trkpt lat="40.690759" lon="-110.817123"><ele>3157.2</ele></trkpt>
      <trkpt lat="40.690165" lon="-110.817520"><ele>3148.2</ele></trkpt>
      <trkpt lat="40.689925" lon="-110.817815"><ele>3146.2</ele></trkpt>
      <trkpt lat="40.689713" lon="-110.818040"><ele>3144.5</ele></trkpt>
      <trkpt lat="40.689445" lon="-110.818400"><ele>3141.8</ele></trkpt>
      <trkpt lat="40.689152" lon="-110.818711"><ele>3139.2</ele></trkpt>
      <trkpt lat="40.688945" lon="-110.818936"><ele>3138.0</ele></trkpt>
      <trkpt lat="40.688652" lon="-110.819392"><ele>3134.8</ele></trkpt>
      <trkpt lat="40.688465" lon="-110.819682"><ele>3132.5</ele></trkpt>
      <trkpt lat="40.688176" lon="-110.820267"><ele>3129.8</ele></trkpt>
      <trkpt lat="40.688087" lon="-110.820453"><ele>3128.8</ele></trkpt>
      <trkpt lat="40.687907" lon="-110.820803"><ele>3126.8</ele></trkpt>
      <trkpt lat="40.687993" lon="-110.820975"><ele>3127.8</ele></trkpt>
      <trkpt lat="40.688542" lon="-110.821897"><ele>3133.2</ele></trkpt>
      <trkpt lat="40.688843" lon="-110.822498"><ele>3134.2</ele></trkpt>
      <trkpt lat="40.689164" lon="-110.823260"><ele>3133.0</ele></trkpt>
      <trkpt lat="40.689608" lon="-110.823893"><ele>3132.8</ele></trkpt>
      <trkpt lat="40.690669" lon="-110.824880"><ele>3139.5</ele></trkpt>
      <trkpt lat="40.691064" lon="-110.825593"><ele>3140.5</ele></trkpt>
      <trkpt lat="40.691682" lon="-110.826591"><ele>3134.5</ele></trkpt>
      <trkpt lat="40.692097" lon="-110.827669"><ele>3137.2</ele></trkpt>
      <trkpt lat="40.692296" lon="-110.828651"><ele>3134.5</ele></trkpt>
      <trkpt lat="40.692166" lon="-110.829284"><ele>3130.5</ele></trkpt>
      <trkpt lat="40.692052" lon="-110.829654"><ele>3129.0</ele></trkpt>
      <trkpt lat="40.691833" lon="-110.830432"><ele>3125.2</ele></trkpt>
      <trkpt lat="40.692003" lon="-110.830582"><ele>3122.8</ele></trkpt>
      <trkpt lat="40.692666" lon="-110.830593"><ele>3118.2</ele></trkpt>
      <trkpt lat="40.692870" lon="-110.830781"><ele>3116.5</ele></trkpt>
      <trkpt lat="40.693154" lon="-110.831312"><ele>3112.5</ele></trkpt>
      <trkpt lat="40.693256" lon="-110.832117"><ele>3108.2</ele></trkpt>
      <trkpt lat="40.693240" lon="-110.833216"><ele>3103.2</ele></trkpt>
      <trkpt lat="40.693358" lon="-110.834600"><ele>3099.5</ele></trkpt>
      <trkpt lat="40.693988" lon="-110.835829"><ele>3092.8</ele></trkpt>
      <trkpt lat="40.694159" lon="-110.836569"><ele>3089.5</ele></trkpt>
      <trkpt lat="40.694619" lon="-110.837771"><ele>3088.8</ele></trkpt>
      <trkpt lat="40.695131" lon="-110.839444"><ele>3088.8</ele></trkpt>
      <trkpt lat="40.695265" lon="-110.839971"><ele>3088.5</ele></trkpt>
      <trkpt lat="40.695104" lon="-110.840581"><ele>3087.2</ele></trkpt>
      <trkpt lat="40.694961" lon="-110.841150"><ele>3088.0</ele></trkpt>
      <trkpt lat="40.695025" lon="-110.841762"><ele>3090.2</ele></trkpt>
      <trkpt lat="40.695099" lon="-110.842695"><ele>3084.0</ele></trkpt>
      <trkpt lat="40.695009" lon="-110.843216"><ele>3080.8</ele></trkpt>
      <trkpt lat="40.695452" lon="-110.843859"><ele>3072.2</ele></trkpt>
      <trkpt lat="40.696217" lon="-110.844621"><ele>3066.2</ele></trkpt>
      <trkpt lat="40.696698" lon="-110.844753"><ele>3063.2</ele></trkpt>
      <trkpt lat="40.697454" lon="-110.844991"><ele>3067.5</ele></trkpt>
      <trkpt lat="40.697600" lon="-110.845184"><ele>3068.0</ele></trkpt>
      <trkpt lat="40.697722" lon="-110.845807"><ele>3067.0</ele></trkpt>
      <trkpt lat="40.697702" lon="-110.846123"><ele>3068.5</ele></trkpt>
      <trkpt lat="40.697494" lon="-110.846670"><ele>3067.8</ele></trkpt>
      <trkpt lat="40.697429" lon="-110.847233"><ele>3068.8</ele></trkpt>
      <trkpt lat="40.697474" lon="-110.848044"><ele>3069.8</ele></trkpt>
      <trkpt lat="40.697698" lon="-110.848424"><ele>3073.0</ele></trkpt>
      <trkpt lat="40.698377" lon="-110.849234"><ele>3071.0</ele></trkpt>
      <trkpt lat="40.699202" lon="-110.849594"><ele>3074.0</ele></trkpt>
      <trkpt lat="40.699772" lon="-110.849653"><ele>3076.5</ele></trkpt>
      <trkpt lat="40.700427" lon="-110.849358"><ele>3081.2</ele></trkpt>
      <trkpt lat="40.700760" lon="-110.849299"><ele>3080.2</ele></trkpt>
      <trkpt lat="40.701687" lon="-110.849347"><ele>3079.5</ele></trkpt>
      <trkpt lat="40.702415" lon="-110.849830"><ele>3075.0</ele></trkpt>
      <trkpt lat="40.702850" lon="-110.850012"><ele>3075.8</ele></trkpt>
      <trkpt lat="40.703395" lon="-110.850227"><ele>3079.0</ele></trkpt>
      <trkpt lat="40.703590" lon="-110.850377"><ele>3079.8</ele></trkpt>
      <trkpt lat="40.703953" lon="-110.850683"><ele>3081.0</ele></trkpt>
      <trkpt lat="40.704335" lon="-110.851074"><ele>3081.0</ele></trkpt>
      <trkpt lat="40.704945" lon="-110.851203"><ele>3079.2</ele></trkpt>
      <trkpt lat="40.705201" lon="-110.851284"><ele>3077.8</ele></trkpt>
      <trkpt lat="40.705486" lon="-110.852078"><ele>3073.0</ele></trkpt>
      <trkpt lat="40.705697" lon="-110.852914"><ele>3067.5</ele></trkpt>
      <trkpt lat="40.705697" lon="-110.853172"><ele>3065.5</ele></trkpt>
      <trkpt lat="40.705888" lon="-110.853467"><ele>3062.5</ele></trkpt>
      <trkpt lat="40.706449" lon="-110.853859"><ele>3055.5</ele></trkpt>
      <trkpt lat="40.707320" lon="-110.854164"><ele>3051.5</ele></trkpt>
      <trkpt lat="40.707620" lon="-110.854100"><ele>3050.8</ele></trkpt>
      <trkpt lat="40.707820" lon="-110.854180"><ele>3050.5</ele></trkpt>
      <trkpt lat="40.708166" lon="-110.854304"><ele>3049.2</ele></trkpt>
      <trkpt lat="40.708658" lon="-110.854674"><ele>3047.2</ele></trkpt>
      <trkpt lat="40.709129" lon="-110.854926"><ele>3044.8</ele></trkpt>
      <trkpt lat="40.709581" lon="-110.855071"><ele>3043.8</ele></trkpt>
      <trkpt lat="40.709963" lon="-110.855581"><ele>3039.2</ele></trkpt>
      <trkpt lat="40.709999" lon="-110.855967"><ele>3036.5</ele></trkpt>
      <trkpt lat="40.710203" lon="-110.856380"><ele>3037.0</ele></trkpt>
      <trkpt lat="40.710333" lon="-110.856562"><ele>3038.0</ele></trkpt>
      <trkpt lat="40.710512" lon="-110.856610"><ele>3039.8</ele></trkpt>
      <trkpt lat="40.710817" lon="-110.857034"><ele>3043.2</ele></trkpt>
      <trkpt lat="40.711077" lon="-110.857061"><ele>3046.0</ele></trkpt>
      <trkpt lat="40.711211" lon="-110.857394"><ele>3048.2</ele></trkpt>
      <trkpt lat="40.711504" lon="-110.857640"><ele>3052.2</ele></trkpt>
      <trkpt lat="40.711854" lon="-110.857855"><ele>3057.0</ele></trkpt>
      <trkpt lat="40.712647" lon="-110.858120"><ele>3065.0</ele></trkpt>
      <trkpt lat="40.712850" lon="-110.858290"><ele>3067.2</ele></trkpt>
      <trkpt lat="40.713305" lon="-110.858424"><ele>3071.5</ele></trkpt>
      <trkpt lat="40.713574" lon="-110.858703"><ele>3074.0</ele></trkpt>
      <trkpt lat="40.713826" lon="-110.858982"><ele>3076.5</ele></trkpt>
      <trkpt lat="40.714188" lon="-110.859507"><ele>3080.0</ele></trkpt>
      <trkpt lat="40.714484" lon="-110.859716"><ele>3083.8</ele></trkpt>
      <trkpt lat="40.714676" lon="-110.860124"><ele>3087.2</ele></trkpt>
      <trkpt lat="40.715005" lon="-110.860805"><ele>3093.8</ele></trkpt>
      <trkpt lat="40.715168" lon="-110.861669"><ele>3092.8</ele></trkpt>
      <trkpt lat="40.715159" lon="-110.862281"><ele>3090.2</ele></trkpt>
      <trkpt lat="40.715306" lon="-110.862522"><ele>3091.5</ele></trkpt>
      <trkpt lat="40.715729" lon="-110.862570"><ele>3098.2</ele></trkpt>
      <trkpt lat="40.716127" lon="-110.862688"><ele>3103.2</ele></trkpt>
      <trkpt lat="40.716440" lon="-110.862951"><ele>3107.8</ele></trkpt>
      <trkpt lat="40.716944" lon="-110.863230"><ele>3113.2</ele></trkpt>
      <trkpt lat="40.717018" lon="-110.863745"><ele>3112.2</ele></trkpt>
      <trkpt lat="40.717225" lon="-110.864078"><ele>3113.5</ele></trkpt>
      <trkpt lat="40.717762" lon="-110.864609"><ele>3116.5</ele></trkpt>
      <trkpt lat="40.718115" lon="-110.865081"><ele>3119.2</ele></trkpt>
      <trkpt lat="40.718782" lon="-110.865510"><ele>3126.0</ele></trkpt>
      <trkpt lat="40.719172" lon="-110.865515"><ele>3128.5</ele></trkpt>
      <trkpt lat="40.719384" lon="-110.865360"><ele>3130.5</ele></trkpt>
      <trkpt lat="40.719473" lon="-110.865076"><ele>3130.8</ele></trkpt>
      <trkpt lat="40.719494" lon="-110.864485"><ele>3131.2</ele></trkpt>
      <trkpt lat="40.719648" lon="-110.864738"><ele>3133.5</ele></trkpt>
      <trkpt lat="40.719843" lon="-110.864984"><ele>3136.5</ele></trkpt>
      <trkpt lat="40.719921" lon="-110.864909"><ele>3137.8</ele></trkpt>
      <trkpt lat="40.719799" lon="-110.864410"><ele>3136.2</ele></trkpt>
      <trkpt lat="40.719864" lon="-110.864110"><ele>3137.5</ele></trkpt>
      <trkpt lat="40.720343" lon="-110.863847"><ele>3145.2</ele></trkpt>
      <trkpt lat="40.720498" lon="-110.863944"><ele>3148.0</ele></trkpt>
      <trkpt lat="40.720604" lon="-110.864325"><ele>3149.8</ele></trkpt>
      <trkpt lat="40.720772" lon="-110.864821"><ele>3151.2</ele></trkpt>
      <trkpt lat="40.720785" lon="-110.865102"><ele>3151.0</ele></trkpt>
      <trkpt lat="40.721028" lon="-110.865261"><ele>3153.8</ele></trkpt>
      <trkpt lat="40.721110" lon="-110.865135"><ele>3155.2</ele></trkpt>
      <trkpt lat="40.721356" lon="-110.864378"><ele>3161.0</ele></trkpt>
      <trkpt lat="40.721516" lon="-110.863949"><ele>3164.0</ele></trkpt>
      <trkpt lat="40.721701" lon="-110.863893"><ele>3166.2</ele></trkpt>
      <trkpt lat="40.721989" lon="-110.864011"><ele>3165.8</ele></trkpt>
    </trkseg>
  </trk>
</gpx>
