<?xml version="1.0" encoding="UTF-8"?>
<gpx version="1.1" creator="pathbeaters26" xmlns="http://www.topografix.com/GPX/1/1" xmlns:xsi="http://www.w3.org/2001/XMLSchema-instance" xsi:schemaLocation="http://www.topografix.com/GPX/1/1 http://www.topografix.com/GPX/1/1/gpx.xsd">
  <metadata><name>Big Needles Loop (Chesler Park, Druid Arch, Lost Canyon)</name></metadata>
  <wpt lat="38.141680" lon="-109.827600"><name>Elephant Hill TH</name><sym>Trailhead</sym></wpt>
  <wpt lat="38.119480" lon="-109.849260"><name>Chesler Park Viewpoint</name><sym>Waypoint</sym></wpt>
  <wpt lat="38.105470" lon="-109.850230"><name>Chesler Park camp CP2</name><sym>Waypoint</sym></wpt>
  <wpt lat="38.104650" lon="-109.857700"><name>The Joint (north end)</name><sym>Waypoint</sym></wpt>
  <wpt lat="38.102040" lon="-109.859840"><name>The Joint (south end)</name><sym>Waypoint</sym></wpt>
  <wpt lat="38.103590" lon="-109.866410"><name>Joint Trail TH (Devils Lane)</name><sym>Waypoint</sym></wpt>
  <wpt lat="38.088460" lon="-109.831840"><name>Druid Arch</name><sym>Waypoint</sym></wpt>
  <wpt lat="38.114820" lon="-109.837180"><name>Elephant Canyon camp EC2</name><sym>Waypoint</sym></wpt>
  <wpt lat="38.120880" lon="-109.776940"><name>Lost Canyon camp LC1</name><sym>Waypoint</sym></wpt>
  <wpt lat="38.115330" lon="-109.755650"><name>Peekaboo Spring / Peekaboo camp</name><sym>Waypoint</sym></wpt>
  <wpt lat="38.105470" lon="-109.850230"><name>Fri camp · Chesler Park (CP2)</name><sym>Campground</sym></wpt>
  <wpt lat="38.114820" lon="-109.837180"><name>Sat camp · Elephant Canyon (EC2)</name><sym>Campground</sym></wpt>
  <wpt lat="38.120880" lon="-109.776940"><name>Sun camp · Lost Canyon (LC1)</name><sym>Campground</sym></wpt>
  <trk><name>Big Needles Loop</name>
    <!-- Fri -->
    <trkseg>
      <trkpt lat="38.141685" lon="-109.827600"><ele>1580.5</ele></trkpt>
      <trkpt lat="38.141688" lon="-109.827538"><ele>1579.2</ele></trkpt>
      <trkpt lat="38.141647" lon="-109.827505"><ele>1578.2</ele></trkpt>
      <trkpt lat="38.141633" lon="-109.827433"><ele>1578.2</ele></trkpt>
      <trkpt lat="38.141545" lon="-109.827360"><ele>1579.2</ele></trkpt>
      <trkpt lat="38.141481" lon="-109.827364"><ele>1580.5</ele></trkpt>
      <trkpt lat="38.141258" lon="-109.827491"><ele>1584.8</ele></trkpt>
      <trkpt lat="38.141143" lon="-109.827457"><ele>1586.5</ele></trkpt>
      <trkpt lat="38.140884" lon="-109.827627"><ele>1591.2</ele></trkpt>
      <trkpt lat="38.140784" lon="-109.827717"><ele>1592.5</ele></trkpt>
      <trkpt lat="38.140561" lon="-109.827746"><ele>1595.5</ele></trkpt>
      <trkpt lat="38.140418" lon="-109.827670"><ele>1597.2</ele></trkpt>
      <trkpt lat="38.140286" lon="-109.827828"><ele>1599.8</ele></trkpt>
      <trkpt lat="38.139700" lon="-109.827962"><ele>1608.2</ele></trkpt>
      <trkpt lat="38.139750" lon="-109.828125"><ele>1609.2</ele></trkpt>
      <trkpt lat="38.139663" lon="-109.828238"><ele>1611.0</ele></trkpt>
      <trkpt lat="38.138797" lon="-109.828409"><ele>1620.2</ele></trkpt>
      <trkpt lat="38.138593" lon="-109.828426"><ele>1622.8</ele></trkpt>
      <trkpt lat="38.137584" lon="-109.828641"><ele>1622.8</ele></trkpt>
      <trkpt lat="38.137077" lon="-109.828999"><ele>1620.0</ele></trkpt>
      <trkpt lat="38.136392" lon="-109.829410"><ele>1619.0</ele></trkpt>
      <trkpt lat="38.135638" lon="-109.829476"><ele>1617.2</ele></trkpt>
      <trkpt lat="38.135346" lon="-109.829507"><ele>1621.2</ele></trkpt>
      <trkpt lat="38.134979" lon="-109.829321"><ele>1623.5</ele></trkpt>
      <trkpt lat="38.134517" lon="-109.829466"><ele>1629.8</ele></trkpt>
      <trkpt lat="38.133987" lon="-109.829560"><ele>1634.2</ele></trkpt>
      <trkpt lat="38.133831" lon="-109.829613"><ele>1634.5</ele></trkpt>
      <trkpt lat="38.133260" lon="-109.829840"><ele>1635.0</ele></trkpt>
      <trkpt lat="38.132990" lon="-109.829668"><ele>1632.5</ele></trkpt>
      <trkpt lat="38.132732" lon="-109.829525"><ele>1630.2</ele></trkpt>
      <trkpt lat="38.132495" lon="-109.829269"><ele>1626.8</ele></trkpt>
      <trkpt lat="38.132266" lon="-109.829272"><ele>1626.8</ele></trkpt>
      <trkpt lat="38.131730" lon="-109.829557"><ele>1629.2</ele></trkpt>
      <trkpt lat="38.131378" lon="-109.829615"><ele>1631.8</ele></trkpt>
      <trkpt lat="38.131046" lon="-109.829403"><ele>1631.8</ele></trkpt>
      <trkpt lat="38.130794" lon="-109.829271"><ele>1631.8</ele></trkpt>
      <trkpt lat="38.130666" lon="-109.829062"><ele>1631.5</ele></trkpt>
      <trkpt lat="38.130424" lon="-109.829005"><ele>1634.0</ele></trkpt>
      <trkpt lat="38.130246" lon="-109.828863"><ele>1634.8</ele></trkpt>
      <trkpt lat="38.129760" lon="-109.828914"><ele>1637.5</ele></trkpt>
      <trkpt lat="38.129392" lon="-109.829308"><ele>1639.5</ele></trkpt>
      <trkpt lat="38.128144" lon="-109.830800"><ele>1629.5</ele></trkpt>
      <trkpt lat="38.127849" lon="-109.831070"><ele>1631.2</ele></trkpt>
      <trkpt lat="38.127550" lon="-109.831115"><ele>1633.8</ele></trkpt>
      <trkpt lat="38.127284" lon="-109.831239"><ele>1634.8</ele></trkpt>
      <trkpt lat="38.126632" lon="-109.831796"><ele>1634.2</ele></trkpt>
      <trkpt lat="38.126241" lon="-109.832222"><ele>1636.5</ele></trkpt>
      <trkpt lat="38.125925" lon="-109.832361"><ele>1637.5</ele></trkpt>
      <trkpt lat="38.125577" lon="-109.832460"><ele>1638.8</ele></trkpt>
      <trkpt lat="38.125200" lon="-109.832697"><ele>1641.5</ele></trkpt>
      <trkpt lat="38.124862" lon="-109.833291"><ele>1648.0</ele></trkpt>
      <trkpt lat="38.124667" lon="-109.833551"><ele>1649.5</ele></trkpt>
      <trkpt lat="38.124661" lon="-109.833857"><ele>1648.5</ele></trkpt>
      <trkpt lat="38.124763" lon="-109.834270"><ele>1647.0</ele></trkpt>
      <trkpt lat="38.125180" lon="-109.835598"><ele>1642.2</ele></trkpt>
      <trkpt lat="38.125430" lon="-109.835934"><ele>1641.0</ele></trkpt>
      <trkpt lat="38.125589" lon="-109.836316"><ele>1639.5</ele></trkpt>
      <trkpt lat="38.125606" lon="-109.836664"><ele>1639.0</ele></trkpt>
      <trkpt lat="38.125517" lon="-109.837186"><ele>1633.2</ele></trkpt>
      <trkpt lat="38.125403" lon="-109.837322"><ele>1633.5</ele></trkpt>
      <trkpt lat="38.125044" lon="-109.837501"><ele>1638.0</ele></trkpt>
      <trkpt lat="38.123990" lon="-109.838309"><ele>1633.8</ele></trkpt>
      <trkpt lat="38.123785" lon="-109.838512"><ele>1631.8</ele></trkpt>
      <trkpt lat="38.123690" lon="-109.838746"><ele>1626.8</ele></trkpt>
      <trkpt lat="38.123765" lon="-109.839095"><ele>1616.5</ele></trkpt>
      <trkpt lat="38.123942" lon="-109.839511"><ele>1606.0</ele></trkpt>
      <trkpt lat="38.123881" lon="-109.839725"><ele>1602.8</ele></trkpt>
      <trkpt lat="38.123650" lon="-109.839876"><ele>1601.5</ele></trkpt>
      <trkpt lat="38.123474" lon="-109.840093"><ele>1601.5</ele></trkpt>
      <trkpt lat="38.123528" lon="-109.840496"><ele>1607.8</ele></trkpt>
      <trkpt lat="38.123614" lon="-109.840621"><ele>1610.0</ele></trkpt>
      <trkpt lat="38.123547" lon="-109.840692"><ele>1610.8</ele></trkpt>
      <trkpt lat="38.123260" lon="-109.840735"><ele>1611.5</ele></trkpt>
      <trkpt lat="38.123004" lon="-109.841273"><ele>1625.0</ele></trkpt>
      <trkpt lat="38.122884" lon="-109.841834"><ele>1634.0</ele></trkpt>
      <trkpt lat="38.122687" lon="-109.842382"><ele>1639.8</ele></trkpt>
      <trkpt lat="38.122269" lon="-109.842741"><ele>1645.0</ele></trkpt>
      <trkpt lat="38.122380" lon="-109.843051"><ele>1647.8</ele></trkpt>
      <trkpt lat="38.122548" lon="-109.842929"><ele>1645.5</ele></trkpt>
      <trkpt lat="38.122800" lon="-109.842875"><ele>1647.5</ele></trkpt>
      <trkpt lat="38.122810" lon="-109.843044"><ele>1649.8</ele></trkpt>
      <trkpt lat="38.122672" lon="-109.843261"><ele>1651.2</ele></trkpt>
      <trkpt lat="38.122699" lon="-109.843629"><ele>1655.8</ele></trkpt>
      <trkpt lat="38.122630" lon="-109.843946"><ele>1659.0</ele></trkpt>
      <trkpt lat="38.122503" lon="-109.844513"><ele>1664.2</ele></trkpt>
      <trkpt lat="38.122404" lon="-109.844882"><ele>1667.2</ele></trkpt>
      <trkpt lat="38.122055" lon="-109.845333"><ele>1669.5</ele></trkpt>
      <trkpt lat="38.121868" lon="-109.845935"><ele>1671.2</ele></trkpt>
      <trkpt lat="38.121740" lon="-109.846109"><ele>1671.5</ele></trkpt>
      <trkpt lat="38.121627" lon="-109.846370"><ele>1672.0</ele></trkpt>
      <trkpt lat="38.121431" lon="-109.846643"><ele>1674.0</ele></trkpt>
      <trkpt lat="38.121279" lon="-109.846815"><ele>1675.2</ele></trkpt>
      <trkpt lat="38.120829" lon="-109.847003"><ele>1680.8</ele></trkpt>
      <trkpt lat="38.120766" lon="-109.847166"><ele>1682.0</ele></trkpt>
      <trkpt lat="38.120795" lon="-109.847847"><ele>1680.0</ele></trkpt>
      <trkpt lat="38.120230" lon="-109.848414"><ele>1717.0</ele></trkpt>
      <trkpt lat="38.119668" lon="-109.849107"><ele>1726.2</ele></trkpt>
      <trkpt lat="38.119258" lon="-109.849325"><ele>1724.5</ele></trkpt>
      <trkpt lat="38.118927" lon="-109.849571"><ele>1720.5</ele></trkpt>
      <trkpt lat="38.118495" lon="-109.849889"><ele>1714.2</ele></trkpt>
      <trkpt lat="38.118032" lon="-109.849810"><ele>1713.8</ele></trkpt>
      <trkpt lat="38.117591" lon="-109.849513"><ele>1717.0</ele></trkpt>
      <trkpt lat="38.117208" lon="-109.849572"><ele>1717.5</ele></trkpt>
      <trkpt lat="38.116837" lon="-109.849623"><ele>1718.5</ele></trkpt>
      <trkpt lat="38.116683" lon="-109.849565"><ele>1719.5</ele></trkpt>
      <trkpt lat="38.116351" lon="-109.848944"><ele>1722.8</ele></trkpt>
      <trkpt lat="38.116189" lon="-109.848789"><ele>1723.2</ele></trkpt>
      <trkpt lat="38.115843" lon="-109.848606"><ele>1724.0</ele></trkpt>
      <trkpt lat="38.115477" lon="-109.848511"><ele>1722.0</ele></trkpt>
      <trkpt lat="38.115199" lon="-109.848358"><ele>1720.8</ele></trkpt>
      <trkpt lat="38.114797" lon="-109.848000"><ele>1720.5</ele></trkpt>
      <trkpt lat="38.114355" lon="-109.847499"><ele>1723.0</ele></trkpt>
      <trkpt lat="38.114170" lon="-109.847349"><ele>1724.2</ele></trkpt>
      <trkpt lat="38.114010" lon="-109.847016"><ele>1726.8</ele></trkpt>
      <trkpt lat="38.113789" lon="-109.846262"><ele>1734.5</ele></trkpt>
      <trkpt lat="38.114010" lon="-109.847016"><ele>1726.8</ele></trkpt>
      <trkpt lat="38.114170" lon="-109.847349"><ele>1724.2</ele></trkpt>
      <trkpt lat="38.114355" lon="-109.847499"><ele>1723.0</ele></trkpt>
      <trkpt lat="38.114797" lon="-109.848000"><ele>1720.5</ele></trkpt>
      <trkpt lat="38.115199" lon="-109.848358"><ele>1720.8</ele></trkpt>
      <trkpt lat="38.115477" lon="-109.848511"><ele>1722.0</ele></trkpt>
      <trkpt lat="38.115843" lon="-109.848606"><ele>1724.0</ele></trkpt>
      <trkpt lat="38.116189" lon="-109.848789"><ele>1723.2</ele></trkpt>
      <trkpt lat="38.116351" lon="-109.848944"><ele>1722.8</ele></trkpt>
      <trkpt lat="38.116683" lon="-109.849565"><ele>1719.5</ele></trkpt>
      <trkpt lat="38.116837" lon="-109.849623"><ele>1718.5</ele></trkpt>
      <trkpt lat="38.117208" lon="-109.849572"><ele>1717.5</ele></trkpt>
      <trkpt lat="38.117591" lon="-109.849513"><ele>1717.0</ele></trkpt>
      <trkpt lat="38.118032" lon="-109.849810"><ele>1713.8</ele></trkpt>
      <trkpt lat="38.118495" lon="-109.849889"><ele>1714.2</ele></trkpt>
      <trkpt lat="38.118927" lon="-109.849571"><ele>1720.5</ele></trkpt>
      <trkpt lat="38.119258" lon="-109.849325"><ele>1724.5</ele></trkpt>
      <trkpt lat="38.119258" lon="-109.849325"><ele>1724.5</ele></trkpt>
      <trkpt lat="38.118927" lon="-109.849571"><ele>1720.5</ele></trkpt>
      <trkpt lat="38.118495" lon="-109.849889"><ele>1714.2</ele></trkpt>
      <trkpt lat="38.118032" lon="-109.849810"><ele>1713.8</ele></trkpt>
      <trkpt lat="38.117591" lon="-109.849513"><ele>1717.0</ele></trkpt>
      <trkpt lat="38.117208" lon="-109.849572"><ele>1717.5</ele></trkpt>
      <trkpt lat="38.116837" lon="-109.849623"><ele>1718.5</ele></trkpt>
      <trkpt lat="38.116683" lon="-109.849565"><ele>1719.5</ele></trkpt>
      <trkpt lat="38.116351" lon="-109.848944"><ele>1722.8</ele></trkpt>
      <trkpt lat="38.116189" lon="-109.848789"><ele>1723.2</ele></trkpt>
      <trkpt lat="38.115843" lon="-109.848606"><ele>1724.0</ele></trkpt>
      <trkpt lat="38.115477" lon="-109.848511"><ele>1722.0</ele></trkpt>
      <trkpt lat="38.115199" lon="-109.848358"><ele>1720.8</ele></trkpt>
      <trkpt lat="38.114797" lon="-109.848000"><ele>1720.5</ele></trkpt>
      <trkpt lat="38.114355" lon="-109.847499"><ele>1723.0</ele></trkpt>
      <trkpt lat="38.114170" lon="-109.847349"><ele>1724.2</ele></trkpt>
      <trkpt lat="38.114010" lon="-109.847016"><ele>1726.8</ele></trkpt>
      <trkpt lat="38.113723" lon="-109.846108"><ele>1734.5</ele></trkpt>
      <trkpt lat="38.113743" lon="-109.845459"><ele>1740.5</ele></trkpt>
      <trkpt lat="38.113577" lon="-109.845104"><ele>1741.8</ele></trkpt>
      <trkpt lat="38.113535" lon="-109.844896"><ele>1740.0</ele></trkpt>
      <trkpt lat="38.113346" lon="-109.844950"><ele>1740.2</ele></trkpt>
      <trkpt lat="38.113227" lon="-109.845260"><ele>1738.5</ele></trkpt>
      <trkpt lat="38.113083" lon="-109.845456"><ele>1736.0</ele></trkpt>
      <trkpt lat="38.112686" lon="-109.845737"><ele>1730.8</ele></trkpt>
      <trkpt lat="38.111039" lon="-109.846583"><ele>1719.5</ele></trkpt>
      <trkpt lat="38.109648" lon="-109.847186"><ele>1717.5</ele></trkpt>
      <trkpt lat="38.109035" lon="-109.847421"><ele>1716.8</ele></trkpt>
      <trkpt lat="38.108326" lon="-109.848290"><ele>1717.8</ele></trkpt>
      <trkpt lat="38.107323" lon="-109.849104"><ele>1721.0</ele></trkpt>
      <trkpt lat="38.106542" lon="-109.849486"><ele>1725.8</ele></trkpt>
      <trkpt lat="38.106029" lon="-109.849900"><ele>1727.5</ele></trkpt>
      <trkpt lat="38.106003" lon="-109.850375"><ele>1724.8</ele></trkpt>
      <trkpt lat="38.106167" lon="-109.850549"><ele>1722.2</ele></trkpt>
      <trkpt lat="38.106598" lon="-109.850538"><ele>1720.2</ele></trkpt>
      <trkpt lat="38.107166" lon="-109.850519"><ele>1724.2</ele></trkpt>
      <trkpt lat="38.107452" lon="-109.850562"><ele>1726.5</ele></trkpt>
      <trkpt lat="38.107786" lon="-109.850655"><ele>1730.2</ele></trkpt>
      <trkpt lat="38.108073" lon="-109.850900"><ele>1734.0</ele></trkpt>
      <trkpt lat="38.108273" lon="-109.851166"><ele>1730.0</ele></trkpt>
      <trkpt lat="38.108459" lon="-109.851324"><ele>1731.0</ele></trkpt>
      <trkpt lat="38.108636" lon="-109.851394"><ele>1736.2</ele></trkpt>
      <trkpt lat="38.108732" lon="-109.851677"><ele>1734.8</ele></trkpt>
      <trkpt lat="38.109054" lon="-109.852016"><ele>1734.8</ele></trkpt>
      <trkpt lat="38.109321" lon="-109.852438"><ele>1715.8</ele></trkpt>
      <trkpt lat="38.109644" lon="-109.852563"><ele>1710.0</ele></trkpt>
      <trkpt lat="38.109644" lon="-109.852563"><ele>1710.0</ele></trkpt>
      <trkpt lat="38.109321" lon="-109.852438"><ele>1715.8</ele></trkpt>
      <trkpt lat="38.109054" lon="-109.852016"><ele>1734.8</ele></trkpt>
      <trkpt lat="38.108732" lon="-109.851677"><ele>1734.8</ele></trkpt>
      <trkpt lat="38.108636" lon="-109.851394"><ele>1736.2</ele></trkpt>
      <trkpt lat="38.108459" lon="-109.851324"><ele>1731.0</ele></trkpt>
      <trkpt lat="38.108273" lon="-109.851166"><ele>1730.0</ele></trkpt>
      <trkpt lat="38.108073" lon="-109.850900"><ele>1734.0</ele></trkpt>
      <trkpt lat="38.107786" lon="-109.850655"><ele>1730.2</ele></trkpt>
      <trkpt lat="38.107452" lon="-109.850562"><ele>1726.5</ele></trkpt>
      <trkpt lat="38.107166" lon="-109.850519"><ele>1724.2</ele></trkpt>
      <trkpt lat="38.106598" lon="-109.850538"><ele>1720.2</ele></trkpt>
      <trkpt lat="38.106167" lon="-109.850549"><ele>1722.2</ele></trkpt>
      <trkpt lat="38.106003" lon="-109.850375"><ele>1724.8</ele></trkpt>
      <trkpt lat="38.105780" lon="-109.850217"><ele>1726.0</ele></trkpt>
      <trkpt lat="38.105459" lon="-109.850447"><ele>1723.2</ele></trkpt>
      <trkpt lat="38.104472" lon="-109.851718"><ele>1719.0</ele></trkpt>
      <trkpt lat="38.104209" lon="-109.852025"><ele>1719.2</ele></trkpt>
      <trkpt lat="38.104081" lon="-109.852207"><ele>1719.5</ele></trkpt>
      <trkpt lat="38.103966" lon="-109.852520"><ele>1719.8</ele></trkpt>
      <trkpt lat="38.103790" lon="-109.852745"><ele>1721.0</ele></trkpt>
      <trkpt lat="38.103515" lon="-109.852856"><ele>1722.8</ele></trkpt>
      <trkpt lat="38.102842" lon="-109.853084"><ele>1726.8</ele></trkpt>
      <trkpt lat="38.102481" lon="-109.853441"><ele>1728.8</ele></trkpt>
      <trkpt lat="38.102252" lon="-109.853773"><ele>1729.0</ele></trkpt>
      <trkpt lat="38.102068" lon="-109.854010"><ele>1729.8</ele></trkpt>
      <trkpt lat="38.102445" lon="-109.854222"><ele>1727.0</ele></trkpt>
      <trkpt lat="38.102632" lon="-109.854096"><ele>1726.5</ele></trkpt>
      <trkpt lat="38.102890" lon="-109.853932"><ele>1726.0</ele></trkpt>
      <trkpt lat="38.103197" lon="-109.853995"><ele>1724.5</ele></trkpt>
      <trkpt lat="38.103513" lon="-109.854300"><ele>1721.5</ele></trkpt>
      <trkpt lat="38.103657" lon="-109.854575"><ele>1719.0</ele></trkpt>
      <trkpt lat="38.103735" lon="-109.854893"><ele>1717.0</ele></trkpt>
      <trkpt lat="38.103815" lon="-109.855176"><ele>1715.5</ele></trkpt>
      <trkpt lat="38.104086" lon="-109.855295"><ele>1713.2</ele></trkpt>
      <trkpt lat="38.104212" lon="-109.855579"><ele>1711.8</ele></trkpt>
      <trkpt lat="38.104229" lon="-109.855707"><ele>1711.0</ele></trkpt>
      <trkpt lat="38.104417" lon="-109.855873"><ele>1709.8</ele></trkpt>
      <trkpt lat="38.104603" lon="-109.856170"><ele>1707.5</ele></trkpt>
      <trkpt lat="38.104777" lon="-109.856555"><ele>1705.5</ele></trkpt>
      <trkpt lat="38.104848" lon="-109.856785"><ele>1704.5</ele></trkpt>
      <trkpt lat="38.104855" lon="-109.857080"><ele>1703.8</ele></trkpt>
      <trkpt lat="38.104724" lon="-109.857257"><ele>1703.2</ele></trkpt>
      <trkpt lat="38.104640" lon="-109.857521"><ele>1702.5</ele></trkpt>
      <trkpt lat="38.104579" lon="-109.857609"><ele>1702.5</ele></trkpt>
      <trkpt lat="38.104476" lon="-109.857823"><ele>1702.8</ele></trkpt>
      <trkpt lat="38.103643" lon="-109.858342"><ele>1711.0</ele></trkpt>
      <trkpt lat="38.102996" lon="-109.858708"><ele>1706.8</ele></trkpt>
      <trkpt lat="38.102679" lon="-109.858874"><ele>1701.2</ele></trkpt>
      <trkpt lat="38.101991" lon="-109.859189"><ele>1697.5</ele></trkpt>
      <trkpt lat="38.101918" lon="-109.859260"><ele>1697.0</ele></trkpt>
      <trkpt lat="38.101744" lon="-109.859327"><ele>1696.5</ele></trkpt>
      <trkpt lat="38.101746" lon="-109.859441"><ele>1695.0</ele></trkpt>
      <trkpt lat="38.102040" lon="-109.859840"><ele>1689.0</ele></trkpt>
      <trkpt lat="38.102174" lon="-109.860044"><ele>1688.5</ele></trkpt>
      <trkpt lat="38.102145" lon="-109.860153"><ele>1687.2</ele></trkpt>
      <trkpt lat="38.102025" lon="-109.860328"><ele>1685.2</ele></trkpt>
      <trkpt lat="38.102006" lon="-109.860551"><ele>1682.8</ele></trkpt>
      <trkpt lat="38.102017" lon="-109.860721"><ele>1681.0</ele></trkpt>
      <trkpt lat="38.102093" lon="-109.860822"><ele>1679.5</ele></trkpt>
      <trkpt lat="38.102395" lon="-109.861272"><ele>1673.2</ele></trkpt>
      <trkpt lat="38.102632" lon="-109.861486"><ele>1669.5</ele></trkpt>
      <trkpt lat="38.103134" lon="-109.861760"><ele>1661.8</ele></trkpt>
      <trkpt lat="38.103663" lon="-109.862228"><ele>1658.0</ele></trkpt>
      <trkpt lat="38.104222" lon="-109.862537"><ele>1654.8</ele></trkpt>
      <trkpt lat="38.104530" lon="-109.862840"><ele>1653.2</ele></trkpt>
      <trkpt lat="38.104579" lon="-109.862999"><ele>1652.8</ele></trkpt>
      <trkpt lat="38.104672" lon="-109.863540"><ele>1649.8</ele></trkpt>
      <trkpt lat="38.104363" lon="-109.863790"><ele>1649.5</ele></trkpt>
      <trkpt lat="38.103986" lon="-109.864125"><ele>1645.8</ele></trkpt>
      <trkpt lat="38.103863" lon="-109.864351"><ele>1642.0</ele></trkpt>
      <trkpt lat="38.103632" lon="-109.864567"><ele>1637.0</ele></trkpt>
      <trkpt lat="38.103414" lon="-109.864669"><ele>1632.8</ele></trkpt>
      <trkpt lat="38.103275" lon="-109.864615"><ele>1631.8</ele></trkpt>
      <trkpt lat="38.103090" lon="-109.864737"><ele>1629.8</ele></trkpt>
      <trkpt lat="38.103073" lon="-109.864904"><ele>1628.5</ele></trkpt>
      <trkpt lat="38.103114" lon="-109.865128"><ele>1627.5</ele></trkpt>
      <trkpt lat="38.103492" lon="-109.865687"><ele>1627.2</ele></trkpt>
      <trkpt lat="38.103555" lon="-109.865995"><ele>1626.2</ele></trkpt>
      <trkpt lat="38.103647" lon="-109.866165"><ele>1625.8</ele></trkpt>
      <trkpt lat="38.103584" lon="-109.866350"><ele>1625.2</ele></trkpt>
      <trkpt lat="38.103593" lon="-109.866408"><ele>1624.8</ele></trkpt>
      <trkpt lat="38.103584" lon="-109.866350"><ele>1625.2</ele></trkpt>
      <trkpt lat="38.103647" lon="-109.866165"><ele>1625.8</ele></trkpt>
      <trkpt lat="38.103555" lon="-109.865995"><ele>1626.2</ele></trkpt>
      <trkpt lat="38.103492" lon="-109.865687"><ele>1627.2</ele></trkpt>
      <trkpt lat="38.103114" lon="-109.865128"><ele>1627.5</ele></trkpt>
      <trkpt lat="38.103073" lon="-109.864904"><ele>1628.5</ele></trkpt>
      <trkpt lat="38.103090" lon="-109.864737"><ele>1629.8</ele></trkpt>
      <trkpt lat="38.103275" lon="-109.864615"><ele>1631.8</ele></trkpt>
      <trkpt lat="38.103414" lon="-109.864669"><ele>1632.8</ele></trkpt>
      <trkpt lat="38.103632" lon="-109.864567"><ele>1637.0</ele></trkpt>
      <trkpt lat="38.103863" lon="-109.864351"><ele>1642.0</ele></trkpt>
      <trkpt lat="38.103986" lon="-109.864125"><ele>1645.8</ele></trkpt>
      <trkpt lat="38.104363" lon="-109.863790"><ele>1649.5</ele></trkpt>
      <trkpt lat="38.104672" lon="-109.863540"><ele>1649.8</ele></trkpt>
      <trkpt lat="38.104579" lon="-109.862999"><ele>1652.8</ele></trkpt>
      <trkpt lat="38.104530" lon="-109.862840"><ele>1653.2</ele></trkpt>
      <trkpt lat="38.104222" lon="-109.862537"><ele>1654.8</ele></trkpt>
      <trkpt lat="38.103663" lon="-109.862228"><ele>1658.0</ele></trkpt>
      <trkpt lat="38.103134" lon="-109.861760"><ele>1661.8</ele></trkpt>
      <trkpt lat="38.102632" lon="-109.861486"><ele>1669.5</ele></trkpt>
      <trkpt lat="38.102395" lon="-109.861272"><ele>1673.2</ele></trkpt>
      <trkpt lat="38.102093" lon="-109.860822"><ele>1679.5</ele></trkpt>
      <trkpt lat="38.102017" lon="-109.860721"><ele>1681.0</ele></trkpt>
      <trkpt lat="38.102006" lon="-109.860551"><ele>1682.8</ele></trkpt>
      <trkpt lat="38.102025" lon="-109.860328"><ele>1685.2</ele></trkpt>
      <trkpt lat="38.102145" lon="-109.860153"><ele>1687.2</ele></trkpt>
      <trkpt lat="38.102174" lon="-109.860044"><ele>1688.5</ele></trkpt>
      <trkpt lat="38.102040" lon="-109.859840"><ele>1690.5</ele></trkpt>
      <trkpt lat="38.101746" lon="-109.859441"><ele>1695.0</ele></trkpt>
      <trkpt lat="38.101744" lon="-109.859327"><ele>1696.5</ele></trkpt>
      <trkpt lat="38.101918" lon="-109.859260"><ele>1697.0</ele></trkpt>
      <trkpt lat="38.101991" lon="-109.859189"><ele>1697.5</ele></trkpt>
      <trkpt lat="38.102679" lon="-109.858874"><ele>1701.2</ele></trkpt>
      <trkpt lat="38.102996" lon="-109.858708"><ele>1706.8</ele></trkpt>
      <trkpt lat="38.103643" lon="-109.858342"><ele>1711.0</ele></trkpt>
      <trkpt lat="38.104476" lon="-109.857823"><ele>1702.8</ele></trkpt>
      <trkpt lat="38.104579" lon="-109.857609"><ele>1702.5</ele></trkpt>
      <trkpt lat="38.104640" lon="-109.857521"><ele>1702.5</ele></trkpt>
      <trkpt lat="38.104724" lon="-109.857257"><ele>1703.2</ele></trkpt>
      <trkpt lat="38.104855" lon="-109.857080"><ele>1703.8</ele></trkpt>
      <trkpt lat="38.104848" lon="-109.856785"><ele>1704.5</ele></trkpt>
      <trkpt lat="38.104777" lon="-109.856555"><ele>1705.5</ele></trkpt>
      <trkpt lat="38.104603" lon="-109.856170"><ele>1707.5</ele></trkpt>
      <trkpt lat="38.104417" lon="-109.855873"><ele>1709.8</ele></trkpt>
      <trkpt lat="38.104229" lon="-109.855707"><ele>1711.0</ele></trkpt>
      <trkpt lat="38.104212" lon="-109.855579"><ele>1711.8</ele></trkpt>
      <trkpt lat="38.104086" lon="-109.855295"><ele>1713.2</ele></trkpt>
      <trkpt lat="38.103815" lon="-109.855176"><ele>1715.5</ele></trkpt>
      <trkpt lat="38.103735" lon="-109.854893"><ele>1717.0</ele></trkpt>
      <trkpt lat="38.103657" lon="-109.854575"><ele>1719.0</ele></trkpt>
      <trkpt lat="38.103513" lon="-109.854300"><ele>1721.5</ele></trkpt>
      <trkpt lat="38.103197" lon="-109.853995"><ele>1724.5</ele></trkpt>
      <trkpt lat="38.102890" lon="-109.853932"><ele>1726.0</ele></trkpt>
      <trkpt lat="38.102632" lon="-109.854096"><ele>1726.5</ele></trkpt>
      <trkpt lat="38.102445" lon="-109.854222"><ele>1727.0</ele></trkpt>
      <trkpt lat="38.102068" lon="-109.854010"><ele>1729.8</ele></trkpt>
      <trkpt lat="38.102252" lon="-109.853773"><ele>1729.0</ele></trkpt>
      <trkpt lat="38.102481" lon="-109.853441"><ele>1728.8</ele></trkpt>
      <trkpt lat="38.102842" lon="-109.853084"><ele>1726.8</ele></trkpt>
      <trkpt lat="38.103515" lon="-109.852856"><ele>1722.8</ele></trkpt>
      <trkpt lat="38.103790" lon="-109.852745"><ele>1721.0</ele></trkpt>
      <trkpt lat="38.103966" lon="-109.852520"><ele>1719.8</ele></trkpt>
      <trkpt lat="38.104081" lon="-109.852207"><ele>1719.5</ele></trkpt>
      <trkpt lat="38.104209" lon="-109.852025"><ele>1719.2</ele></trkpt>
      <trkpt lat="38.104472" lon="-109.851718"><ele>1719.0</ele></trkpt>
      <trkpt lat="38.105459" lon="-109.850447"><ele>1723.2</ele></trkpt>
      <trkpt lat="38.105545" lon="-109.850372"><ele>1724.2</ele></trkpt>
    </trkseg>
    <!-- Sat -->
    <trkseg>
      <trkpt lat="38.105545" lon="-109.850372"><ele>1724.0</ele></trkpt>
      <trkpt lat="38.105780" lon="-109.850217"><ele>1726.0</ele></trkpt>
      <trkpt lat="38.106003" lon="-109.850375"><ele>1724.8</ele></trkpt>
      <trkpt lat="38.106167" lon="-109.850549"><ele>1722.2</ele></trkpt>
      <trkpt lat="38.106598" lon="-109.850538"><ele>1720.2</ele></trkpt>
      <trkpt lat="38.107166" lon="-109.850519"><ele>1724.2</ele></trkpt>
      <trkpt lat="38.107452" lon="-109.850562"><ele>1726.5</ele></trkpt>
      <trkpt lat="38.107786" lon="-109.850655"><ele>1730.2</ele></trkpt>
      <trkpt lat="38.108073" lon="-109.850900"><ele>1734.0</ele></trkpt>
      <trkpt lat="38.108273" lon="-109.851166"><ele>1730.0</ele></trkpt>
      <trkpt lat="38.108459" lon="-109.851324"><ele>1731.0</ele></trkpt>
      <trkpt lat="38.108636" lon="-109.851394"><ele>1736.2</ele></trkpt>
      <trkpt lat="38.108732" lon="-109.851677"><ele>1734.8</ele></trkpt>
      <trkpt lat="38.109054" lon="-109.852016"><ele>1734.8</ele></trkpt>
      <trkpt lat="38.109321" lon="-109.852438"><ele>1715.8</ele></trkpt>
      <trkpt lat="38.109644" lon="-109.852563"><ele>1710.0</ele></trkpt>
      <trkpt lat="38.109644" lon="-109.852563"><ele>1710.0</ele></trkpt>
      <trkpt lat="38.109321" lon="-109.852438"><ele>1715.8</ele></trkpt>
      <trkpt lat="38.109054" lon="-109.852016"><ele>1734.8</ele></trkpt>
      <trkpt lat="38.108732" lon="-109.851677"><ele>1734.8</ele></trkpt>
      <trkpt lat="38.108636" lon="-109.851394"><ele>1736.2</ele></trkpt>
      <trkpt lat="38.108459" lon="-109.851324"><ele>1731.0</ele></trkpt>
      <trkpt lat="38.108273" lon="-109.851166"><ele>1730.0</ele></trkpt>
      <trkpt lat="38.108073" lon="-109.850900"><ele>1734.0</ele></trkpt>
      <trkpt lat="38.107786" lon="-109.850655"><ele>1730.2</ele></trkpt>
      <trkpt lat="38.107452" lon="-109.850562"><ele>1726.5</ele></trkpt>
      <trkpt lat="38.107166" lon="-109.850519"><ele>1724.2</ele></trkpt>
      <trkpt lat="38.106598" lon="-109.850538"><ele>1720.2</ele></trkpt>
      <trkpt lat="38.106167" lon="-109.850549"><ele>1722.2</ele></trkpt>
      <trkpt lat="38.106003" lon="-109.850375"><ele>1724.8</ele></trkpt>
      <trkpt lat="38.106029" lon="-109.849900"><ele>1727.5</ele></trkpt>
      <trkpt lat="38.106715" lon="-109.848708"><ele>1722.0</ele></trkpt>
      <trkpt lat="38.107031" lon="-109.847506"><ele>1721.8</ele></trkpt>
      <trkpt lat="38.107076" lon="-109.847034"><ele>1727.8</ele></trkpt>
      <trkpt lat="38.107139" lon="-109.846903"><ele>1729.0</ele></trkpt>
      <trkpt lat="38.107403" lon="-109.846623"><ele>1729.0</ele></trkpt>
      <trkpt lat="38.107727" lon="-109.846374"><ele>1726.2</ele></trkpt>
      <trkpt lat="38.107954" lon="-109.846035"><ele>1724.5</ele></trkpt>
      <trkpt lat="38.108154" lon="-109.845800"><ele>1722.8</ele></trkpt>
      <trkpt lat="38.108294" lon="-109.845491"><ele>1719.0</ele></trkpt>
      <trkpt lat="38.108456" lon="-109.845289"><ele>1717.2</ele></trkpt>
      <trkpt lat="38.108468" lon="-109.844917"><ele>1714.8</ele></trkpt>
      <trkpt lat="38.108530" lon="-109.844786"><ele>1715.2</ele></trkpt>
      <trkpt lat="38.108474" lon="-109.844362"><ele>1714.8</ele></trkpt>
      <trkpt lat="38.108357" lon="-109.844254"><ele>1714.0</ele></trkpt>
      <trkpt lat="38.108041" lon="-109.844098"><ele>1714.5</ele></trkpt>
      <trkpt lat="38.107802" lon="-109.844268"><ele>1717.0</ele></trkpt>
      <trkpt lat="38.107480" lon="-109.844243"><ele>1718.8</ele></trkpt>
      <trkpt lat="38.107366" lon="-109.844078"><ele>1716.5</ele></trkpt>
      <trkpt lat="38.107326" lon="-109.843755"><ele>1708.0</ele></trkpt>
      <trkpt lat="38.107405" lon="-109.843621"><ele>1705.0</ele></trkpt>
      <trkpt lat="38.107372" lon="-109.843415"><ele>1699.5</ele></trkpt>
      <trkpt lat="38.107708" lon="-109.843288"><ele>1700.5</ele></trkpt>
      <trkpt lat="38.108040" lon="-109.843116"><ele>1701.0</ele></trkpt>
      <trkpt lat="38.108225" lon="-109.843237"><ele>1705.8</ele></trkpt>
      <trkpt lat="38.108393" lon="-109.843232"><ele>1707.2</ele></trkpt>
      <trkpt lat="38.108497" lon="-109.843143"><ele>1706.0</ele></trkpt>
      <trkpt lat="38.109201" lon="-109.842552"><ele>1697.8</ele></trkpt>
      <trkpt lat="38.109605" lon="-109.841896"><ele>1685.5</ele></trkpt>
      <trkpt lat="38.109668" lon="-109.841625"><ele>1678.5</ele></trkpt>
      <trkpt lat="38.109634" lon="-109.841448"><ele>1676.8</ele></trkpt>
      <trkpt lat="38.109476" lon="-109.841363"><ele>1676.0</ele></trkpt>
      <trkpt lat="38.109527" lon="-109.841143"><ele>1673.8</ele></trkpt>
      <trkpt lat="38.109495" lon="-109.840888"><ele>1671.5</ele></trkpt>
      <trkpt lat="38.109445" lon="-109.840718"><ele>1670.0</ele></trkpt>
      <trkpt lat="38.109579" lon="-109.840521"><ele>1668.2</ele></trkpt>
      <trkpt lat="38.109473" lon="-109.840315"><ele>1667.2</ele></trkpt>
      <trkpt lat="38.109603" lon="-109.840150"><ele>1665.0</ele></trkpt>
      <trkpt lat="38.109649" lon="-109.839638"><ele>1653.5</ele></trkpt>
      <trkpt lat="38.109258" lon="-109.839209"><ele>1645.2</ele></trkpt>
      <trkpt lat="38.108953" lon="-109.839121"><ele>1643.5</ele></trkpt>
      <trkpt lat="38.108664" lon="-109.838668"><ele>1638.8</ele></trkpt>
      <trkpt lat="38.108374" lon="-109.838603"><ele>1639.0</ele></trkpt>
      <trkpt lat="38.108156" lon="-109.838281"><ele>1640.5</ele></trkpt>
      <trkpt lat="38.107965" lon="-109.838265"><ele>1642.0</ele></trkpt>
      <trkpt lat="38.107811" lon="-109.838283"><ele>1642.8</ele></trkpt>
      <trkpt lat="38.107079" lon="-109.837918"><ele>1647.0</ele></trkpt>
      <trkpt lat="38.106689" lon="-109.837802"><ele>1643.2</ele></trkpt>
      <trkpt lat="38.106429" lon="-109.837715"><ele>1642.8</ele></trkpt>
      <trkpt lat="38.106335" lon="-109.837649"><ele>1642.5</ele></trkpt>
      <trkpt lat="38.106158" lon="-109.837635"><ele>1642.2</ele></trkpt>
      <trkpt lat="38.106133" lon="-109.837345"><ele>1642.2</ele></trkpt>
      <trkpt lat="38.106077" lon="-109.836783"><ele>1645.2</ele></trkpt>
      <trkpt lat="38.105865" lon="-109.836362"><ele>1642.0</ele></trkpt>
      <trkpt lat="38.105750" lon="-109.836061"><ele>1644.0</ele></trkpt>
      <trkpt lat="38.105613" lon="-109.835971"><ele>1647.5</ele></trkpt>
      <trkpt lat="38.105564" lon="-109.835627"><ele>1656.0</ele></trkpt>
      <trkpt lat="38.105448" lon="-109.834781"><ele>1660.2</ele></trkpt>
      <trkpt lat="38.105161" lon="-109.834382"><ele>1655.8</ele></trkpt>
      <trkpt lat="38.104568" lon="-109.834103"><ele>1651.0</ele></trkpt>
      <trkpt lat="38.104357" lon="-109.834081"><ele>1652.2</ele></trkpt>
      <trkpt lat="38.104073" lon="-109.834181"><ele>1651.0</ele></trkpt>
      <trkpt lat="38.103476" lon="-109.834381"><ele>1658.0</ele></trkpt>
      <trkpt lat="38.103063" lon="-109.834450"><ele>1663.5</ele></trkpt>
      <trkpt lat="38.102735" lon="-109.834434"><ele>1665.5</ele></trkpt>
      <trkpt lat="38.102501" lon="-109.834519"><ele>1668.8</ele></trkpt>
      <trkpt lat="38.102127" lon="-109.834288"><ele>1666.2</ele></trkpt>
      <trkpt lat="38.101681" lon="-109.834531"><ele>1666.2</ele></trkpt>
      <trkpt lat="38.101008" lon="-109.835116"><ele>1664.5</ele></trkpt>
      <trkpt lat="38.100783" lon="-109.835123"><ele>1664.5</ele></trkpt>
      <trkpt lat="38.100491" lon="-109.834951"><ele>1663.2</ele></trkpt>
      <trkpt lat="38.099932" lon="-109.834441"><ele>1670.2</ele></trkpt>
      <trkpt lat="38.099167" lon="-109.833902"><ele>1672.2</ele></trkpt>
      <trkpt lat="38.098730" lon="-109.833656"><ele>1675.0</ele></trkpt>
      <trkpt lat="38.098383" lon="-109.833122"><ele>1672.8</ele></trkpt>
      <trkpt lat="38.098147" lon="-109.832853"><ele>1676.0</ele></trkpt>
      <trkpt lat="38.098102" lon="-109.832831"><ele>1676.2</ele></trkpt>
      <trkpt lat="38.097869" lon="-109.832800"><ele>1676.8</ele></trkpt>
      <trkpt lat="38.097491" lon="-109.832568"><ele>1672.5</ele></trkpt>
      <trkpt lat="38.097352" lon="-109.832459"><ele>1672.5</ele></trkpt>
      <trkpt lat="38.097206" lon="-109.832380"><ele>1675.0</ele></trkpt>
      <trkpt lat="38.097093" lon="-109.832200"><ele>1679.0</ele></trkpt>
      <trkpt lat="38.096933" lon="-109.832409"><ele>1674.8</ele></trkpt>
      <trkpt lat="38.096719" lon="-109.832227"><ele>1677.5</ele></trkpt>
      <trkpt lat="38.096550" lon="-109.832203"><ele>1678.2</ele></trkpt>
      <trkpt lat="38.096441" lon="-109.831985"><ele>1681.5</ele></trkpt>
      <trkpt lat="38.096230" lon="-109.832031"><ele>1681.5</ele></trkpt>
      <trkpt lat="38.095976" lon="-109.831911"><ele>1683.8</ele></trkpt>
      <trkpt lat="38.095793" lon="-109.832016"><ele>1683.5</ele></trkpt>
      <trkpt lat="38.095677" lon="-109.832157"><ele>1683.5</ele></trkpt>
      <trkpt lat="38.095433" lon="-109.832247"><ele>1685.2</ele></trkpt>
      <trkpt lat="38.094811" lon="-109.832243"><ele>1691.5</ele></trkpt>
      <trkpt lat="38.094140" lon="-109.832443"><ele>1691.8</ele></trkpt>
      <trkpt lat="38.093884" lon="-109.832527"><ele>1690.2</ele></trkpt>
      <trkpt lat="38.093649" lon="-109.832374"><ele>1690.5</ele></trkpt>
      <trkpt lat="38.093204" lon="-109.831837"><ele>1693.2</ele></trkpt>
      <trkpt lat="38.092559" lon="-109.831669"><ele>1691.2</ele></trkpt>
      <trkpt lat="38.092214" lon="-109.831877"><ele>1699.8</ele></trkpt>
      <trkpt lat="38.091666" lon="-109.831914"><ele>1714.0</ele></trkpt>
      <trkpt lat="38.091270" lon="-109.832147"><ele>1719.5</ele></trkpt>
      <trkpt lat="38.091017" lon="-109.832299"><ele>1721.8</ele></trkpt>
      <trkpt lat="38.090780" lon="-109.832296"><ele>1722.8</ele></trkpt>
      <trkpt lat="38.090392" lon="-109.832444"><ele>1718.5</ele></trkpt>
      <trkpt lat="38.090081" lon="-109.832265"><ele>1716.8</ele></trkpt>
      <trkpt lat="38.089818" lon="-109.832083"><ele>1720.8</ele></trkpt>
      <trkpt lat="38.089852" lon="-109.831844"><ele>1722.8</ele></trkpt>
      <trkpt lat="38.089620" lon="-109.831406"><ele>1736.5</ele></trkpt>
      <trkpt lat="38.089496" lon="-109.831138"><ele>1746.0</ele></trkpt>
      <trkpt lat="38.089416" lon="-109.830938"><ele>1752.8</ele></trkpt>
      <trkpt lat="38.089442" lon="-109.830782"><ele>1759.5</ele></trkpt>
      <trkpt lat="38.089397" lon="-109.830620"><ele>1773.5</ele></trkpt>
      <trkpt lat="38.089318" lon="-109.830562"><ele>1780.0</ele></trkpt>
      <trkpt lat="38.089146" lon="-109.830606"><ele>1780.2</ele></trkpt>
      <trkpt lat="38.089064" lon="-109.830719"><ele>1774.5</ele></trkpt>
      <trkpt lat="38.089096" lon="-109.831035"><ele>1758.0</ele></trkpt>
      <trkpt lat="38.088881" lon="-109.830916"><ele>1772.2</ele></trkpt>
      <trkpt lat="38.088678" lon="-109.830991"><ele>1780.2</ele></trkpt>
      <trkpt lat="38.088570" lon="-109.831360"><ele>1772.0</ele></trkpt>
      <trkpt lat="38.088678" lon="-109.830991"><ele>1780.2</ele></trkpt>
      <trkpt lat="38.088881" lon="-109.830916"><ele>1772.2</ele></trkpt>
      <trkpt lat="38.089096" lon="-109.831035"><ele>1758.0</ele></trkpt>
      <trkpt lat="38.089064" lon="-109.830719"><ele>1774.5</ele></trkpt>
      <trkpt lat="38.089146" lon="-109.830606"><ele>1780.2</ele></trkpt>
      <trkpt lat="38.089318" lon="-109.830562"><ele>1780.0</ele></trkpt>
      <trkpt lat="38.089397" lon="-109.830620"><ele>1773.5</ele></trkpt>
      <trkpt lat="38.089442" lon="-109.830782"><ele>1759.5</ele></trkpt>
      <trkpt lat="38.089416" lon="-109.830938"><ele>1752.8</ele></trkpt>
      <trkpt lat="38.089496" lon="-109.831138"><ele>1746.0</ele></trkpt>
      <trkpt lat="38.089620" lon="-109.831406"><ele>1736.5</ele></trkpt>
      <trkpt lat="38.089852" lon="-109.831844"><ele>1722.8</ele></trkpt>
      <trkpt lat="38.089818" lon="-109.832083"><ele>1720.8</ele></trkpt>
      <trkpt lat="38.090081" lon="-109.832265"><ele>1716.8</ele></trkpt>
      <trkpt lat="38.090392" lon="-109.832444"><ele>1718.5</ele></trkpt>
      <trkpt lat="38.090780" lon="-109.832296"><ele>1722.8</ele></trkpt>
      <trkpt lat="38.091017" lon="-109.832299"><ele>1721.8</ele></trkpt>
      <trkpt lat="38.091270" lon="-109.832147"><ele>1719.5</ele></trkpt>
      <trkpt lat="38.091666" lon="-109.831914"><ele>1714.0</ele></trkpt>
      <trkpt lat="38.092214" lon="-109.831877"><ele>1699.8</ele></trkpt>
      <trkpt lat="38.092559" lon="-109.831669"><ele>1691.2</ele></trkpt>
      <trkpt lat="38.093204" lon="-109.831837"><ele>1693.2</ele></trkpt>
      <trkpt lat="38.093649" lon="-109.832374"><ele>1690.5</ele></trkpt>
      <trkpt lat="38.093884" lon="-109.832527"><ele>1690.2</ele></trkpt>
      <trkpt lat="38.094140" lon="-109.832443"><ele>1691.8</ele></trkpt>
      <trkpt lat="38.094811" lon="-109.832243"><ele>1691.5</ele></trkpt>
      <trkpt lat="38.095433" lon="-109.832247"><ele>1685.2</ele></trkpt>
      <trkpt lat="38.095677" lon="-109.832157"><ele>1683.5</ele></trkpt>
      <trkpt lat="38.095793" lon="-109.832016"><ele>1683.5</ele></trkpt>
      <trkpt lat="38.095976" lon="-109.831911"><ele>1683.8</ele></trkpt>
      <trkpt lat="38.096230" lon="-109.832031"><ele>1681.5</ele></trkpt>
      <trkpt lat="38.096441" lon="-109.831985"><ele>1681.5</ele></trkpt>
      <trkpt lat="38.096550" lon="-109.832203"><ele>1678.2</ele></trkpt>
      <trkpt lat="38.096719" lon="-109.832227"><ele>1677.5</ele></trkpt>
      <trkpt lat="38.096933" lon="-109.832409"><ele>1674.8</ele></trkpt>
      <trkpt lat="38.097093" lon="-109.832200"><ele>1679.0</ele></trkpt>
      <trkpt lat="38.097206" lon="-109.832380"><ele>1675.0</ele></trkpt>
      <trkpt lat="38.097352" lon="-109.832459"><ele>1672.5</ele></trkpt>
      <trkpt lat="38.097491" lon="-109.832568"><ele>1672.5</ele></trkpt>
      <trkpt lat="38.097869" lon="-109.832800"><ele>1676.8</ele></trkpt>
      <trkpt lat="38.098102" lon="-109.832831"><ele>1676.2</ele></trkpt>
      <trkpt lat="38.098147" lon="-109.832853"><ele>1676.0</ele></trkpt>
      <trkpt lat="38.098383" lon="-109.833122"><ele>1672.8</ele></trkpt>
      <trkpt lat="38.098730" lon="-109.833656"><ele>1675.0</ele></trkpt>
      <trkpt lat="38.099167" lon="-109.833902"><ele>1672.2</ele></trkpt>
      <trkpt lat="38.099932" lon="-109.834441"><ele>1670.2</ele></trkpt>
      <trkpt lat="38.100491" lon="-109.834951"><ele>1663.2</ele></trkpt>
      <trkpt lat="38.100783" lon="-109.835123"><ele>1664.5</ele></trkpt>
      <trkpt lat="38.101008" lon="-109.835116"><ele>1664.5</ele></trkpt>
      <trkpt lat="38.101681" lon="-109.834531"><ele>1666.2</ele></trkpt>
      <trkpt lat="38.102127" lon="-109.834288"><ele>1666.2</ele></trkpt>
      <trkpt lat="38.102501" lon="-109.834519"><ele>1668.8</ele></trkpt>
      <trkpt lat="38.102735" lon="-109.834434"><ele>1665.5</ele></trkpt>
      <trkpt lat="38.103063" lon="-109.834450"><ele>1663.5</ele></trkpt>
      <trkpt lat="38.103476" lon="-109.834381"><ele>1658.0</ele></trkpt>
      <trkpt lat="38.104073" lon="-109.834181"><ele>1651.0</ele></trkpt>
      <trkpt lat="38.104357" lon="-109.834081"><ele>1652.2</ele></trkpt>
      <trkpt lat="38.104568" lon="-109.834103"><ele>1651.0</ele></trkpt>
      <trkpt lat="38.105161" lon="-109.834382"><ele>1655.8</ele></trkpt>
      <trkpt lat="38.105448" lon="-109.834781"><ele>1660.2</ele></trkpt>
      <trkpt lat="38.105564" lon="-109.835627"><ele>1648.5</ele></trkpt>
      <trkpt lat="38.105613" lon="-109.835971"><ele>1647.5</ele></trkpt>
      <trkpt lat="38.105750" lon="-109.836061"><ele>1644.0</ele></trkpt>
      <trkpt lat="38.105865" lon="-109.836362"><ele>1642.0</ele></trkpt>
      <trkpt lat="38.106077" lon="-109.836783"><ele>1645.2</ele></trkpt>
      <trkpt lat="38.106133" lon="-109.837345"><ele>1642.2</ele></trkpt>
      <trkpt lat="38.106158" lon="-109.837635"><ele>1642.2</ele></trkpt>
      <trkpt lat="38.106335" lon="-109.837649"><ele>1642.5</ele></trkpt>
      <trkpt lat="38.106429" lon="-109.837715"><ele>1642.8</ele></trkpt>
      <trkpt lat="38.106689" lon="-109.837802"><ele>1643.2</ele></trkpt>
      <trkpt lat="38.107079" lon="-109.837918"><ele>1647.0</ele></trkpt>
      <trkpt lat="38.107811" lon="-109.838283"><ele>1642.8</ele></trkpt>
      <trkpt lat="38.107965" lon="-109.838265"><ele>1642.0</ele></trkpt>
      <trkpt lat="38.108156" lon="-109.838281"><ele>1640.5</ele></trkpt>
      <trkpt lat="38.108438" lon="-109.838353"><ele>1637.2</ele></trkpt>
      <trkpt lat="38.108821" lon="-109.838462"><ele>1636.2</ele></trkpt>
      <trkpt lat="38.109107" lon="-109.838412"><ele>1634.2</ele></trkpt>
      <trkpt lat="38.109328" lon="-109.838535"><ele>1635.5</ele></trkpt>
      <trkpt lat="38.109756" lon="-109.838640"><ele>1636.0</ele></trkpt>
      <trkpt lat="38.110036" lon="-109.838607"><ele>1635.2</ele></trkpt>
      <trkpt lat="38.110763" lon="-109.838218"><ele>1636.0</ele></trkpt>
      <trkpt lat="38.111059" lon="-109.838254"><ele>1634.2</ele></trkpt>
      <trkpt lat="38.111556" lon="-109.838100"><ele>1630.5</ele></trkpt>
      <trkpt lat="38.111861" lon="-109.837848"><ele>1630.0</ele></trkpt>
      <trkpt lat="38.111865" lon="-109.837524"><ele>1626.0</ele></trkpt>
      <trkpt lat="38.111900" lon="-109.837368"><ele>1626.8</ele></trkpt>
      <trkpt lat="38.112157" lon="-109.836941"><ele>1627.5</ele></trkpt>
      <trkpt lat="38.112705" lon="-109.836292"><ele>1629.2</ele></trkpt>
      <trkpt lat="38.112902" lon="-109.836164"><ele>1629.8</ele></trkpt>
      <trkpt lat="38.113160" lon="-109.836137"><ele>1628.0</ele></trkpt>
      <trkpt lat="38.113612" lon="-109.835936"><ele>1623.8</ele></trkpt>
      <trkpt lat="38.113828" lon="-109.835783"><ele>1622.2</ele></trkpt>
      <trkpt lat="38.114054" lon="-109.835858"><ele>1620.8</ele></trkpt>
      <trkpt lat="38.114461" lon="-109.835856"><ele>1619.8</ele></trkpt>
      <trkpt lat="38.114927" lon="-109.835924"><ele>1619.5</ele></trkpt>
      <trkpt lat="38.115343" lon="-109.836314"><ele>1621.8</ele></trkpt>
      <trkpt lat="38.115073" lon="-109.836572"><ele>1622.8</ele></trkpt>
      <trkpt lat="38.114980" lon="-109.836695"><ele>1624.2</ele></trkpt>
      <trkpt lat="38.114830" lon="-109.836749"><ele>1626.2</ele></trkpt>
      <trkpt lat="38.114866" lon="-109.836899"><ele>1626.8</ele></trkpt>
      <trkpt lat="38.114893" lon="-109.837022"><ele>1627.0</ele></trkpt>
      <trkpt lat="38.114821" lon="-109.837181"><ele>1629.0</ele></trkpt>
    </trkseg>
    <!-- Sun -->
    <trkseg>
      <trkpt lat="38.114821" lon="-109.837181"><ele>1629.0</ele></trkpt>
      <trkpt lat="38.114893" lon="-109.837022"><ele>1627.0</ele></trkpt>
      <trkpt lat="38.114866" lon="-109.836899"><ele>1626.8</ele></trkpt>
      <trkpt lat="38.114830" lon="-109.836749"><ele>1626.2</ele></trkpt>
      <trkpt lat="38.114980" lon="-109.836695"><ele>1624.2</ele></trkpt>
      <trkpt lat="38.115073" lon="-109.836572"><ele>1622.8</ele></trkpt>
      <trkpt lat="38.115343" lon="-109.836314"><ele>1621.8</ele></trkpt>
      <trkpt lat="38.114927" lon="-109.835924"><ele>1619.5</ele></trkpt>
      <trkpt lat="38.114740" lon="-109.835858"><ele>1619.8</ele></trkpt>
      <trkpt lat="38.114606" lon="-109.835606"><ele>1622.0</ele></trkpt>
      <trkpt lat="38.114338" lon="-109.834995"><ele>1625.2</ele></trkpt>
      <trkpt lat="38.114309" lon="-109.834769"><ele>1626.8</ele></trkpt>
      <trkpt lat="38.114258" lon="-109.834560"><ele>1628.0</ele></trkpt>
      <trkpt lat="38.114203" lon="-109.834163"><ele>1630.5</ele></trkpt>
      <trkpt lat="38.114001" lon="-109.833975"><ele>1632.5</ele></trkpt>
      <trkpt lat="38.113845" lon="-109.833890"><ele>1634.2</ele></trkpt>
      <trkpt lat="38.113756" lon="-109.833691"><ele>1634.2</ele></trkpt>
      <trkpt lat="38.113655" lon="-109.833294"><ele>1632.8</ele></trkpt>
      <trkpt lat="38.113537" lon="-109.833031"><ele>1632.8</ele></trkpt>
      <trkpt lat="38.113547" lon="-109.832825"><ele>1633.0</ele></trkpt>
      <trkpt lat="38.113486" lon="-109.832739"><ele>1632.2</ele></trkpt>
      <trkpt lat="38.113463" lon="-109.832629"><ele>1631.8</ele></trkpt>
      <trkpt lat="38.113501" lon="-109.832532"><ele>1632.2</ele></trkpt>
      <trkpt lat="38.113511" lon="-109.832363"><ele>1632.8</ele></trkpt>
      <trkpt lat="38.113444" lon="-109.832221"><ele>1631.8</ele></trkpt>
      <trkpt lat="38.113425" lon="-109.832047"><ele>1631.8</ele></trkpt>
      <trkpt lat="38.113444" lon="-109.831875"><ele>1632.5</ele></trkpt>
      <trkpt lat="38.113382" lon="-109.831666"><ele>1631.8</ele></trkpt>
      <trkpt lat="38.113309" lon="-109.831543"><ele>1632.0</ele></trkpt>
      <trkpt lat="38.113292" lon="-109.831425"><ele>1633.0</ele></trkpt>
      <trkpt lat="38.113315" lon="-109.831143"><ele>1633.8</ele></trkpt>
      <trkpt lat="38.113260" lon="-109.830985"><ele>1635.2</ele></trkpt>
      <trkpt lat="38.113296" lon="-109.830821"><ele>1635.2</ele></trkpt>
      <trkpt lat="38.113237" lon="-109.830666"><ele>1636.5</ele></trkpt>
      <trkpt lat="38.113243" lon="-109.830499"><ele>1637.0</ele></trkpt>
      <trkpt lat="38.113205" lon="-109.830352"><ele>1637.5</ele></trkpt>
      <trkpt lat="38.112971" lon="-109.829949"><ele>1637.8</ele></trkpt>
      <trkpt lat="38.112699" lon="-109.829705"><ele>1638.5</ele></trkpt>
      <trkpt lat="38.112534" lon="-109.829622"><ele>1638.0</ele></trkpt>
      <trkpt lat="38.112374" lon="-109.829426"><ele>1639.2</ele></trkpt>
      <trkpt lat="38.112106" lon="-109.829477"><ele>1639.5</ele></trkpt>
      <trkpt lat="38.111977" lon="-109.829469"><ele>1640.0</ele></trkpt>
      <trkpt lat="38.111679" lon="-109.829236"><ele>1640.0</ele></trkpt>
      <trkpt lat="38.111405" lon="-109.829011"><ele>1642.0</ele></trkpt>
      <trkpt lat="38.110903" lon="-109.828817"><ele>1641.8</ele></trkpt>
      <trkpt lat="38.110816" lon="-109.828772"><ele>1641.5</ele></trkpt>
      <trkpt lat="38.110675" lon="-109.828622"><ele>1642.5</ele></trkpt>
      <trkpt lat="38.110371" lon="-109.828364"><ele>1642.8</ele></trkpt>
      <trkpt lat="38.110202" lon="-109.828182"><ele>1644.5</ele></trkpt>
      <trkpt lat="38.110069" lon="-109.828163"><ele>1645.0</ele></trkpt>
      <trkpt lat="38.109727" lon="-109.827889"><ele>1646.8</ele></trkpt>
      <trkpt lat="38.109463" lon="-109.827704"><ele>1646.2</ele></trkpt>
      <trkpt lat="38.109246" lon="-109.827594"><ele>1644.8</ele></trkpt>
      <trkpt lat="38.108818" lon="-109.827619"><ele>1644.5</ele></trkpt>
      <trkpt lat="38.108543" lon="-109.827613"><ele>1644.8</ele></trkpt>
      <trkpt lat="38.108290" lon="-109.827425"><ele>1645.2</ele></trkpt>
      <trkpt lat="38.107997" lon="-109.827222"><ele>1648.2</ele></trkpt>
      <trkpt lat="38.107807" lon="-109.826959"><ele>1650.5</ele></trkpt>
      <trkpt lat="38.107648" lon="-109.826862"><ele>1650.8</ele></trkpt>
      <trkpt lat="38.107581" lon="-109.826790"><ele>1650.8</ele></trkpt>
      <trkpt lat="38.107406" lon="-109.826790"><ele>1650.5</ele></trkpt>
      <trkpt lat="38.107239" lon="-109.826717"><ele>1651.0</ele></trkpt>
      <trkpt lat="38.107155" lon="-109.826594"><ele>1652.8</ele></trkpt>
      <trkpt lat="38.107093" lon="-109.826323"><ele>1658.2</ele></trkpt>
      <trkpt lat="38.107038" lon="-109.826151"><ele>1662.0</ele></trkpt>
      <trkpt lat="38.106967" lon="-109.826146"><ele>1662.2</ele></trkpt>
      <trkpt lat="38.106716" lon="-109.826492"><ele>1655.5</ele></trkpt>
      <trkpt lat="38.106528" lon="-109.826581"><ele>1655.8</ele></trkpt>
      <trkpt lat="38.106180" lon="-109.826513"><ele>1662.0</ele></trkpt>
      <trkpt lat="38.106051" lon="-109.826438"><ele>1665.2</ele></trkpt>
      <trkpt lat="38.105787" lon="-109.826208"><ele>1674.0</ele></trkpt>
      <trkpt lat="38.105639" lon="-109.826001"><ele>1683.5</ele></trkpt>
      <trkpt lat="38.105551" lon="-109.825982"><ele>1687.0</ele></trkpt>
      <trkpt lat="38.105375" lon="-109.826007"><ele>1692.2</ele></trkpt>
      <trkpt lat="38.105120" lon="-109.826079"><ele>1698.0</ele></trkpt>
      <trkpt lat="38.104894" lon="-109.826087"><ele>1700.5</ele></trkpt>
      <trkpt lat="38.104575" lon="-109.826173"><ele>1695.8</ele></trkpt>
      <trkpt lat="38.104491" lon="-109.826170"><ele>1695.5</ele></trkpt>
      <trkpt lat="38.104200" lon="-109.825905"><ele>1695.5</ele></trkpt>
      <trkpt lat="38.104145" lon="-109.825830"><ele>1694.2</ele></trkpt>
      <trkpt lat="38.104141" lon="-109.825725"><ele>1694.2</ele></trkpt>
      <trkpt lat="38.104426" lon="-109.824719"><ele>1706.0</ele></trkpt>
      <trkpt lat="38.104575" lon="-109.824515"><ele>1706.0</ele></trkpt>
      <trkpt lat="38.104531" lon="-109.824196"><ele>1687.5</ele></trkpt>
      <trkpt lat="38.104561" lon="-109.823965"><ele>1679.8</ele></trkpt>
      <trkpt lat="38.104662" lon="-109.823660"><ele>1671.0</ele></trkpt>
      <trkpt lat="38.104820" lon="-109.823466"><ele>1666.5</ele></trkpt>
      <trkpt lat="38.104998" lon="-109.823429"><ele>1668.8</ele></trkpt>
      <trkpt lat="38.105185" lon="-109.823284"><ele>1665.0</ele></trkpt>
      <trkpt lat="38.105285" lon="-109.823171"><ele>1663.8</ele></trkpt>
      <trkpt lat="38.105741" lon="-109.822922"><ele>1664.8</ele></trkpt>
      <trkpt lat="38.105861" lon="-109.822820"><ele>1666.2</ele></trkpt>
      <trkpt lat="38.105987" lon="-109.822656"><ele>1672.5</ele></trkpt>
      <trkpt lat="38.106158" lon="-109.822332"><ele>1682.0</ele></trkpt>
      <trkpt lat="38.106258" lon="-109.822150"><ele>1688.0</ele></trkpt>
      <trkpt lat="38.106388" lon="-109.821734"><ele>1695.0</ele></trkpt>
      <trkpt lat="38.106397" lon="-109.821380"><ele>1690.8</ele></trkpt>
      <trkpt lat="38.106357" lon="-109.821157"><ele>1684.0</ele></trkpt>
      <trkpt lat="38.106365" lon="-109.820892"><ele>1680.5</ele></trkpt>
      <trkpt lat="38.106422" lon="-109.820717"><ele>1684.2</ele></trkpt>
      <trkpt lat="38.106393" lon="-109.820516"><ele>1682.0</ele></trkpt>
      <trkpt lat="38.106247" lon="-109.820079"><ele>1672.0</ele></trkpt>
      <trkpt lat="38.106205" lon="-109.819534"><ele>1672.5</ele></trkpt>
      <trkpt lat="38.106108" lon="-109.819269"><ele>1669.2</ele></trkpt>
      <trkpt lat="38.105947" lon="-109.818990"><ele>1661.0</ele></trkpt>
      <trkpt lat="38.105909" lon="-109.818765"><ele>1658.2</ele></trkpt>
      <trkpt lat="38.105943" lon="-109.818394"><ele>1657.8</ele></trkpt>
      <trkpt lat="38.106258" lon="-109.818078"><ele>1662.2</ele></trkpt>
      <trkpt lat="38.106378" lon="-109.817981"><ele>1663.8</ele></trkpt>
      <trkpt lat="38.106519" lon="-109.817748"><ele>1663.0</ele></trkpt>
      <trkpt lat="38.106587" lon="-109.817681"><ele>1663.5</ele></trkpt>
      <trkpt lat="38.106908" lon="-109.816919"><ele>1651.0</ele></trkpt>
      <trkpt lat="38.107062" lon="-109.816662"><ele>1649.0</ele></trkpt>
      <trkpt lat="38.107336" lon="-109.816442"><ele>1650.8</ele></trkpt>
      <trkpt lat="38.107477" lon="-109.816396"><ele>1652.5</ele></trkpt>
      <trkpt lat="38.107680" lon="-109.816385"><ele>1652.8</ele></trkpt>
      <trkpt lat="38.107843" lon="-109.816503"><ele>1654.2</ele></trkpt>
      <trkpt lat="38.107982" lon="-109.816520"><ele>1654.2</ele></trkpt>
      <trkpt lat="38.108249" lon="-109.816453"><ele>1653.2</ele></trkpt>
      <trkpt lat="38.108393" lon="-109.815891"><ele>1650.0</ele></trkpt>
      <trkpt lat="38.108502" lon="-109.815701"><ele>1648.5</ele></trkpt>
      <trkpt lat="38.108505" lon="-109.815560"><ele>1646.5</ele></trkpt>
      <trkpt lat="38.108603" lon="-109.815265"><ele>1643.2</ele></trkpt>
      <trkpt lat="38.108741" lon="-109.814744"><ele>1635.8</ele></trkpt>
      <trkpt lat="38.108826" lon="-109.814616"><ele>1634.0</ele></trkpt>
      <trkpt lat="38.109029" lon="-109.814741"><ele>1638.2</ele></trkpt>
      <trkpt lat="38.109196" lon="-109.815221"><ele>1647.8</ele></trkpt>
      <trkpt lat="38.109378" lon="-109.815465"><ele>1649.8</ele></trkpt>
      <trkpt lat="38.109505" lon="-109.815904"><ele>1657.0</ele></trkpt>
      <trkpt lat="38.109502" lon="-109.816263"><ele>1664.2</ele></trkpt>
      <trkpt lat="38.109624" lon="-109.816286"><ele>1664.5</ele></trkpt>
      <trkpt lat="38.109878" lon="-109.815859"><ele>1655.0</ele></trkpt>
      <trkpt lat="38.110325" lon="-109.814955"><ele>1644.0</ele></trkpt>
      <trkpt lat="38.110533" lon="-109.814692"><ele>1647.0</ele></trkpt>
      <trkpt lat="38.110706" lon="-109.814057"><ele>1641.2</ele></trkpt>
      <trkpt lat="38.110710" lon="-109.813741"><ele>1639.0</ele></trkpt>
      <trkpt lat="38.110703" lon="-109.813211"><ele>1634.8</ele></trkpt>
      <trkpt lat="38.110738" lon="-109.812722"><ele>1629.5</ele></trkpt>
      <trkpt lat="38.110761" lon="-109.812566"><ele>1628.2</ele></trkpt>
      <trkpt lat="38.110581" lon="-109.812423"><ele>1622.2</ele></trkpt>
      <trkpt lat="38.110782" lon="-109.811989"><ele>1619.0</ele></trkpt>
      <trkpt lat="38.110830" lon="-109.811742"><ele>1615.2</ele></trkpt>
      <trkpt lat="38.110757" lon="-109.811583"><ele>1613.0</ele></trkpt>
      <trkpt lat="38.110508" lon="-109.811375"><ele>1610.8</ele></trkpt>
      <trkpt lat="38.110450" lon="-109.811004"><ele>1610.8</ele></trkpt>
      <trkpt lat="38.110506" lon="-109.810723"><ele>1610.8</ele></trkpt>
      <trkpt lat="38.110737" lon="-109.810132"><ele>1609.2</ele></trkpt>
      <trkpt lat="38.110911" lon="-109.809562"><ele>1606.2</ele></trkpt>
      <trkpt lat="38.111115" lon="-109.809265"><ele>1605.8</ele></trkpt>
      <trkpt lat="38.111500" lon="-109.809014"><ele>1607.2</ele></trkpt>
      <trkpt lat="38.112008" lon="-109.808353"><ele>1603.0</ele></trkpt>
      <trkpt lat="38.112317" lon="-109.808130"><ele>1603.8</ele></trkpt>
      <trkpt lat="38.112514" lon="-109.807574"><ele>1599.5</ele></trkpt>
      <trkpt lat="38.113021" lon="-109.806961"><ele>1600.0</ele></trkpt>
      <trkpt lat="38.113454" lon="-109.806772"><ele>1602.0</ele></trkpt>
      <trkpt lat="38.113576" lon="-109.806663"><ele>1603.5</ele></trkpt>
      <trkpt lat="38.113884" lon="-109.806153"><ele>1604.2</ele></trkpt>
      <trkpt lat="38.114062" lon="-109.805563"><ele>1599.8</ele></trkpt>
      <trkpt lat="38.114241" lon="-109.805311"><ele>1597.5</ele></trkpt>
      <trkpt lat="38.114275" lon="-109.805091"><ele>1595.2</ele></trkpt>
      <trkpt lat="38.114284" lon="-109.804972"><ele>1594.2</ele></trkpt>
      <trkpt lat="38.114206" lon="-109.804827"><ele>1594.8</ele></trkpt>
      <trkpt lat="38.113922" lon="-109.804731"><ele>1597.8</ele></trkpt>
      <trkpt lat="38.113814" lon="-109.804605"><ele>1599.5</ele></trkpt>
      <trkpt lat="38.113899" lon="-109.804412"><ele>1599.2</ele></trkpt>
      <trkpt lat="38.113915" lon="-109.804243"><ele>1599.8</ele></trkpt>
      <trkpt lat="38.113586" lon="-109.804102"><ele>1604.0</ele></trkpt>
      <trkpt lat="38.113330" lon="-109.803783"><ele>1612.2</ele></trkpt>
      <trkpt lat="38.113094" lon="-109.803732"><ele>1617.2</ele></trkpt>
      <trkpt lat="38.112973" lon="-109.803565"><ele>1621.2</ele></trkpt>
      <trkpt lat="38.112617" lon="-109.803438"><ele>1627.0</ele></trkpt>
      <trkpt lat="38.111565" lon="-109.802961"><ele>1636.2</ele></trkpt>
      <trkpt lat="38.111127" lon="-109.803341"><ele>1638.0</ele></trkpt>
      <trkpt lat="38.110863" lon="-109.803503"><ele>1640.2</ele></trkpt>
      <trkpt lat="38.110566" lon="-109.803458"><ele>1640.2</ele></trkpt>
      <trkpt lat="38.110004" lon="-109.803153"><ele>1646.2</ele></trkpt>
      <trkpt lat="38.109645" lon="-109.803181"><ele>1646.2</ele></trkpt>
      <trkpt lat="38.109269" lon="-109.803064"><ele>1649.2</ele></trkpt>
      <trkpt lat="38.108913" lon="-109.802870"><ele>1653.0</ele></trkpt>
      <trkpt lat="38.108510" lon="-109.802631"><ele>1656.2</ele></trkpt>
      <trkpt lat="38.108174" lon="-109.802672"><ele>1655.2</ele></trkpt>
      <trkpt lat="38.107885" lon="-109.802723"><ele>1655.0</ele></trkpt>
      <trkpt lat="38.107412" lon="-109.802945"><ele>1655.2</ele></trkpt>
      <trkpt lat="38.106846" lon="-109.803054"><ele>1659.5</ele></trkpt>
      <trkpt lat="38.106558" lon="-109.803087"><ele>1664.8</ele></trkpt>
      <trkpt lat="38.106499" lon="-109.802984"><ele>1665.5</ele></trkpt>
      <trkpt lat="38.106913" lon="-109.802770"><ele>1657.8</ele></trkpt>
      <trkpt lat="38.106998" lon="-109.802539"><ele>1656.5</ele></trkpt>
      <trkpt lat="38.107384" lon="-109.802011"><ele>1644.5</ele></trkpt>
      <trkpt lat="38.107325" lon="-109.801826"><ele>1641.5</ele></trkpt>
      <trkpt lat="38.107469" lon="-109.801583"><ele>1633.5</ele></trkpt>
      <trkpt lat="38.107781" lon="-109.801209"><ele>1635.5</ele></trkpt>
      <trkpt lat="38.107928" lon="-109.800710"><ele>1633.0</ele></trkpt>
      <trkpt lat="38.108047" lon="-109.800487"><ele>1632.0</ele></trkpt>
      <trkpt lat="38.108170" lon="-109.800119"><ele>1628.2</ele></trkpt>
      <trkpt lat="38.108083" lon="-109.799696"><ele>1626.8</ele></trkpt>
      <trkpt lat="38.108113" lon="-109.799207"><ele>1621.5</ele></trkpt>
      <trkpt lat="38.108222" lon="-109.798955"><ele>1618.0</ele></trkpt>
      <trkpt lat="38.108266" lon="-109.798741"><ele>1616.8</ele></trkpt>
      <trkpt lat="38.108302" lon="-109.798362"><ele>1615.8</ele></trkpt>
      <trkpt lat="38.108265" lon="-109.797680"><ele>1618.2</ele></trkpt>
      <trkpt lat="38.108294" lon="-109.797475"><ele>1617.8</ele></trkpt>
      <trkpt lat="38.108459" lon="-109.797055"><ele>1613.8</ele></trkpt>
      <trkpt lat="38.108620" lon="-109.796779"><ele>1611.0</ele></trkpt>
      <trkpt lat="38.108861" lon="-109.796576"><ele>1609.0</ele></trkpt>
      <trkpt lat="38.109014" lon="-109.796255"><ele>1607.0</ele></trkpt>
      <trkpt lat="38.108975" lon="-109.795985"><ele>1605.0</ele></trkpt>
      <trkpt lat="38.108850" lon="-109.795746"><ele>1603.8</ele></trkpt>
      <trkpt lat="38.108918" lon="-109.795455"><ele>1602.2</ele></trkpt>
      <trkpt lat="38.108871" lon="-109.795060"><ele>1600.2</ele></trkpt>
      <trkpt lat="38.108871" lon="-109.794685"><ele>1598.0</ele></trkpt>
      <trkpt lat="38.109087" lon="-109.794450"><ele>1597.2</ele></trkpt>
      <trkpt lat="38.109280" lon="-109.794783"><ele>1602.2</ele></trkpt>
      <trkpt lat="38.109280" lon="-109.794783"><ele>1602.2</ele></trkpt>
      <trkpt lat="38.109087" lon="-109.794450"><ele>1597.2</ele></trkpt>
      <trkpt lat="38.109200" lon="-109.794248"><ele>1597.0</ele></trkpt>
      <trkpt lat="38.109122" lon="-109.793717"><ele>1593.2</ele></trkpt>
      <trkpt lat="38.109103" lon="-109.793277"><ele>1592.0</ele></trkpt>
      <trkpt lat="38.109236" lon="-109.792616"><ele>1596.0</ele></trkpt>
      <trkpt lat="38.109392" lon="-109.792423"><ele>1595.8</ele></trkpt>
      <trkpt lat="38.109837" lon="-109.792221"><ele>1594.2</ele></trkpt>
      <trkpt lat="38.110061" lon="-109.791889"><ele>1595.5</ele></trkpt>
      <trkpt lat="38.109916" lon="-109.791641"><ele>1595.0</ele></trkpt>
      <trkpt lat="38.109824" lon="-109.791354"><ele>1596.2</ele></trkpt>
      <trkpt lat="38.109519" lon="-109.790606"><ele>1593.2</ele></trkpt>
      <trkpt lat="38.109549" lon="-109.790010"><ele>1591.5</ele></trkpt>
      <trkpt lat="38.109693" lon="-109.789548"><ele>1590.0</ele></trkpt>
      <trkpt lat="38.109944" lon="-109.789241"><ele>1587.8</ele></trkpt>
      <trkpt lat="38.110162" lon="-109.789182"><ele>1589.0</ele></trkpt>
      <trkpt lat="38.110423" lon="-109.789409"><ele>1592.5</ele></trkpt>
      <trkpt lat="38.110690" lon="-109.789539"><ele>1593.8</ele></trkpt>
      <trkpt lat="38.110934" lon="-109.789952"><ele>1590.5</ele></trkpt>
      <trkpt lat="38.111043" lon="-109.790346"><ele>1589.0</ele></trkpt>
      <trkpt lat="38.111264" lon="-109.790717"><ele>1587.8</ele></trkpt>
      <trkpt lat="38.111532" lon="-109.791017"><ele>1591.0</ele></trkpt>
      <trkpt lat="38.111753" lon="-109.791052"><ele>1592.0</ele></trkpt>
      <trkpt lat="38.111894" lon="-109.790910"><ele>1590.5</ele></trkpt>
      <trkpt lat="38.112025" lon="-109.790334"><ele>1590.5</ele></trkpt>
      <trkpt lat="38.111962" lon="-109.790035"><ele>1590.5</ele></trkpt>
      <trkpt lat="38.111867" lon="-109.789767"><ele>1592.2</ele></trkpt>
      <trkpt lat="38.111905" lon="-109.789142"><ele>1595.8</ele></trkpt>
      <trkpt lat="38.112068" lon="-109.788738"><ele>1593.5</ele></trkpt>
      <trkpt lat="38.112201" lon="-109.788525"><ele>1590.2</ele></trkpt>
      <trkpt lat="38.112186" lon="-109.788273"><ele>1591.5</ele></trkpt>
      <trkpt lat="38.112415" lon="-109.787944"><ele>1587.2</ele></trkpt>
      <trkpt lat="38.112612" lon="-109.787848"><ele>1584.5</ele></trkpt>
      <trkpt lat="38.112813" lon="-109.787965"><ele>1582.2</ele></trkpt>
      <trkpt lat="38.112948" lon="-109.788082"><ele>1581.2</ele></trkpt>
      <trkpt lat="38.113157" lon="-109.787849"><ele>1580.2</ele></trkpt>
      <trkpt lat="38.113162" lon="-109.787455"><ele>1580.2</ele></trkpt>
      <trkpt lat="38.113069" lon="-109.787199"><ele>1582.5</ele></trkpt>
      <trkpt lat="38.112647" lon="-109.786988"><ele>1585.5</ele></trkpt>
      <trkpt lat="38.112496" lon="-109.786915"><ele>1586.0</ele></trkpt>
      <trkpt lat="38.112599" lon="-109.786740"><ele>1585.0</ele></trkpt>
      <trkpt lat="38.112760" lon="-109.786675"><ele>1584.5</ele></trkpt>
      <trkpt lat="38.112749" lon="-109.786541"><ele>1583.5</ele></trkpt>
      <trkpt lat="38.112543" lon="-109.786334"><ele>1581.2</ele></trkpt>
      <trkpt lat="38.112651" lon="-109.785890"><ele>1577.2</ele></trkpt>
      <trkpt lat="38.112966" lon="-109.785635"><ele>1580.0</ele></trkpt>
      <trkpt lat="38.113247" lon="-109.785528"><ele>1582.8</ele></trkpt>
      <trkpt lat="38.113732" lon="-109.785656"><ele>1578.0</ele></trkpt>
      <trkpt lat="38.114026" lon="-109.785784"><ele>1574.2</ele></trkpt>
      <trkpt lat="38.114294" lon="-109.785829"><ele>1574.0</ele></trkpt>
      <trkpt lat="38.114507" lon="-109.785464"><ele>1576.0</ele></trkpt>
      <trkpt lat="38.114700" lon="-109.785207"><ele>1576.2</ele></trkpt>
      <trkpt lat="38.114658" lon="-109.784893"><ele>1576.0</ele></trkpt>
      <trkpt lat="38.114743" lon="-109.784533"><ele>1576.8</ele></trkpt>
      <trkpt lat="38.114584" lon="-109.783838"><ele>1576.8</ele></trkpt>
      <trkpt lat="38.114701" lon="-109.783581"><ele>1575.2</ele></trkpt>
      <trkpt lat="38.114826" lon="-109.783226"><ele>1573.0</ele></trkpt>
      <trkpt lat="38.115041" lon="-109.782613"><ele>1568.0</ele></trkpt>
      <trkpt lat="38.115244" lon="-109.782332"><ele>1568.5</ele></trkpt>
      <trkpt lat="38.115523" lon="-109.782025"><ele>1569.5</ele></trkpt>
      <trkpt lat="38.116444" lon="-109.782150"><ele>1576.8</ele></trkpt>
      <trkpt lat="38.117642" lon="-109.782128"><ele>1577.8</ele></trkpt>
      <trkpt lat="38.118001" lon="-109.781868"><ele>1571.8</ele></trkpt>
      <trkpt lat="38.118352" lon="-109.781394"><ele>1567.2</ele></trkpt>
      <trkpt lat="38.118524" lon="-109.781274"><ele>1566.8</ele></trkpt>
      <trkpt lat="38.118769" lon="-109.781462"><ele>1565.2</ele></trkpt>
      <trkpt lat="38.118902" lon="-109.781735"><ele>1564.2</ele></trkpt>
      <trkpt lat="38.119338" lon="-109.781897"><ele>1565.2</ele></trkpt>
      <trkpt lat="38.119585" lon="-109.781413"><ele>1567.8</ele></trkpt>
      <trkpt lat="38.119750" lon="-109.780734"><ele>1568.8</ele></trkpt>
      <trkpt lat="38.119579" lon="-109.780416"><ele>1566.0</ele></trkpt>
      <trkpt lat="38.119713" lon="-109.779441"><ele>1564.0</ele></trkpt>
      <trkpt lat="38.119869" lon="-109.778899"><ele>1563.2</ele></trkpt>
      <trkpt lat="38.119943" lon="-109.778405"><ele>1562.0</ele></trkpt>
      <trkpt lat="38.120325" lon="-109.777884"><ele>1561.0</ele></trkpt>
      <trkpt lat="38.120737" lon="-109.777563"><ele>1557.2</ele></trkpt>
      <trkpt lat="38.121305" lon="-109.777503"><ele>1554.8</ele></trkpt>
      <trkpt lat="38.121696" lon="-109.777402"><ele>1554.0</ele></trkpt>
      <trkpt lat="38.121534" lon="-109.777080"><ele>1554.5</ele></trkpt>
      <trkpt lat="38.121437" lon="-109.776866"><ele>1555.0</ele></trkpt>
      <trkpt lat="38.121112" lon="-109.776732"><ele>1557.0</ele></trkpt>
      <trkpt lat="38.120948" lon="-109.776669"><ele>1558.2</ele></trkpt>
      <trkpt lat="38.120942" lon="-109.776878"><ele>1557.5</ele></trkpt>
      <trkpt lat="38.120942" lon="-109.776878"><ele>1557.5</ele></trkpt>
      <trkpt lat="38.120948" lon="-109.776669"><ele>1558.2</ele></trkpt>
      <trkpt lat="38.120762" lon="-109.776651"><ele>1559.8</ele></trkpt>
      <trkpt lat="38.120513" lon="-109.776560"><ele>1563.8</ele></trkpt>
      <trkpt lat="38.120344" lon="-109.776431"><ele>1568.2</ele></trkpt>
      <trkpt lat="38.120095" lon="-109.776201"><ele>1576.5</ele></trkpt>
      <trkpt lat="38.119931" lon="-109.776211"><ele>1579.8</ele></trkpt>
      <trkpt lat="38.119804" lon="-109.776061"><ele>1586.0</ele></trkpt>
      <trkpt lat="38.119614" lon="-109.775804"><ele>1594.2</ele></trkpt>
      <trkpt lat="38.119407" lon="-109.775670"><ele>1598.5</ele></trkpt>
      <trkpt lat="38.119091" lon="-109.775616"><ele>1603.0</ele></trkpt>
      <trkpt lat="38.118825" lon="-109.775675"><ele>1605.0</ele></trkpt>
      <trkpt lat="38.118555" lon="-109.775584"><ele>1606.5</ele></trkpt>
      <trkpt lat="38.118183" lon="-109.775573"><ele>1606.8</ele></trkpt>
      <trkpt lat="38.118052" lon="-109.775353"><ele>1606.2</ele></trkpt>
      <trkpt lat="38.117614" lon="-109.775160"><ele>1607.5</ele></trkpt>
      <trkpt lat="38.117369" lon="-109.774790"><ele>1605.8</ele></trkpt>
      <trkpt lat="38.117166" lon="-109.774661"><ele>1604.5</ele></trkpt>
      <trkpt lat="38.116888" lon="-109.774548"><ele>1605.2</ele></trkpt>
      <trkpt lat="38.116643" lon="-109.774398"><ele>1608.0</ele></trkpt>
      <trkpt lat="38.116377" lon="-109.774076"><ele>1611.8</ele></trkpt>
      <trkpt lat="38.116187" lon="-109.774044"><ele>1613.2</ele></trkpt>
      <trkpt lat="38.115925" lon="-109.773840"><ele>1614.5</ele></trkpt>
      <trkpt lat="38.115740" lon="-109.773545"><ele>1614.8</ele></trkpt>
      <trkpt lat="38.115896" lon="-109.773073"><ele>1607.8</ele></trkpt>
      <trkpt lat="38.116001" lon="-109.772526"><ele>1599.5</ele></trkpt>
      <trkpt lat="38.116276" lon="-109.772075"><ele>1605.2</ele></trkpt>
      <trkpt lat="38.116812" lon="-109.772016"><ele>1600.2</ele></trkpt>
      <trkpt lat="38.117331" lon="-109.772075"><ele>1598.8</ele></trkpt>
      <trkpt lat="38.117607" lon="-109.771992"><ele>1600.8</ele></trkpt>
      <trkpt lat="38.117611" lon="-109.771681"><ele>1607.0</ele></trkpt>
      <trkpt lat="38.117462" lon="-109.771354"><ele>1602.2</ele></trkpt>
      <trkpt lat="38.117221" lon="-109.770911"><ele>1597.0</ele></trkpt>
      <trkpt lat="38.117259" lon="-109.770418"><ele>1595.5</ele></trkpt>
      <trkpt lat="38.117240" lon="-109.770117"><ele>1595.8</ele></trkpt>
      <trkpt lat="38.117270" lon="-109.769779"><ele>1597.8</ele></trkpt>
      <trkpt lat="38.117010" lon="-109.769342"><ele>1606.8</ele></trkpt>
      <trkpt lat="38.116809" lon="-109.769264"><ele>1611.0</ele></trkpt>
      <trkpt lat="38.116651" lon="-109.769176"><ele>1615.2</ele></trkpt>
      <trkpt lat="38.116466" lon="-109.769173"><ele>1620.2</ele></trkpt>
      <trkpt lat="38.116160" lon="-109.769087"><ele>1630.0</ele></trkpt>
      <trkpt lat="38.116292" lon="-109.768905"><ele>1628.5</ele></trkpt>
      <trkpt lat="38.116575" lon="-109.768704"><ele>1622.8</ele></trkpt>
      <trkpt lat="38.116624" lon="-109.768417"><ele>1624.2</ele></trkpt>
      <trkpt lat="38.116537" lon="-109.768264"><ele>1627.8</ele></trkpt>
      <trkpt lat="38.116388" lon="-109.768095"><ele>1631.2</ele></trkpt>
      <trkpt lat="38.116141" lon="-109.767985"><ele>1637.8</ele></trkpt>
      <trkpt lat="38.115982" lon="-109.767972"><ele>1642.2</ele></trkpt>
      <trkpt lat="38.115784" lon="-109.768122"><ele>1650.5</ele></trkpt>
      <trkpt lat="38.115655" lon="-109.767795"><ele>1653.5</ele></trkpt>
      <trkpt lat="38.115661" lon="-109.767196"><ele>1644.2</ele></trkpt>
      <trkpt lat="38.115482" lon="-109.766832"><ele>1649.5</ele></trkpt>
      <trkpt lat="38.115619" lon="-109.766035"><ele>1636.2</ele></trkpt>
      <trkpt lat="38.115847" lon="-109.765311"><ele>1628.2</ele></trkpt>
      <trkpt lat="38.115974" lon="-109.764933"><ele>1625.0</ele></trkpt>
      <trkpt lat="38.115771" lon="-109.764257"><ele>1621.8</ele></trkpt>
      <trkpt lat="38.115953" lon="-109.763369"><ele>1629.5</ele></trkpt>
      <trkpt lat="38.116292" lon="-109.762939"><ele>1621.0</ele></trkpt>
      <trkpt lat="38.116704" lon="-109.762742"><ele>1601.5</ele></trkpt>
      <trkpt lat="38.116848" lon="-109.762602"><ele>1600.2</ele></trkpt>
      <trkpt lat="38.116753" lon="-109.762519"><ele>1601.2</ele></trkpt>
      <trkpt lat="38.116330" lon="-109.762538"><ele>1623.0</ele></trkpt>
      <trkpt lat="38.116071" lon="-109.762256"><ele>1634.5</ele></trkpt>
      <trkpt lat="38.115921" lon="-109.761663"><ele>1628.8</ele></trkpt>
      <trkpt lat="38.115989" lon="-109.760917"><ele>1617.8</ele></trkpt>
      <trkpt lat="38.116136" lon="-109.760614"><ele>1608.5</ele></trkpt>
      <trkpt lat="38.116314" lon="-109.760292"><ele>1600.5</ele></trkpt>
      <trkpt lat="38.116516" lon="-109.759898"><ele>1596.0</ele></trkpt>
      <trkpt lat="38.116688" lon="-109.759460"><ele>1594.8</ele></trkpt>
      <trkpt lat="38.116919" lon="-109.758844"><ele>1589.0</ele></trkpt>
      <trkpt lat="38.116721" lon="-109.758860"><ele>1593.5</ele></trkpt>
      <trkpt lat="38.116442" lon="-109.759115"><ele>1594.8</ele></trkpt>
      <trkpt lat="38.116244" lon="-109.758919"><ele>1592.0</ele></trkpt>
      <trkpt lat="38.116027" lon="-109.758659"><ele>1587.5</ele></trkpt>
      <trkpt lat="38.116181" lon="-109.758297"><ele>1585.0</ele></trkpt>
      <trkpt lat="38.116383" lon="-109.757919"><ele>1577.2</ele></trkpt>
      <trkpt lat="38.116493" lon="-109.757634"><ele>1570.2</ele></trkpt>
      <trkpt lat="38.116719" lon="-109.757425"><ele>1566.5</ele></trkpt>
      <trkpt lat="38.117027" lon="-109.757087"><ele>1563.2</ele></trkpt>
      <trkpt lat="38.117308" lon="-109.756779"><ele>1563.5</ele></trkpt>
      <trkpt lat="38.117542" lon="-109.756583"><ele>1564.2</ele></trkpt>
      <trkpt lat="38.117685" lon="-109.756017"><ele>1560.0</ele></trkpt>
      <trkpt lat="38.117649" lon="-109.755627"><ele>1556.2</ele></trkpt>
      <trkpt lat="38.117472" lon="-109.755529"><ele>1552.8</ele></trkpt>
      <trkpt lat="38.117164" lon="-109.755759"><ele>1549.0</ele></trkpt>
      <trkpt lat="38.117040" lon="-109.756095"><ele>1550.5</ele></trkpt>
      <trkpt lat="38.116913" lon="-109.756288"><ele>1550.8</ele></trkpt>
      <trkpt lat="38.116641" lon="-109.756682"><ele>1552.8</ele></trkpt>
      <trkpt lat="38.116438" lon="-109.756685"><ele>1550.5</ele></trkpt>
      <trkpt lat="38.116242" lon="-109.756851"><ele>1551.5</ele></trkpt>
      <trkpt lat="38.116012" lon="-109.756873"><ele>1549.2</ele></trkpt>
      <trkpt lat="38.115923" lon="-109.756712"><ele>1545.0</ele></trkpt>
      <trkpt lat="38.115664" lon="-109.756352"><ele>1542.8</ele></trkpt>
      <trkpt lat="38.115244" lon="-109.755894"><ele>1543.5</ele></trkpt>
      <trkpt lat="38.115244" lon="-109.755894"><ele>1543.5</ele></trkpt>
      <trkpt lat="38.115664" lon="-109.756352"><ele>1542.8</ele></trkpt>
      <trkpt lat="38.115923" lon="-109.756712"><ele>1545.0</ele></trkpt>
      <trkpt lat="38.116012" lon="-109.756873"><ele>1549.2</ele></trkpt>
      <trkpt lat="38.116242" lon="-109.756851"><ele>1551.5</ele></trkpt>
      <trkpt lat="38.116438" lon="-109.756685"><ele>1550.5</ele></trkpt>
      <trkpt lat="38.116641" lon="-109.756682"><ele>1552.8</ele></trkpt>
      <trkpt lat="38.116913" lon="-109.756288"><ele>1550.8</ele></trkpt>
      <trkpt lat="38.117040" lon="-109.756095"><ele>1550.5</ele></trkpt>
      <trkpt lat="38.117164" lon="-109.755759"><ele>1549.0</ele></trkpt>
      <trkpt lat="38.117472" lon="-109.755529"><ele>1552.8</ele></trkpt>
      <trkpt lat="38.117649" lon="-109.755627"><ele>1556.2</ele></trkpt>
      <trkpt lat="38.117685" lon="-109.756017"><ele>1560.0</ele></trkpt>
      <trkpt lat="38.117542" lon="-109.756583"><ele>1564.2</ele></trkpt>
      <trkpt lat="38.117308" lon="-109.756779"><ele>1563.5</ele></trkpt>
      <trkpt lat="38.117027" lon="-109.757087"><ele>1563.2</ele></trkpt>
      <trkpt lat="38.116719" lon="-109.757425"><ele>1566.5</ele></trkpt>
      <trkpt lat="38.116493" lon="-109.757634"><ele>1570.2</ele></trkpt>
      <trkpt lat="38.116383" lon="-109.757919"><ele>1577.2</ele></trkpt>
      <trkpt lat="38.116181" lon="-109.758297"><ele>1585.0</ele></trkpt>
      <trkpt lat="38.116027" lon="-109.758659"><ele>1587.5</ele></trkpt>
      <trkpt lat="38.116244" lon="-109.758919"><ele>1592.0</ele></trkpt>
      <trkpt lat="38.116442" lon="-109.759115"><ele>1594.8</ele></trkpt>
      <trkpt lat="38.116721" lon="-109.758860"><ele>1593.5</ele></trkpt>
      <trkpt lat="38.116919" lon="-109.758844"><ele>1589.0</ele></trkpt>
      <trkpt lat="38.116688" lon="-109.759460"><ele>1594.8</ele></trkpt>
      <trkpt lat="38.116516" lon="-109.759898"><ele>1596.0</ele></trkpt>
      <trkpt lat="38.116314" lon="-109.760292"><ele>1600.5</ele></trkpt>
      <trkpt lat="38.116136" lon="-109.760614"><ele>1608.5</ele></trkpt>
      <trkpt lat="38.115989" lon="-109.760917"><ele>1617.8</ele></trkpt>
      <trkpt lat="38.115921" lon="-109.761663"><ele>1628.8</ele></trkpt>
      <trkpt lat="38.116071" lon="-109.762256"><ele>1634.5</ele></trkpt>
      <trkpt lat="38.116330" lon="-109.762538"><ele>1623.0</ele></trkpt>
      <trkpt lat="38.116753" lon="-109.762519"><ele>1601.2</ele></trkpt>
      <trkpt lat="38.116848" lon="-109.762602"><ele>1600.2</ele></trkpt>
      <trkpt lat="38.116704" lon="-109.762742"><ele>1601.5</ele></trkpt>
      <trkpt lat="38.116292" lon="-109.762939"><ele>1621.0</ele></trkpt>
      <trkpt lat="38.115953" lon="-109.763369"><ele>1629.5</ele></trkpt>
      <trkpt lat="38.115771" lon="-109.764257"><ele>1621.8</ele></trkpt>
      <trkpt lat="38.115974" lon="-109.764933"><ele>1625.0</ele></trkpt>
      <trkpt lat="38.115847" lon="-109.765311"><ele>1628.2</ele></trkpt>
      <trkpt lat="38.115619" lon="-109.766035"><ele>1636.2</ele></trkpt>
      <trkpt lat="38.115482" lon="-109.766832"><ele>1649.5</ele></trkpt>
      <trkpt lat="38.115661" lon="-109.767196"><ele>1644.2</ele></trkpt>
      <trkpt lat="38.115655" lon="-109.767795"><ele>1653.5</ele></trkpt>
      <trkpt lat="38.115784" lon="-109.768122"><ele>1650.5</ele></trkpt>
      <trkpt lat="38.115982" lon="-109.767972"><ele>1642.2</ele></trkpt>
      <trkpt lat="38.116141" lon="-109.767985"><ele>1637.8</ele></trkpt>
      <trkpt lat="38.116388" lon="-109.768095"><ele>1631.2</ele></trkpt>
      <trkpt lat="38.116537" lon="-109.768264"><ele>1627.8</ele></trkpt>
      <trkpt lat="38.116624" lon="-109.768417"><ele>1624.2</ele></trkpt>
      <trkpt lat="38.116575" lon="-109.768704"><ele>1622.8</ele></trkpt>
      <trkpt lat="38.116292" lon="-109.768905"><ele>1628.5</ele></trkpt>
      <trkpt lat="38.116160" lon="-109.769087"><ele>1630.0</ele></trkpt>
      <trkpt lat="38.116466" lon="-109.769173"><ele>1620.2</ele></trkpt>
      <trkpt lat="38.116651" lon="-109.769176"><ele>1615.2</ele></trkpt>
      <trkpt lat="38.116809" lon="-109.769264"><ele>1611.0</ele></trkpt>
      <trkpt lat="38.117010" lon="-109.769342"><ele>1606.8</ele></trkpt>
      <trkpt lat="38.117270" lon="-109.769779"><ele>1597.8</ele></trkpt>
      <trkpt lat="38.117240" lon="-109.770117"><ele>1595.8</ele></trkpt>
      <trkpt lat="38.117259" lon="-109.770418"><ele>1595.5</ele></trkpt>
      <trkpt lat="38.117221" lon="-109.770911"><ele>1597.0</ele></trkpt>
      <trkpt lat="38.117462" lon="-109.771354"><ele>1602.2</ele></trkpt>
      <trkpt lat="38.117611" lon="-109.771681"><ele>1607.0</ele></trkpt>
      <trkpt lat="38.117607" lon="-109.771992"><ele>1600.8</ele></trkpt>
      <trkpt lat="38.117331" lon="-109.772075"><ele>1598.8</ele></trkpt>
      <trkpt lat="38.116812" lon="-109.772016"><ele>1600.2</ele></trkpt>
      <trkpt lat="38.116276" lon="-109.772075"><ele>1605.2</ele></trkpt>
      <trkpt lat="38.116001" lon="-109.772526"><ele>1599.5</ele></trkpt>
      <trkpt lat="38.115896" lon="-109.773073"><ele>1607.8</ele></trkpt>
      <trkpt lat="38.115740" lon="-109.773545"><ele>1614.8</ele></trkpt>
      <trkpt lat="38.115925" lon="-109.773840"><ele>1614.5</ele></trkpt>
      <trkpt lat="38.116187" lon="-109.774044"><ele>1613.2</ele></trkpt>
      <trkpt lat="38.116377" lon="-109.774076"><ele>1611.8</ele></trkpt>
      <trkpt lat="38.116643" lon="-109.774398"><ele>1608.0</ele></trkpt>
      <trkpt lat="38.116888" lon="-109.774548"><ele>1605.2</ele></trkpt>
      <trkpt lat="38.117166" lon="-109.774661"><ele>1604.5</ele></trkpt>
      <trkpt lat="38.117369" lon="-109.774790"><ele>1605.8</ele></trkpt>
      <trkpt lat="38.117614" lon="-109.775160"><ele>1607.5</ele></trkpt>
      <trkpt lat="38.118052" lon="-109.775353"><ele>1606.2</ele></trkpt>
      <trkpt lat="38.118183" lon="-109.775573"><ele>1606.8</ele></trkpt>
      <trkpt lat="38.118555" lon="-109.775584"><ele>1606.5</ele></trkpt>
      <trkpt lat="38.118825" lon="-109.775675"><ele>1605.0</ele></trkpt>
      <trkpt lat="38.119091" lon="-109.775616"><ele>1603.0</ele></trkpt>
      <trkpt lat="38.119407" lon="-109.775670"><ele>1598.5</ele></trkpt>
      <trkpt lat="38.119614" lon="-109.775804"><ele>1594.2</ele></trkpt>
      <trkpt lat="38.119804" lon="-109.776061"><ele>1586.0</ele></trkpt>
      <trkpt lat="38.119931" lon="-109.776211"><ele>1579.8</ele></trkpt>
      <trkpt lat="38.120095" lon="-109.776201"><ele>1576.5</ele></trkpt>
      <trkpt lat="38.120344" lon="-109.776431"><ele>1568.2</ele></trkpt>
      <trkpt lat="38.120513" lon="-109.776560"><ele>1563.8</ele></trkpt>
      <trkpt lat="38.120762" lon="-109.776651"><ele>1559.8</ele></trkpt>
      <trkpt lat="38.120948" lon="-109.776669"><ele>1558.2</ele></trkpt>
      <trkpt lat="38.120942" lon="-109.776878"><ele>1557.5</ele></trkpt>
      <trkpt lat="38.120916" lon="-109.776953"><ele>1557.5</ele></trkpt>
    </trkseg>
    <!-- Mon -->
    <trkseg>
      <trkpt lat="38.120916" lon="-109.776953"><ele>1557.5</ele></trkpt>
      <trkpt lat="38.120953" lon="-109.776793"><ele>1557.8</ele></trkpt>
      <trkpt lat="38.121054" lon="-109.776662"><ele>1557.5</ele></trkpt>
      <trkpt lat="38.121268" lon="-109.776785"><ele>1556.0</ele></trkpt>
      <trkpt lat="38.121496" lon="-109.776978"><ele>1554.8</ele></trkpt>
      <trkpt lat="38.121640" lon="-109.777182"><ele>1554.0</ele></trkpt>
      <trkpt lat="38.121847" lon="-109.777774"><ele>1557.5</ele></trkpt>
      <trkpt lat="38.122196" lon="-109.778251"><ele>1561.2</ele></trkpt>
      <trkpt lat="38.122350" lon="-109.778527"><ele>1561.8</ele></trkpt>
      <trkpt lat="38.122413" lon="-109.778887"><ele>1562.0</ele></trkpt>
      <trkpt lat="38.122287" lon="-109.779453"><ele>1564.8</ele></trkpt>
      <trkpt lat="38.121997" lon="-109.780101"><ele>1567.0</ele></trkpt>
      <trkpt lat="38.121933" lon="-109.780485"><ele>1566.5</ele></trkpt>
      <trkpt lat="38.121959" lon="-109.780666"><ele>1565.8</ele></trkpt>
      <trkpt lat="38.122055" lon="-109.780876"><ele>1565.0</ele></trkpt>
      <trkpt lat="38.122230" lon="-109.781612"><ele>1570.8</ele></trkpt>
      <trkpt lat="38.122211" lon="-109.781958"><ele>1571.0</ele></trkpt>
      <trkpt lat="38.122247" lon="-109.782116"><ele>1570.5</ele></trkpt>
      <trkpt lat="38.122429" lon="-109.782136"><ele>1568.8</ele></trkpt>
      <trkpt lat="38.122534" lon="-109.782265"><ele>1568.5</ele></trkpt>
      <trkpt lat="38.122729" lon="-109.782845"><ele>1569.2</ele></trkpt>
      <trkpt lat="38.122983" lon="-109.783094"><ele>1570.2</ele></trkpt>
      <trkpt lat="38.123301" lon="-109.783649"><ele>1570.2</ele></trkpt>
      <trkpt lat="38.123487" lon="-109.783754"><ele>1574.2</ele></trkpt>
      <trkpt lat="38.123679" lon="-109.783819"><ele>1579.0</ele></trkpt>
      <trkpt lat="38.123845" lon="-109.784137"><ele>1580.2</ele></trkpt>
      <trkpt lat="38.124025" lon="-109.784172"><ele>1583.2</ele></trkpt>
      <trkpt lat="38.124095" lon="-109.784259"><ele>1583.8</ele></trkpt>
      <trkpt lat="38.124217" lon="-109.784853"><ele>1581.2</ele></trkpt>
      <trkpt lat="38.124523" lon="-109.785498"><ele>1583.5</ele></trkpt>
      <trkpt lat="38.124779" lon="-109.785653"><ele>1587.5</ele></trkpt>
      <trkpt lat="38.124980" lon="-109.785718"><ele>1591.0</ele></trkpt>
      <trkpt lat="38.125408" lon="-109.786272"><ele>1611.2</ele></trkpt>
      <trkpt lat="38.125572" lon="-109.786654"><ele>1613.8</ele></trkpt>
      <trkpt lat="38.125332" lon="-109.787515"><ele>1596.5</ele></trkpt>
      <trkpt lat="38.125244" lon="-109.788028"><ele>1598.0</ele></trkpt>
      <trkpt lat="38.125232" lon="-109.788560"><ele>1601.8</ele></trkpt>
      <trkpt lat="38.125448" lon="-109.788452"><ele>1599.8</ele></trkpt>
      <trkpt lat="38.125655" lon="-109.788410"><ele>1598.5</ele></trkpt>
      <trkpt lat="38.126026" lon="-109.788550"><ele>1596.8</ele></trkpt>
      <trkpt lat="38.126388" lon="-109.788765"><ele>1595.5</ele></trkpt>
      <trkpt lat="38.126742" lon="-109.788917"><ele>1594.2</ele></trkpt>
      <trkpt lat="38.127350" lon="-109.789172"><ele>1591.5</ele></trkpt>
      <trkpt lat="38.128065" lon="-109.789525"><ele>1587.5</ele></trkpt>
      <trkpt lat="38.128293" lon="-109.789723"><ele>1585.0</ele></trkpt>
      <trkpt lat="38.128377" lon="-109.789916"><ele>1583.5</ele></trkpt>
      <trkpt lat="38.128249" lon="-109.790296"><ele>1581.5</ele></trkpt>
      <trkpt lat="38.128274" lon="-109.790463"><ele>1580.2</ele></trkpt>
      <trkpt lat="38.128493" lon="-109.790729"><ele>1577.0</ele></trkpt>
      <trkpt lat="38.128868" lon="-109.791059"><ele>1575.5</ele></trkpt>
      <trkpt lat="38.129375" lon="-109.791480"><ele>1573.2</ele></trkpt>
      <trkpt lat="38.129775" lon="-109.792142"><ele>1571.2</ele></trkpt>
      <trkpt lat="38.130051" lon="-109.792475"><ele>1570.5</ele></trkpt>
      <trkpt lat="38.130482" lon="-109.792681"><ele>1570.0</ele></trkpt>
      <trkpt lat="38.130760" lon="-109.792974"><ele>1569.0</ele></trkpt>
      <trkpt lat="38.130997" lon="-109.793117"><ele>1568.2</ele></trkpt>
      <trkpt lat="38.131318" lon="-109.793196"><ele>1567.5</ele></trkpt>
      <trkpt lat="38.132402" lon="-109.793937"><ele>1563.2</ele></trkpt>
      <trkpt lat="38.132480" lon="-109.794081"><ele>1562.2</ele></trkpt>
      <trkpt lat="38.132641" lon="-109.794634"><ele>1560.0</ele></trkpt>
      <trkpt lat="38.132809" lon="-109.794917"><ele>1559.0</ele></trkpt>
      <trkpt lat="38.133771" lon="-109.794948"><ele>1557.0</ele></trkpt>
      <trkpt lat="38.134399" lon="-109.795339"><ele>1554.8</ele></trkpt>
      <trkpt lat="38.135069" lon="-109.795713"><ele>1554.5</ele></trkpt>
      <trkpt lat="38.135340" lon="-109.795759"><ele>1555.0</ele></trkpt>
      <trkpt lat="38.135794" lon="-109.795709"><ele>1555.2</ele></trkpt>
      <trkpt lat="38.136249" lon="-109.795664"><ele>1555.8</ele></trkpt>
      <trkpt lat="38.137400" lon="-109.796017"><ele>1558.0</ele></trkpt>
      <trkpt lat="38.137520" lon="-109.796124"><ele>1557.8</ele></trkpt>
      <trkpt lat="38.137584" lon="-109.796250"><ele>1557.8</ele></trkpt>
      <trkpt lat="38.137927" lon="-109.796051"><ele>1557.2</ele></trkpt>
      <trkpt lat="38.137934" lon="-109.796221"><ele>1557.2</ele></trkpt>
      <trkpt lat="38.138279" lon="-109.796591"><ele>1557.0</ele></trkpt>
      <trkpt lat="38.138533" lon="-109.797162"><ele>1557.5</ele></trkpt>
      <trkpt lat="38.138948" lon="-109.798010"><ele>1560.0</ele></trkpt>
      <trkpt lat="38.139158" lon="-109.798280"><ele>1559.8</ele></trkpt>
      <trkpt lat="38.139245" lon="-109.798730"><ele>1562.5</ele></trkpt>
      <trkpt lat="38.139341" lon="-109.798983"><ele>1564.5</ele></trkpt>
      <trkpt lat="38.139473" lon="-109.799195"><ele>1566.8</ele></trkpt>
      <trkpt lat="38.139386" lon="-109.799468"><ele>1567.5</ele></trkpt>
      <trkpt lat="38.139544" lon="-109.799715"><ele>1570.8</ele></trkpt>
      <trkpt lat="38.139432" lon="-109.800236"><ele>1573.2</ele></trkpt>
      <trkpt lat="38.139429" lon="-109.800593"><ele>1576.2</ele></trkpt>
      <trkpt lat="38.139547" lon="-109.801051"><ele>1577.5</ele></trkpt>
      <trkpt lat="38.139743" lon="-109.801484"><ele>1575.2</ele></trkpt>
      <trkpt lat="38.139916" lon="-109.801530"><ele>1574.2</ele></trkpt>
      <trkpt lat="38.140061" lon="-109.801644"><ele>1572.8</ele></trkpt>
      <trkpt lat="38.140557" lon="-109.801963"><ele>1569.2</ele></trkpt>
      <trkpt lat="38.142316" lon="-109.803166"><ele>1565.5</ele></trkpt>
      <trkpt lat="38.143000" lon="-109.803675"><ele>1569.0</ele></trkpt>
      <trkpt lat="38.143229" lon="-109.803649"><ele>1569.2</ele></trkpt>
      <trkpt lat="38.143569" lon="-109.803700"><ele>1571.0</ele></trkpt>
      <trkpt lat="38.143592" lon="-109.803473"><ele>1571.2</ele></trkpt>
      <trkpt lat="38.143654" lon="-109.803287"><ele>1571.5</ele></trkpt>
      <trkpt lat="38.143773" lon="-109.803078"><ele>1570.8</ele></trkpt>
      <trkpt lat="38.144135" lon="-109.802584"><ele>1569.2</ele></trkpt>
      <trkpt lat="38.144400" lon="-109.802379"><ele>1568.5</ele></trkpt>
      <trkpt lat="38.144732" lon="-109.802327"><ele>1568.8</ele></trkpt>
      <trkpt lat="38.144874" lon="-109.802262"><ele>1568.5</ele></trkpt>
      <trkpt lat="38.144990" lon="-109.802130"><ele>1568.0</ele></trkpt>
      <trkpt lat="38.145071" lon="-109.801943"><ele>1568.0</ele></trkpt>
      <trkpt lat="38.145110" lon="-109.801673"><ele>1567.2</ele></trkpt>
      <trkpt lat="38.145093" lon="-109.801359"><ele>1567.0</ele></trkpt>
      <trkpt lat="38.145280" lon="-109.801114"><ele>1569.2</ele></trkpt>
      <trkpt lat="38.144927" lon="-109.800791"><ele>1565.2</ele></trkpt>
      <trkpt lat="38.144800" lon="-109.800281"><ele>1563.5</ele></trkpt>
      <trkpt lat="38.144803" lon="-109.800032"><ele>1563.0</ele></trkpt>
      <trkpt lat="38.144881" lon="-109.799723"><ele>1562.5</ele></trkpt>
      <trkpt lat="38.145020" lon="-109.798961"><ele>1560.2</ele></trkpt>
      <trkpt lat="38.145074" lon="-109.798755"><ele>1559.8</ele></trkpt>
      <trkpt lat="38.145188" lon="-109.798587"><ele>1559.5</ele></trkpt>
      <trkpt lat="38.145531" lon="-109.798287"><ele>1559.5</ele></trkpt>
      <trkpt lat="38.145662" lon="-109.798128"><ele>1559.2</ele></trkpt>
      <trkpt lat="38.145842" lon="-109.797810"><ele>1558.5</ele></trkpt>
      <trkpt lat="38.146049" lon="-109.797394"><ele>1557.5</ele></trkpt>
      <trkpt lat="38.146234" lon="-109.797185"><ele>1557.2</ele></trkpt>
      <trkpt lat="38.146468" lon="-109.797036"><ele>1557.0</ele></trkpt>
      <trkpt lat="38.146955" lon="-109.796906"><ele>1557.2</ele></trkpt>
      <trkpt lat="38.147110" lon="-109.796838"><ele>1557.2</ele></trkpt>
      <trkpt lat="38.147226" lon="-109.796699"><ele>1557.0</ele></trkpt>
      <trkpt lat="38.147273" lon="-109.796609"><ele>1556.8</ele></trkpt>
      <trkpt lat="38.147357" lon="-109.796302"><ele>1556.0</ele></trkpt>
      <trkpt lat="38.147464" lon="-109.796109"><ele>1555.8</ele></trkpt>
      <trkpt lat="38.147620" lon="-109.796012"><ele>1555.5</ele></trkpt>
      <trkpt lat="38.147787" lon="-109.795996"><ele>1555.0</ele></trkpt>
      <trkpt lat="38.147981" lon="-109.796046"><ele>1555.0</ele></trkpt>
      <trkpt lat="38.148304" lon="-109.796236"><ele>1555.2</ele></trkpt>
      <trkpt lat="38.148607" lon="-109.796359"><ele>1554.5</ele></trkpt>
      <trkpt lat="38.148926" lon="-109.796366"><ele>1553.0</ele></trkpt>
      <trkpt lat="38.149393" lon="-109.797630"><ele>1555.2</ele></trkpt>
      <trkpt lat="38.150066" lon="-109.800344"><ele>1559.5</ele></trkpt>
      <trkpt lat="38.150069" lon="-109.800589"><ele>1559.8</ele></trkpt>
      <trkpt lat="38.150106" lon="-109.800756"><ele>1560.2</ele></trkpt>
      <trkpt lat="38.150209" lon="-109.800932"><ele>1560.8</ele></trkpt>
      <trkpt lat="38.150711" lon="-109.802250"><ele>1559.5</ele></trkpt>
      <trkpt lat="38.150679" lon="-109.802599"><ele>1558.2</ele></trkpt>
      <trkpt lat="38.150506" lon="-109.803063"><ele>1557.5</ele></trkpt>
      <trkpt lat="38.150608" lon="-109.803457"><ele>1555.8</ele></trkpt>
      <trkpt lat="38.150488" lon="-109.803833"><ele>1556.2</ele></trkpt>
      <trkpt lat="38.150456" lon="-109.804160"><ele>1556.0</ele></trkpt>
      <trkpt lat="38.150538" lon="-109.804442"><ele>1555.0</ele></trkpt>
      <trkpt lat="38.150696" lon="-109.804520"><ele>1553.5</ele></trkpt>
      <trkpt lat="38.151179" lon="-109.804316"><ele>1552.2</ele></trkpt>
      <trkpt lat="38.151499" lon="-109.804302"><ele>1552.0</ele></trkpt>
      <trkpt lat="38.151761" lon="-109.804436"><ele>1551.8</ele></trkpt>
      <trkpt lat="38.151918" lon="-109.804651"><ele>1551.5</ele></trkpt>
      <trkpt lat="38.152247" lon="-109.805037"><ele>1550.5</ele></trkpt>
      <trkpt lat="38.152635" lon="-109.805652"><ele>1551.2</ele></trkpt>
      <trkpt lat="38.153278" lon="-109.806974"><ele>1558.0</ele></trkpt>
      <trkpt lat="38.153472" lon="-109.807084"><ele>1559.0</ele></trkpt>
      <trkpt lat="38.153740" lon="-109.807046"><ele>1559.0</ele></trkpt>
      <trkpt lat="38.154031" lon="-109.806756"><ele>1556.8</ele></trkpt>
      <trkpt lat="38.154284" lon="-109.806712"><ele>1556.5</ele></trkpt>
      <trkpt lat="38.154821" lon="-109.806898"><ele>1558.2</ele></trkpt>
      <trkpt lat="38.154892" lon="-109.807153"><ele>1560.0</ele></trkpt>
      <trkpt lat="38.154788" lon="-109.807422"><ele>1561.8</ele></trkpt>
      <trkpt lat="38.154603" lon="-109.807770"><ele>1564.8</ele></trkpt>
      <trkpt lat="38.154609" lon="-109.808131"><ele>1567.2</ele></trkpt>
      <trkpt lat="38.154425" lon="-109.808543"><ele>1570.2</ele></trkpt>
      <trkpt lat="38.153738" lon="-109.809427"><ele>1575.5</ele></trkpt>
      <trkpt lat="38.153491" lon="-109.809530"><ele>1576.5</ele></trkpt>
      <trkpt lat="38.153095" lon="-109.809714"><ele>1576.5</ele></trkpt>
      <trkpt lat="38.152921" lon="-109.809900"><ele>1577.0</ele></trkpt>
      <trkpt lat="38.152763" lon="-109.810337"><ele>1577.0</ele></trkpt>
      <trkpt lat="38.152590" lon="-109.810525"><ele>1576.8</ele></trkpt>
      <trkpt lat="38.152262" lon="-109.810674"><ele>1576.8</ele></trkpt>
      <trkpt lat="38.151664" lon="-109.811390"><ele>1576.0</ele></trkpt>
      <trkpt lat="38.151187" lon="-109.812225"><ele>1573.2</ele></trkpt>
      <trkpt lat="38.149973" lon="-109.813883"><ele>1564.2</ele></trkpt>
      <trkpt lat="38.149880" lon="-109.814171"><ele>1562.2</ele></trkpt>
      <trkpt lat="38.149940" lon="-109.814673"><ele>1557.5</ele></trkpt>
      <trkpt lat="38.150039" lon="-109.815028"><ele>1554.2</ele></trkpt>
      <trkpt lat="38.150021" lon="-109.815422"><ele>1550.2</ele></trkpt>
      <trkpt lat="38.150131" lon="-109.815523"><ele>1548.5</ele></trkpt>
      <trkpt lat="38.150291" lon="-109.815439"><ele>1548.5</ele></trkpt>
      <trkpt lat="38.150691" lon="-109.814952"><ele>1550.5</ele></trkpt>
      <trkpt lat="38.150796" lon="-109.814934"><ele>1550.2</ele></trkpt>
      <trkpt lat="38.150918" lon="-109.815074"><ele>1548.8</ele></trkpt>
      <trkpt lat="38.150859" lon="-109.815358"><ele>1546.0</ele></trkpt>
      <trkpt lat="38.150663" lon="-109.815664"><ele>1544.2</ele></trkpt>
      <trkpt lat="38.150380" lon="-109.815844"><ele>1544.0</ele></trkpt>
      <trkpt lat="38.149975" lon="-109.815867"><ele>1545.5</ele></trkpt>
      <trkpt lat="38.149751" lon="-109.815748"><ele>1545.8</ele></trkpt>
      <trkpt lat="38.149573" lon="-109.815360"><ele>1549.2</ele></trkpt>
      <trkpt lat="38.149170" lon="-109.815215"><ele>1549.2</ele></trkpt>
      <trkpt lat="38.148555" lon="-109.815275"><ele>1548.0</ele></trkpt>
      <trkpt lat="38.148349" lon="-109.815449"><ele>1546.8</ele></trkpt>
      <trkpt lat="38.148142" lon="-109.815785"><ele>1545.2</ele></trkpt>
      <trkpt lat="38.147613" lon="-109.816018"><ele>1546.2</ele></trkpt>
      <trkpt lat="38.145957" lon="-109.815564"><ele>1547.0</ele></trkpt>
      <trkpt lat="38.145692" lon="-109.815323"><ele>1549.2</ele></trkpt>
      <trkpt lat="38.145397" lon="-109.814713"><ele>1555.2</ele></trkpt>
      <trkpt lat="38.145151" lon="-109.814535"><ele>1555.8</ele></trkpt>
      <trkpt lat="38.144912" lon="-109.814558"><ele>1553.5</ele></trkpt>
      <trkpt lat="38.144619" lon="-109.814697"><ele>1552.2</ele></trkpt>
      <trkpt lat="38.144259" lon="-109.814647"><ele>1552.5</ele></trkpt>
      <trkpt lat="38.144071" lon="-109.814696"><ele>1553.0</ele></trkpt>
      <trkpt lat="38.144052" lon="-109.814859"><ele>1553.2</ele></trkpt>
      <trkpt lat="38.144185" lon="-109.814985"><ele>1552.8</ele></trkpt>
      <trkpt lat="38.144662" lon="-109.815118"><ele>1550.5</ele></trkpt>
      <trkpt lat="38.144835" lon="-109.815275"><ele>1549.8</ele></trkpt>
      <trkpt lat="38.144868" lon="-109.815472"><ele>1550.2</ele></trkpt>
      <trkpt lat="38.144860" lon="-109.815873"><ele>1551.5</ele></trkpt>
      <trkpt lat="38.144893" lon="-109.816174"><ele>1551.8</ele></trkpt>
      <trkpt lat="38.144947" lon="-109.816696"><ele>1551.2</ele></trkpt>
      <trkpt lat="38.144947" lon="-109.817197"><ele>1550.2</ele></trkpt>
      <trkpt lat="38.144994" lon="-109.817735"><ele>1549.5</ele></trkpt>
      <trkpt lat="38.145063" lon="-109.818330"><ele>1551.5</ele></trkpt>
      <trkpt lat="38.144732" lon="-109.818380"><ele>1551.5</ele></trkpt>
      <trkpt lat="38.144531" lon="-109.818410"><ele>1552.0</ele></trkpt>
      <trkpt lat="38.144510" lon="-109.818523"><ele>1552.5</ele></trkpt>
      <trkpt lat="38.144647" lon="-109.818773"><ele>1554.0</ele></trkpt>
      <trkpt lat="38.144864" lon="-109.820449"><ele>1556.8</ele></trkpt>
      <trkpt lat="38.144801" lon="-109.821137"><ele>1558.5</ele></trkpt>
      <trkpt lat="38.144624" lon="-109.821643"><ele>1559.8</ele></trkpt>
      <trkpt lat="38.144555" lon="-109.822106"><ele>1562.2</ele></trkpt>
      <trkpt lat="38.144277" lon="-109.822654"><ele>1563.8</ele></trkpt>
      <trkpt lat="38.143556" lon="-109.823536"><ele>1564.5</ele></trkpt>
      <trkpt lat="38.143267" lon="-109.823894"><ele>1565.0</ele></trkpt>
      <trkpt lat="38.143094" lon="-109.824518"><ele>1568.2</ele></trkpt>
      <trkpt lat="38.142854" lon="-109.824893"><ele>1568.5</ele></trkpt>
      <trkpt lat="38.142597" lon="-109.825504"><ele>1568.5</ele></trkpt>
      <trkpt lat="38.142524" lon="-109.825662"><ele>1568.0</ele></trkpt>
      <trkpt lat="38.142081" lon="-109.826611"><ele>1577.2</ele></trkpt>
      <trkpt lat="38.141992" lon="-109.826998"><ele>1580.2</ele></trkpt>
      <trkpt lat="38.141814" lon="-109.827447"><ele>1580.8</ele></trkpt>
      <trkpt lat="38.141747" lon="-109.827534"><ele>1580.5</ele></trkpt>
      <trkpt lat="38.141685" lon="-109.827597"><ele>1580.5</ele></trkpt>
      <trkpt lat="38.141685" lon="-109.827600"><ele>1584.5</ele></trkpt>
    </trkseg>
  </trk>
</gpx>
