<?xml version="1.0" encoding="UTF-8"?>
<gpx version="1.1" creator="pathbeaters26" xmlns="http://www.topografix.com/GPX/1/1" xmlns:xsi="http://www.w3.org/2001/XMLSchema-instance" xsi:schemaLocation="http://www.topografix.com/GPX/1/1 http://www.topografix.com/GPX/1/1/gpx.xsd">
  <metadata><name>Copper Basin: Goat, Betty, Baptie Lakes + Surprise Valley</name><desc>Thu-Mon plan; one trkseg per day leg (Fri, Sat, Sun, Mon). Track routed with BRouter hiking-mountain over OSM trails; elevations from the BRouter SRTM profile.</desc></metadata>
  <wpt lat="43.767240" lon="-113.946070"><ele>2379.3</ele><name>Broad Canyon TH · Copper Basin</name></wpt>
  <wpt lat="43.785810" lon="-114.012610"><ele>3165.1</ele><name>Fri camp · Betty Lake</name></wpt>
  <wpt lat="43.796480" lon="-114.021810"><ele>3090.9</ele><name>Sat + Sun camp · Surprise Valley (Surprise Lake)</name></wpt>
  <wpt lat="43.779000" lon="-114.019950"><ele>3183.1</ele><name>Goat Lake</name></wpt>
  <wpt lat="43.776410" lon="-114.014830"><ele>3092.7</ele><name>Baptie Lake</name></wpt>
  <wpt lat="43.768380" lon="-113.943140"><ele>2382.3</ele><name>Jarvis Trail TH</name></wpt>
  <wpt lat="43.790807" lon="-114.012537"><ele>3348.0</ele><name>Surprise Valley divide (Fall Creek Trail)</name></wpt>
  <trk><name>Copper Basin: Goat, Betty, Baptie Lakes + Surprise Valley</name>
    <trkseg>
      <!-- Fri — Broad Canyon to Betty Lake -->
      <trkpt lat="43.767239" lon="-113.946071"><ele>2388.0</ele></trkpt>
      <trkpt lat="43.767241" lon="-113.946068"><ele>2388.0</ele></trkpt>
      <trkpt lat="43.767346" lon="-113.945783"><ele>2388.2</ele></trkpt>
      <trkpt lat="43.767391" lon="-113.945515"><ele>2388.8</ele></trkpt>
      <trkpt lat="43.767481" lon="-113.945339"><ele>2388.5</ele></trkpt>
      <trkpt lat="43.767636" lon="-113.945092"><ele>2387.5</ele></trkpt>
      <trkpt lat="43.767682" lon="-113.944994"><ele>2387.2</ele></trkpt>
      <trkpt lat="43.767692" lon="-113.944909"><ele>2387.2</ele></trkpt>
      <trkpt lat="43.767717" lon="-113.944877"><ele>2387.2</ele></trkpt>
      <trkpt lat="43.767834" lon="-113.944814"><ele>2385.8</ele></trkpt>
      <trkpt lat="43.767885" lon="-113.944772"><ele>2385.2</ele></trkpt>
      <trkpt lat="43.767908" lon="-113.944694"><ele>2385.5</ele></trkpt>
      <trkpt lat="43.767911" lon="-113.944567"><ele>2386.0</ele></trkpt>
      <trkpt lat="43.767885" lon="-113.944483"><ele>2386.8</ele></trkpt>
      <trkpt lat="43.767898" lon="-113.944426"><ele>2386.8</ele></trkpt>
      <trkpt lat="43.767967" lon="-113.944327"><ele>2386.8</ele></trkpt>
      <trkpt lat="43.768247" lon="-113.944021"><ele>2386.2</ele></trkpt>
      <trkpt lat="43.768288" lon="-113.943954"><ele>2386.5</ele></trkpt>
      <trkpt lat="43.768316" lon="-113.943859"><ele>2386.8</ele></trkpt>
      <trkpt lat="43.768479" lon="-113.943605"><ele>2387.8</ele></trkpt>
      <trkpt lat="43.768449" lon="-113.943308"><ele>2389.8</ele></trkpt>
      <trkpt lat="43.768377" lon="-113.943139"><ele>2389.8</ele></trkpt>
      <trkpt lat="43.768498" lon="-113.943256"><ele>2389.8</ele></trkpt>
      <trkpt lat="43.768760" lon="-113.943487"><ele>2388.0</ele></trkpt>
      <trkpt lat="43.768804" lon="-113.943669"><ele>2386.5</ele></trkpt>
      <trkpt lat="43.768994" lon="-113.943908"><ele>2383.5</ele></trkpt>
      <trkpt lat="43.769010" lon="-113.944037"><ele>2382.0</ele></trkpt>
      <trkpt lat="43.769157" lon="-113.944278"><ele>2379.0</ele></trkpt>
      <trkpt lat="43.769283" lon="-113.944648"><ele>2375.5</ele></trkpt>
      <trkpt lat="43.769275" lon="-113.944906"><ele>2373.5</ele></trkpt>
      <trkpt lat="43.769329" lon="-113.944984"><ele>2372.5</ele></trkpt>
      <trkpt lat="43.769426" lon="-113.945410"><ele>2374.2</ele></trkpt>
      <trkpt lat="43.769492" lon="-113.945762"><ele>2376.2</ele></trkpt>
      <trkpt lat="43.769291" lon="-113.945990"><ele>2376.8</ele></trkpt>
      <trkpt lat="43.769349" lon="-113.946064"><ele>2377.5</ele></trkpt>
      <trkpt lat="43.769399" lon="-113.946244"><ele>2378.5</ele></trkpt>
      <trkpt lat="43.769230" lon="-113.946585"><ele>2379.0</ele></trkpt>
      <trkpt lat="43.769072" lon="-113.947097"><ele>2381.0</ele></trkpt>
      <trkpt lat="43.768702" lon="-113.948385"><ele>2389.8</ele></trkpt>
      <trkpt lat="43.768431" lon="-113.948972"><ele>2390.2</ele></trkpt>
      <trkpt lat="43.768249" lon="-113.949780"><ele>2395.2</ele></trkpt>
      <trkpt lat="43.768008" lon="-113.950182"><ele>2395.5</ele></trkpt>
      <trkpt lat="43.767875" lon="-113.950646"><ele>2397.2</ele></trkpt>
      <trkpt lat="43.767788" lon="-113.950780"><ele>2396.2</ele></trkpt>
      <trkpt lat="43.767689" lon="-113.950981"><ele>2396.2</ele></trkpt>
      <trkpt lat="43.767573" lon="-113.951094"><ele>2394.8</ele></trkpt>
      <trkpt lat="43.767505" lon="-113.951263"><ele>2395.2</ele></trkpt>
      <trkpt lat="43.767080" lon="-113.951955"><ele>2398.5</ele></trkpt>
      <trkpt lat="43.766846" lon="-113.952478"><ele>2400.2</ele></trkpt>
      <trkpt lat="43.766604" lon="-113.953234"><ele>2399.0</ele></trkpt>
      <trkpt lat="43.766358" lon="-113.953964"><ele>2403.2</ele></trkpt>
      <trkpt lat="43.766203" lon="-113.954334"><ele>2403.8</ele></trkpt>
      <trkpt lat="43.765837" lon="-113.954626"><ele>2399.2</ele></trkpt>
      <trkpt lat="43.765676" lon="-113.954876"><ele>2400.0</ele></trkpt>
      <trkpt lat="43.765545" lon="-113.955010"><ele>2400.2</ele></trkpt>
      <trkpt lat="43.765413" lon="-113.955088"><ele>2400.2</ele></trkpt>
      <trkpt lat="43.765300" lon="-113.955139"><ele>2400.2</ele></trkpt>
      <trkpt lat="43.765231" lon="-113.955316"><ele>2401.8</ele></trkpt>
      <trkpt lat="43.764967" lon="-113.955670"><ele>2404.0</ele></trkpt>
      <trkpt lat="43.764679" lon="-113.955975"><ele>2404.0</ele></trkpt>
      <trkpt lat="43.764576" lon="-113.956295"><ele>2403.5</ele></trkpt>
      <trkpt lat="43.764605" lon="-113.956710"><ele>2404.2</ele></trkpt>
      <trkpt lat="43.764706" lon="-113.956887"><ele>2406.5</ele></trkpt>
      <trkpt lat="43.764646" lon="-113.957027"><ele>2406.8</ele></trkpt>
      <trkpt lat="43.764721" lon="-113.957373"><ele>2410.2</ele></trkpt>
      <trkpt lat="43.764679" lon="-113.957671"><ele>2412.5</ele></trkpt>
      <trkpt lat="43.764731" lon="-113.958081"><ele>2418.0</ele></trkpt>
      <trkpt lat="43.764640" lon="-113.958373"><ele>2420.0</ele></trkpt>
      <trkpt lat="43.764462" lon="-113.958572"><ele>2420.2</ele></trkpt>
      <trkpt lat="43.764074" lon="-113.958634"><ele>2414.8</ele></trkpt>
      <trkpt lat="43.763824" lon="-113.958904"><ele>2415.5</ele></trkpt>
      <trkpt lat="43.763675" lon="-113.959036"><ele>2415.0</ele></trkpt>
      <trkpt lat="43.763298" lon="-113.959280"><ele>2411.8</ele></trkpt>
      <trkpt lat="43.763121" lon="-113.959607"><ele>2413.8</ele></trkpt>
      <trkpt lat="43.762962" lon="-113.959951"><ele>2415.0</ele></trkpt>
      <trkpt lat="43.763019" lon="-113.960015"><ele>2416.2</ele></trkpt>
      <trkpt lat="43.762893" lon="-113.960549"><ele>2422.0</ele></trkpt>
      <trkpt lat="43.762970" lon="-113.960900"><ele>2428.5</ele></trkpt>
      <trkpt lat="43.762991" lon="-113.960967"><ele>2430.0</ele></trkpt>
      <trkpt lat="43.763164" lon="-113.960731"><ele>2429.8</ele></trkpt>
      <trkpt lat="43.763346" lon="-113.960723"><ele>2433.2</ele></trkpt>
      <trkpt lat="43.763447" lon="-113.961039"><ele>2441.0</ele></trkpt>
      <trkpt lat="43.763576" lon="-113.961308"><ele>2448.2</ele></trkpt>
      <trkpt lat="43.763516" lon="-113.961455"><ele>2449.2</ele></trkpt>
      <trkpt lat="43.763487" lon="-113.961721"><ele>2453.0</ele></trkpt>
      <trkpt lat="43.763323" lon="-113.962198"><ele>2457.5</ele></trkpt>
      <trkpt lat="43.763272" lon="-113.962718"><ele>2466.0</ele></trkpt>
      <trkpt lat="43.763270" lon="-113.962901"><ele>2470.0</ele></trkpt>
      <trkpt lat="43.763487" lon="-113.962904"><ele>2476.2</ele></trkpt>
      <trkpt lat="43.763609" lon="-113.962863"><ele>2478.5</ele></trkpt>
      <trkpt lat="43.763590" lon="-113.963086"><ele>2483.5</ele></trkpt>
      <trkpt lat="43.763404" lon="-113.963807"><ele>2497.0</ele></trkpt>
      <trkpt lat="43.763422" lon="-113.963858"><ele>2499.0</ele></trkpt>
      <trkpt lat="43.763648" lon="-113.963775"><ele>2503.2</ele></trkpt>
      <trkpt lat="43.763685" lon="-113.963837"><ele>2506.0</ele></trkpt>
      <trkpt lat="43.763425" lon="-113.964333"><ele>2512.0</ele></trkpt>
      <trkpt lat="43.763278" lon="-113.964733"><ele>2518.5</ele></trkpt>
      <trkpt lat="43.763398" lon="-113.964770"><ele>2523.2</ele></trkpt>
      <trkpt lat="43.763544" lon="-113.964714"><ele>2525.5</ele></trkpt>
      <trkpt lat="43.763737" lon="-113.964545"><ele>2526.0</ele></trkpt>
      <trkpt lat="43.763809" lon="-113.964526"><ele>2527.5</ele></trkpt>
      <trkpt lat="43.763809" lon="-113.964821"><ele>2535.2</ele></trkpt>
      <trkpt lat="43.763718" lon="-113.964921"><ele>2535.5</ele></trkpt>
      <trkpt lat="43.763528" lon="-113.965323"><ele>2541.8</ele></trkpt>
      <trkpt lat="43.763360" lon="-113.965639"><ele>2547.0</ele></trkpt>
      <trkpt lat="43.763470" lon="-113.965709"><ele>2551.2</ele></trkpt>
      <trkpt lat="43.763422" lon="-113.965913"><ele>2555.5</ele></trkpt>
      <trkpt lat="43.763354" lon="-113.966114"><ele>2558.5</ele></trkpt>
      <trkpt lat="43.763365" lon="-113.966275"><ele>2562.2</ele></trkpt>
      <trkpt lat="43.763257" lon="-113.966350"><ele>2560.2</ele></trkpt>
      <trkpt lat="43.763251" lon="-113.966404"><ele>2561.5</ele></trkpt>
      <trkpt lat="43.763350" lon="-113.966366"><ele>2563.8</ele></trkpt>
      <trkpt lat="43.763427" lon="-113.966498"><ele>2569.0</ele></trkpt>
      <trkpt lat="43.763352" lon="-113.966600"><ele>2569.0</ele></trkpt>
      <trkpt lat="43.763383" lon="-113.966798"><ele>2575.5</ele></trkpt>
      <trkpt lat="43.763354" lon="-113.966863"><ele>2576.8</ele></trkpt>
      <trkpt lat="43.763224" lon="-113.967010"><ele>2577.2</ele></trkpt>
      <trkpt lat="43.763175" lon="-113.967233"><ele>2582.5</ele></trkpt>
      <trkpt lat="43.763067" lon="-113.967447"><ele>2585.0</ele></trkpt>
      <trkpt lat="43.763129" lon="-113.967635"><ele>2591.0</ele></trkpt>
      <trkpt lat="43.763123" lon="-113.967732"><ele>2592.2</ele></trkpt>
      <trkpt lat="43.763268" lon="-113.967772"><ele>2598.5</ele></trkpt>
      <trkpt lat="43.763216" lon="-113.968088"><ele>2601.2</ele></trkpt>
      <trkpt lat="43.763175" lon="-113.968974"><ele>2606.5</ele></trkpt>
      <trkpt lat="43.763214" lon="-113.969467"><ele>2610.5</ele></trkpt>
      <trkpt lat="43.763059" lon="-113.970411"><ele>2607.0</ele></trkpt>
      <trkpt lat="43.763065" lon="-113.970733"><ele>2607.2</ele></trkpt>
      <trkpt lat="43.763019" lon="-113.970921"><ele>2606.2</ele></trkpt>
      <trkpt lat="43.762968" lon="-113.971658"><ele>2609.8</ele></trkpt>
      <trkpt lat="43.762949" lon="-113.972023"><ele>2612.8</ele></trkpt>
      <trkpt lat="43.763032" lon="-113.972195"><ele>2616.5</ele></trkpt>
      <trkpt lat="43.763024" lon="-113.972597"><ele>2620.0</ele></trkpt>
      <trkpt lat="43.763081" lon="-113.972790"><ele>2622.8</ele></trkpt>
      <trkpt lat="43.762968" lon="-113.973152"><ele>2622.8</ele></trkpt>
      <trkpt lat="43.763001" lon="-113.973402"><ele>2625.8</ele></trkpt>
      <trkpt lat="43.762951" lon="-113.973646"><ele>2627.2</ele></trkpt>
      <trkpt lat="43.762904" lon="-113.974282"><ele>2632.2</ele></trkpt>
      <trkpt lat="43.762527" lon="-113.975212"><ele>2628.2</ele></trkpt>
      <trkpt lat="43.762463" lon="-113.976162"><ele>2630.8</ele></trkpt>
      <trkpt lat="43.762476" lon="-113.976435"><ele>2630.5</ele></trkpt>
      <trkpt lat="43.762401" lon="-113.976840"><ele>2626.0</ele></trkpt>
      <trkpt lat="43.762519" lon="-113.977261"><ele>2626.5</ele></trkpt>
      <trkpt lat="43.762532" lon="-113.977487"><ele>2625.2</ele></trkpt>
      <trkpt lat="43.762714" lon="-113.977991"><ele>2628.8</ele></trkpt>
      <trkpt lat="43.763185" lon="-113.979083"><ele>2638.2</ele></trkpt>
      <trkpt lat="43.763344" lon="-113.979311"><ele>2642.8</ele></trkpt>
      <trkpt lat="43.763753" lon="-113.980410"><ele>2648.5</ele></trkpt>
      <trkpt lat="43.764266" lon="-113.981647"><ele>2659.8</ele></trkpt>
      <trkpt lat="43.764332" lon="-113.982033"><ele>2660.2</ele></trkpt>
      <trkpt lat="43.764568" lon="-113.982730"><ele>2666.8</ele></trkpt>
      <trkpt lat="43.764849" lon="-113.983243"><ele>2677.2</ele></trkpt>
      <trkpt lat="43.764861" lon="-113.983554"><ele>2675.5</ele></trkpt>
      <trkpt lat="43.764799" lon="-113.983908"><ele>2669.8</ele></trkpt>
      <trkpt lat="43.764894" lon="-113.984493"><ele>2669.8</ele></trkpt>
      <trkpt lat="43.765008" lon="-113.985308"><ele>2672.5</ele></trkpt>
      <trkpt lat="43.765105" lon="-113.985509"><ele>2676.0</ele></trkpt>
      <trkpt lat="43.765275" lon="-113.986051"><ele>2680.8</ele></trkpt>
      <trkpt lat="43.765482" lon="-113.986188"><ele>2687.5</ele></trkpt>
      <trkpt lat="43.765636" lon="-113.986813"><ele>2693.5</ele></trkpt>
      <trkpt lat="43.765736" lon="-113.987057"><ele>2698.0</ele></trkpt>
      <trkpt lat="43.765845" lon="-113.987591"><ele>2703.8</ele></trkpt>
      <trkpt lat="43.765986" lon="-113.988186"><ele>2712.8</ele></trkpt>
      <trkpt lat="43.766067" lon="-113.988940"><ele>2716.0</ele></trkpt>
      <trkpt lat="43.766314" lon="-113.989286"><ele>2724.8</ele></trkpt>
      <trkpt lat="43.766627" lon="-113.989433"><ele>2737.0</ele></trkpt>
      <trkpt lat="43.766879" lon="-113.989677"><ele>2742.5</ele></trkpt>
      <trkpt lat="43.767053" lon="-113.990187"><ele>2744.5</ele></trkpt>
      <trkpt lat="43.767175" lon="-113.990302"><ele>2749.2</ele></trkpt>
      <trkpt lat="43.767197" lon="-113.990512"><ele>2749.2</ele></trkpt>
      <trkpt lat="43.767286" lon="-113.990568"><ele>2753.2</ele></trkpt>
      <trkpt lat="43.767342" lon="-113.990753"><ele>2755.2</ele></trkpt>
      <trkpt lat="43.767788" lon="-113.991169"><ele>2764.8</ele></trkpt>
      <trkpt lat="43.767927" lon="-113.991069"><ele>2767.8</ele></trkpt>
      <trkpt lat="43.768051" lon="-113.991080"><ele>2770.0</ele></trkpt>
      <trkpt lat="43.768270" lon="-113.991043"><ele>2773.8</ele></trkpt>
      <trkpt lat="43.768520" lon="-113.991233"><ele>2777.8</ele></trkpt>
      <trkpt lat="43.768834" lon="-113.991018"><ele>2784.2</ele></trkpt>
      <trkpt lat="43.768874" lon="-113.990890"><ele>2785.0</ele></trkpt>
      <trkpt lat="43.769002" lon="-113.990850"><ele>2787.0</ele></trkpt>
      <trkpt lat="43.769045" lon="-113.990721"><ele>2789.0</ele></trkpt>
      <trkpt lat="43.769215" lon="-113.990721"><ele>2792.0</ele></trkpt>
      <trkpt lat="43.769451" lon="-113.990769"><ele>2797.2</ele></trkpt>
      <trkpt lat="43.769544" lon="-113.990581"><ele>2801.2</ele></trkpt>
      <trkpt lat="43.769647" lon="-113.990458"><ele>2804.8</ele></trkpt>
      <trkpt lat="43.769688" lon="-113.990595"><ele>2804.5</ele></trkpt>
      <trkpt lat="43.769771" lon="-113.990568"><ele>2806.8</ele></trkpt>
      <trkpt lat="43.769833" lon="-113.990710"><ele>2807.0</ele></trkpt>
      <trkpt lat="43.770160" lon="-113.990646"><ele>2815.2</ele></trkpt>
      <trkpt lat="43.770187" lon="-113.990396"><ele>2817.5</ele></trkpt>
      <trkpt lat="43.770416" lon="-113.990238"><ele>2822.8</ele></trkpt>
      <trkpt lat="43.770575" lon="-113.990332"><ele>2825.8</ele></trkpt>
      <trkpt lat="43.770714" lon="-113.990093"><ele>2828.8</ele></trkpt>
      <trkpt lat="43.770879" lon="-113.990058"><ele>2832.2</ele></trkpt>
      <trkpt lat="43.771034" lon="-113.990136"><ele>2837.0</ele></trkpt>
      <trkpt lat="43.771154" lon="-113.990316"><ele>2840.8</ele></trkpt>
      <trkpt lat="43.771268" lon="-113.990396"><ele>2844.2</ele></trkpt>
      <trkpt lat="43.771440" lon="-113.990565"><ele>2849.2</ele></trkpt>
      <trkpt lat="43.771727" lon="-113.990828"><ele>2857.2</ele></trkpt>
      <trkpt lat="43.771971" lon="-113.990951"><ele>2864.5</ele></trkpt>
      <trkpt lat="43.772099" lon="-113.991104"><ele>2869.0</ele></trkpt>
      <trkpt lat="43.772579" lon="-113.991544"><ele>2881.8</ele></trkpt>
      <trkpt lat="43.772783" lon="-113.991850"><ele>2884.5</ele></trkpt>
      <trkpt lat="43.773095" lon="-113.991922"><ele>2885.8</ele></trkpt>
      <trkpt lat="43.773281" lon="-113.992040"><ele>2886.2</ele></trkpt>
      <trkpt lat="43.773437" lon="-113.992099"><ele>2887.5</ele></trkpt>
      <trkpt lat="43.773631" lon="-113.992043"><ele>2889.5</ele></trkpt>
      <trkpt lat="43.773741" lon="-113.992094"><ele>2890.5</ele></trkpt>
      <trkpt lat="43.774137" lon="-113.992113"><ele>2894.2</ele></trkpt>
      <trkpt lat="43.774398" lon="-113.992295"><ele>2896.5</ele></trkpt>
      <trkpt lat="43.774495" lon="-113.992480"><ele>2896.2</ele></trkpt>
      <trkpt lat="43.774634" lon="-113.992639"><ele>2898.2</ele></trkpt>
      <trkpt lat="43.774807" lon="-113.992588"><ele>2901.0</ele></trkpt>
      <trkpt lat="43.774940" lon="-113.992716"><ele>2903.0</ele></trkpt>
      <trkpt lat="43.775227" lon="-113.992775"><ele>2905.8</ele></trkpt>
      <trkpt lat="43.775750" lon="-113.992904"><ele>2910.2</ele></trkpt>
      <trkpt lat="43.776145" lon="-113.993124"><ele>2915.0</ele></trkpt>
      <trkpt lat="43.776532" lon="-113.993682"><ele>2921.5</ele></trkpt>
      <trkpt lat="43.776749" lon="-113.993883"><ele>2928.5</ele></trkpt>
      <trkpt lat="43.776817" lon="-113.993644"><ele>2930.2</ele></trkpt>
      <trkpt lat="43.776838" lon="-113.993454"><ele>2930.2</ele></trkpt>
      <trkpt lat="43.776937" lon="-113.993628"><ele>2935.2</ele></trkpt>
      <trkpt lat="43.777036" lon="-113.993465"><ele>2938.2</ele></trkpt>
      <trkpt lat="43.777136" lon="-113.993666"><ele>2943.8</ele></trkpt>
      <trkpt lat="43.777247" lon="-113.993618"><ele>2948.0</ele></trkpt>
      <trkpt lat="43.777441" lon="-113.993722"><ele>2957.0</ele></trkpt>
      <trkpt lat="43.777561" lon="-113.993658"><ele>2960.2</ele></trkpt>
      <trkpt lat="43.777580" lon="-113.993432"><ele>2958.0</ele></trkpt>
      <trkpt lat="43.777675" lon="-113.993304"><ele>2958.0</ele></trkpt>
      <trkpt lat="43.777832" lon="-113.993293"><ele>2960.0</ele></trkpt>
      <trkpt lat="43.777975" lon="-113.993443"><ele>2964.5</ele></trkpt>
      <trkpt lat="43.778171" lon="-113.993701"><ele>2974.0</ele></trkpt>
      <trkpt lat="43.778093" lon="-113.993942"><ele>2977.8</ele></trkpt>
      <trkpt lat="43.778097" lon="-113.994194"><ele>2983.2</ele></trkpt>
      <trkpt lat="43.778244" lon="-113.994387"><ele>2988.5</ele></trkpt>
      <trkpt lat="43.778395" lon="-113.994741"><ele>2991.5</ele></trkpt>
      <trkpt lat="43.778318" lon="-113.995117"><ele>2991.8</ele></trkpt>
      <trkpt lat="43.778415" lon="-113.995401"><ele>2993.2</ele></trkpt>
      <trkpt lat="43.778391" lon="-113.995680"><ele>2993.8</ele></trkpt>
      <trkpt lat="43.778539" lon="-113.996104"><ele>2996.5</ele></trkpt>
      <trkpt lat="43.778728" lon="-113.996286"><ele>2998.5</ele></trkpt>
      <trkpt lat="43.779015" lon="-113.996533"><ele>3000.8</ele></trkpt>
      <trkpt lat="43.779259" lon="-113.996812"><ele>3004.5</ele></trkpt>
      <trkpt lat="43.779387" lon="-113.997155"><ele>3006.8</ele></trkpt>
      <trkpt lat="43.779561" lon="-113.997536"><ele>3008.8</ele></trkpt>
      <trkpt lat="43.779844" lon="-113.997745"><ele>3012.0</ele></trkpt>
      <trkpt lat="43.780088" lon="-113.998191"><ele>3014.0</ele></trkpt>
      <trkpt lat="43.780181" lon="-113.998572"><ele>3015.5</ele></trkpt>
      <trkpt lat="43.780344" lon="-113.999011"><ele>3020.0</ele></trkpt>
      <trkpt lat="43.780572" lon="-113.999548"><ele>3028.0</ele></trkpt>
      <trkpt lat="43.780921" lon="-114.000492"><ele>3035.5</ele></trkpt>
      <trkpt lat="43.781715" lon="-114.002059"><ele>3039.2</ele></trkpt>
      <trkpt lat="43.782230" lon="-114.003126"><ele>3058.0</ele></trkpt>
      <trkpt lat="43.782373" lon="-114.003689"><ele>3066.5</ele></trkpt>
      <trkpt lat="43.782574" lon="-114.004059"><ele>3074.0</ele></trkpt>
      <trkpt lat="43.782671" lon="-114.004129"><ele>3077.5</ele></trkpt>
      <trkpt lat="43.782660" lon="-114.004403"><ele>3085.8</ele></trkpt>
      <trkpt lat="43.782400" lon="-114.004687"><ele>3090.8</ele></trkpt>
      <trkpt lat="43.782261" lon="-114.004896"><ele>3096.0</ele></trkpt>
      <trkpt lat="43.782369" lon="-114.005063"><ele>3103.5</ele></trkpt>
      <trkpt lat="43.782311" lon="-114.005159"><ele>3105.8</ele></trkpt>
      <trkpt lat="43.782083" lon="-114.005266"><ele>3106.0</ele></trkpt>
      <trkpt lat="43.782067" lon="-114.005379"><ele>3109.8</ele></trkpt>
      <trkpt lat="43.782199" lon="-114.005492"><ele>3115.2</ele></trkpt>
      <trkpt lat="43.782412" lon="-114.005621"><ele>3121.8</ele></trkpt>
      <trkpt lat="43.782609" lon="-114.005830"><ele>3130.2</ele></trkpt>
      <trkpt lat="43.782784" lon="-114.005883"><ele>3132.8</ele></trkpt>
      <trkpt lat="43.782965" lon="-114.006119"><ele>3134.0</ele></trkpt>
      <trkpt lat="43.783225" lon="-114.006377"><ele>3136.2</ele></trkpt>
      <trkpt lat="43.783414" lon="-114.006629"><ele>3137.8</ele></trkpt>
      <trkpt lat="43.783591" lon="-114.006889"><ele>3139.8</ele></trkpt>
      <trkpt lat="43.784008" lon="-114.007572"><ele>3145.8</ele></trkpt>
      <trkpt lat="43.784148" lon="-114.007744"><ele>3149.2</ele></trkpt>
      <trkpt lat="43.784419" lon="-114.008181"><ele>3156.8</ele></trkpt>
      <trkpt lat="43.784535" lon="-114.008398"><ele>3159.8</ele></trkpt>
      <trkpt lat="43.784767" lon="-114.008999"><ele>3163.2</ele></trkpt>
      <trkpt lat="43.784883" lon="-114.009107"><ele>3164.5</ele></trkpt>
      <trkpt lat="43.785023" lon="-114.009257"><ele>3165.8</ele></trkpt>
      <trkpt lat="43.785163" lon="-114.009364"><ele>3168.0</ele></trkpt>
      <trkpt lat="43.785247" lon="-114.009440"><ele>3169.2</ele></trkpt>
      <trkpt lat="43.785311" lon="-114.009566"><ele>3169.2</ele></trkpt>
      <trkpt lat="43.785321" lon="-114.009605"><ele>3169.2</ele></trkpt>
      <trkpt lat="43.785351" lon="-114.009756"><ele>3168.5</ele></trkpt>
      <trkpt lat="43.785328" lon="-114.009869"><ele>3167.0</ele></trkpt>
      <trkpt lat="43.785324" lon="-114.010003"><ele>3165.8</ele></trkpt>
      <trkpt lat="43.785282" lon="-114.010142"><ele>3164.5</ele></trkpt>
      <trkpt lat="43.785169" lon="-114.010271"><ele>3162.0</ele></trkpt>
    </trkseg>
    <trkseg>
      <!-- Sat — over the divide to Surprise Valley -->
      <trkpt lat="43.785169" lon="-114.010271"><ele>3162.0</ele></trkpt>
      <trkpt lat="43.785282" lon="-114.010142"><ele>3164.5</ele></trkpt>
      <trkpt lat="43.785324" lon="-114.010003"><ele>3165.8</ele></trkpt>
      <trkpt lat="43.785328" lon="-114.009869"><ele>3167.0</ele></trkpt>
      <trkpt lat="43.785351" lon="-114.009756"><ele>3168.5</ele></trkpt>
      <trkpt lat="43.785321" lon="-114.009605"><ele>3169.2</ele></trkpt>
      <trkpt lat="43.785311" lon="-114.009566"><ele>3169.2</ele></trkpt>
      <trkpt lat="43.785247" lon="-114.009442"><ele>3169.2</ele></trkpt>
      <trkpt lat="43.785311" lon="-114.009566"><ele>3169.2</ele></trkpt>
      <trkpt lat="43.785321" lon="-114.009605"><ele>3169.2</ele></trkpt>
      <trkpt lat="43.785677" lon="-114.009660"><ele>3175.8</ele></trkpt>
      <trkpt lat="43.786086" lon="-114.008976"><ele>3193.2</ele></trkpt>
      <trkpt lat="43.785541" lon="-114.008316"><ele>3185.8</ele></trkpt>
      <trkpt lat="43.785558" lon="-114.007915"><ele>3189.2</ele></trkpt>
      <trkpt lat="43.786401" lon="-114.007738"><ele>3208.0</ele></trkpt>
      <trkpt lat="43.786554" lon="-114.007915"><ele>3210.5</ele></trkpt>
      <trkpt lat="43.787252" lon="-114.007266"><ele>3222.8</ele></trkpt>
      <trkpt lat="43.787337" lon="-114.007337"><ele>3224.2</ele></trkpt>
      <trkpt lat="43.787295" lon="-114.007679"><ele>3223.5</ele></trkpt>
      <trkpt lat="43.787405" lon="-114.007820"><ele>3225.2</ele></trkpt>
      <trkpt lat="43.787371" lon="-114.008033"><ele>3224.8</ele></trkpt>
      <trkpt lat="43.787831" lon="-114.008151"><ele>3237.2</ele></trkpt>
      <trkpt lat="43.787942" lon="-114.008858"><ele>3237.0</ele></trkpt>
      <trkpt lat="43.788120" lon="-114.009118"><ele>3241.8</ele></trkpt>
      <trkpt lat="43.788035" lon="-114.009672"><ele>3233.8</ele></trkpt>
      <trkpt lat="43.788469" lon="-114.010769"><ele>3248.0</ele></trkpt>
      <trkpt lat="43.788938" lon="-114.011559"><ele>3263.0</ele></trkpt>
      <trkpt lat="43.789517" lon="-114.011983"><ele>3278.8</ele></trkpt>
      <trkpt lat="43.789891" lon="-114.012561"><ele>3286.2</ele></trkpt>
      <trkpt lat="43.790121" lon="-114.012880"><ele>3300.2</ele></trkpt>
      <trkpt lat="43.790164" lon="-114.013399"><ele>3307.0</ele></trkpt>
      <trkpt lat="43.790317" lon="-114.012785"><ele>3313.8</ele></trkpt>
      <trkpt lat="43.790351" lon="-114.012137"><ele>3316.2</ele></trkpt>
      <trkpt lat="43.790462" lon="-114.012691"><ele>3323.8</ele></trkpt>
      <trkpt lat="43.790598" lon="-114.012125"><ele>3332.2</ele></trkpt>
      <trkpt lat="43.790623" lon="-114.011759"><ele>3333.2</ele></trkpt>
      <trkpt lat="43.790777" lon="-114.012219"><ele>3344.5</ele></trkpt>
      <trkpt lat="43.790807" lon="-114.012537"><ele>3348.0</ele></trkpt>
      <trkpt lat="43.790751" lon="-114.012891"><ele>3345.0</ele></trkpt>
      <trkpt lat="43.790624" lon="-114.013313"><ele>3337.2</ele></trkpt>
      <trkpt lat="43.790554" lon="-114.014004"><ele>3334.2</ele></trkpt>
      <trkpt lat="43.790583" lon="-114.014342"><ele>3336.5</ele></trkpt>
      <trkpt lat="43.790692" lon="-114.014577"><ele>3337.2</ele></trkpt>
      <trkpt lat="43.790718" lon="-114.014496"><ele>3337.5</ele></trkpt>
      <trkpt lat="43.790831" lon="-114.014635"><ele>3335.8</ele></trkpt>
      <trkpt lat="43.790862" lon="-114.014454"><ele>3336.5</ele></trkpt>
      <trkpt lat="43.790997" lon="-114.014659"><ele>3327.8</ele></trkpt>
      <trkpt lat="43.791008" lon="-114.014544"><ele>3328.5</ele></trkpt>
      <trkpt lat="43.791056" lon="-114.014647"><ele>3325.0</ele></trkpt>
      <trkpt lat="43.791091" lon="-114.014550"><ele>3324.5</ele></trkpt>
      <trkpt lat="43.791149" lon="-114.014710"><ele>3319.8</ele></trkpt>
      <trkpt lat="43.791193" lon="-114.014580"><ele>3319.5</ele></trkpt>
      <trkpt lat="43.791210" lon="-114.014704"><ele>3316.8</ele></trkpt>
      <trkpt lat="43.791249" lon="-114.014629"><ele>3316.0</ele></trkpt>
      <trkpt lat="43.791260" lon="-114.014752"><ele>3313.5</ele></trkpt>
      <trkpt lat="43.791300" lon="-114.014677"><ele>3312.8</ele></trkpt>
      <trkpt lat="43.791339" lon="-114.014831"><ele>3308.5</ele></trkpt>
      <trkpt lat="43.791448" lon="-114.014792"><ele>3303.8</ele></trkpt>
      <trkpt lat="43.791629" lon="-114.014973"><ele>3291.2</ele></trkpt>
      <trkpt lat="43.791943" lon="-114.015094"><ele>3284.0</ele></trkpt>
      <trkpt lat="43.792230" lon="-114.015329"><ele>3275.8</ele></trkpt>
      <trkpt lat="43.792518" lon="-114.015933"><ele>3257.8</ele></trkpt>
      <trkpt lat="43.792667" lon="-114.016056"><ele>3252.5</ele></trkpt>
      <trkpt lat="43.792654" lon="-114.016344"><ele>3246.8</ele></trkpt>
      <trkpt lat="43.792731" lon="-114.016446"><ele>3242.8</ele></trkpt>
      <trkpt lat="43.793237" lon="-114.016568"><ele>3225.8</ele></trkpt>
      <trkpt lat="43.793485" lon="-114.016484"><ele>3221.5</ele></trkpt>
      <trkpt lat="43.793656" lon="-114.016179"><ele>3225.8</ele></trkpt>
      <trkpt lat="43.793887" lon="-114.016142"><ele>3220.0</ele></trkpt>
      <trkpt lat="43.793925" lon="-114.016086"><ele>3220.5</ele></trkpt>
      <trkpt lat="43.794033" lon="-114.016063"><ele>3217.8</ele></trkpt>
      <trkpt lat="43.794107" lon="-114.016003"><ele>3217.2</ele></trkpt>
      <trkpt lat="43.794181" lon="-114.016132"><ele>3211.5</ele></trkpt>
      <trkpt lat="43.794127" lon="-114.016217"><ele>3211.0</ele></trkpt>
      <trkpt lat="43.794040" lon="-114.016264"><ele>3212.2</ele></trkpt>
      <trkpt lat="43.794065" lon="-114.016564"><ele>3203.2</ele></trkpt>
      <trkpt lat="43.794239" lon="-114.016374"><ele>3203.8</ele></trkpt>
      <trkpt lat="43.794342" lon="-114.016393"><ele>3200.8</ele></trkpt>
      <trkpt lat="43.794414" lon="-114.016280"><ele>3201.5</ele></trkpt>
      <trkpt lat="43.794506" lon="-114.016209"><ele>3200.2</ele></trkpt>
      <trkpt lat="43.794535" lon="-114.016614"><ele>3191.8</ele></trkpt>
      <trkpt lat="43.794626" lon="-114.016813"><ele>3186.2</ele></trkpt>
      <trkpt lat="43.794648" lon="-114.016929"><ele>3183.8</ele></trkpt>
      <trkpt lat="43.794608" lon="-114.017001"><ele>3183.2</ele></trkpt>
      <trkpt lat="43.794588" lon="-114.017104"><ele>3181.8</ele></trkpt>
      <trkpt lat="43.794855" lon="-114.017364"><ele>3172.5</ele></trkpt>
      <trkpt lat="43.795283" lon="-114.017964"><ele>3151.5</ele></trkpt>
      <trkpt lat="43.795279" lon="-114.018038"><ele>3150.0</ele></trkpt>
      <trkpt lat="43.795287" lon="-114.018161"><ele>3147.2</ele></trkpt>
      <trkpt lat="43.795885" lon="-114.018910"><ele>3124.0</ele></trkpt>
      <trkpt lat="43.795877" lon="-114.019019"><ele>3121.2</ele></trkpt>
      <trkpt lat="43.796079" lon="-114.019374"><ele>3115.2</ele></trkpt>
      <trkpt lat="43.796259" lon="-114.019943"><ele>3109.5</ele></trkpt>
      <trkpt lat="43.796604" lon="-114.020452"><ele>3103.2</ele></trkpt>
      <trkpt lat="43.796670" lon="-114.020571"><ele>3101.8</ele></trkpt>
      <trkpt lat="43.796808" lon="-114.020646"><ele>3099.0</ele></trkpt>
    </trkseg>
    <trkseg>
      <!-- Sun — Goat and Baptie Lakes side trip -->
      <trkpt lat="43.796808" lon="-114.020646"><ele>3100.5</ele></trkpt>
      <trkpt lat="43.796670" lon="-114.020571"><ele>3101.8</ele></trkpt>
      <trkpt lat="43.796604" lon="-114.020452"><ele>3103.2</ele></trkpt>
      <trkpt lat="43.796259" lon="-114.019943"><ele>3109.5</ele></trkpt>
      <trkpt lat="43.796079" lon="-114.019374"><ele>3115.2</ele></trkpt>
      <trkpt lat="43.795877" lon="-114.019019"><ele>3121.2</ele></trkpt>
      <trkpt lat="43.795885" lon="-114.018910"><ele>3124.0</ele></trkpt>
      <trkpt lat="43.795287" lon="-114.018161"><ele>3147.2</ele></trkpt>
      <trkpt lat="43.795279" lon="-114.018038"><ele>3150.0</ele></trkpt>
      <trkpt lat="43.795283" lon="-114.017964"><ele>3151.5</ele></trkpt>
      <trkpt lat="43.794855" lon="-114.017364"><ele>3172.5</ele></trkpt>
      <trkpt lat="43.794588" lon="-114.017104"><ele>3181.8</ele></trkpt>
      <trkpt lat="43.794608" lon="-114.017001"><ele>3183.2</ele></trkpt>
      <trkpt lat="43.794648" lon="-114.016929"><ele>3183.8</ele></trkpt>
      <trkpt lat="43.794626" lon="-114.016813"><ele>3186.2</ele></trkpt>
      <trkpt lat="43.794535" lon="-114.016614"><ele>3191.8</ele></trkpt>
      <trkpt lat="43.794506" lon="-114.016209"><ele>3200.2</ele></trkpt>
      <trkpt lat="43.794414" lon="-114.016280"><ele>3201.5</ele></trkpt>
      <trkpt lat="43.794342" lon="-114.016393"><ele>3200.8</ele></trkpt>
      <trkpt lat="43.794239" lon="-114.016374"><ele>3203.8</ele></trkpt>
      <trkpt lat="43.794065" lon="-114.016564"><ele>3203.2</ele></trkpt>
      <trkpt lat="43.794040" lon="-114.016264"><ele>3212.2</ele></trkpt>
      <trkpt lat="43.794127" lon="-114.016217"><ele>3211.0</ele></trkpt>
      <trkpt lat="43.794181" lon="-114.016132"><ele>3211.5</ele></trkpt>
      <trkpt lat="43.794107" lon="-114.016003"><ele>3217.2</ele></trkpt>
      <trkpt lat="43.794033" lon="-114.016063"><ele>3217.8</ele></trkpt>
      <trkpt lat="43.793925" lon="-114.016086"><ele>3220.5</ele></trkpt>
      <trkpt lat="43.793887" lon="-114.016142"><ele>3220.0</ele></trkpt>
      <trkpt lat="43.793656" lon="-114.016179"><ele>3225.8</ele></trkpt>
      <trkpt lat="43.793485" lon="-114.016484"><ele>3221.5</ele></trkpt>
      <trkpt lat="43.793237" lon="-114.016568"><ele>3225.8</ele></trkpt>
      <trkpt lat="43.792731" lon="-114.016446"><ele>3242.8</ele></trkpt>
      <trkpt lat="43.792654" lon="-114.016344"><ele>3246.8</ele></trkpt>
      <trkpt lat="43.792667" lon="-114.016056"><ele>3252.5</ele></trkpt>
      <trkpt lat="43.792518" lon="-114.015933"><ele>3257.8</ele></trkpt>
      <trkpt lat="43.792230" lon="-114.015329"><ele>3275.8</ele></trkpt>
      <trkpt lat="43.791943" lon="-114.015094"><ele>3284.0</ele></trkpt>
      <trkpt lat="43.791629" lon="-114.014973"><ele>3291.2</ele></trkpt>
      <trkpt lat="43.791448" lon="-114.014792"><ele>3303.8</ele></trkpt>
      <trkpt lat="43.791339" lon="-114.014831"><ele>3308.5</ele></trkpt>
      <trkpt lat="43.791300" lon="-114.014677"><ele>3312.8</ele></trkpt>
      <trkpt lat="43.791260" lon="-114.014752"><ele>3313.5</ele></trkpt>
      <trkpt lat="43.791249" lon="-114.014629"><ele>3316.0</ele></trkpt>
      <trkpt lat="43.791210" lon="-114.014704"><ele>3316.8</ele></trkpt>
      <trkpt lat="43.791193" lon="-114.014580"><ele>3319.5</ele></trkpt>
      <trkpt lat="43.791149" lon="-114.014710"><ele>3319.8</ele></trkpt>
      <trkpt lat="43.791091" lon="-114.014550"><ele>3324.5</ele></trkpt>
      <trkpt lat="43.791056" lon="-114.014647"><ele>3325.0</ele></trkpt>
      <trkpt lat="43.791008" lon="-114.014544"><ele>3328.5</ele></trkpt>
      <trkpt lat="43.790997" lon="-114.014659"><ele>3327.8</ele></trkpt>
      <trkpt lat="43.790862" lon="-114.014454"><ele>3336.5</ele></trkpt>
      <trkpt lat="43.790831" lon="-114.014635"><ele>3335.8</ele></trkpt>
      <trkpt lat="43.790718" lon="-114.014496"><ele>3337.5</ele></trkpt>
      <trkpt lat="43.790692" lon="-114.014577"><ele>3337.2</ele></trkpt>
      <trkpt lat="43.790583" lon="-114.014342"><ele>3336.5</ele></trkpt>
      <trkpt lat="43.790554" lon="-114.014004"><ele>3334.2</ele></trkpt>
      <trkpt lat="43.790624" lon="-114.013313"><ele>3337.2</ele></trkpt>
      <trkpt lat="43.790751" lon="-114.012891"><ele>3345.0</ele></trkpt>
      <trkpt lat="43.790807" lon="-114.012537"><ele>3348.0</ele></trkpt>
      <trkpt lat="43.790777" lon="-114.012219"><ele>3344.5</ele></trkpt>
      <trkpt lat="43.790623" lon="-114.011759"><ele>3333.2</ele></trkpt>
      <trkpt lat="43.790598" lon="-114.012125"><ele>3332.2</ele></trkpt>
      <trkpt lat="43.790462" lon="-114.012691"><ele>3323.8</ele></trkpt>
      <trkpt lat="43.790351" lon="-114.012137"><ele>3316.2</ele></trkpt>
      <trkpt lat="43.790317" lon="-114.012785"><ele>3313.8</ele></trkpt>
      <trkpt lat="43.790164" lon="-114.013399"><ele>3307.0</ele></trkpt>
      <trkpt lat="43.790121" lon="-114.012880"><ele>3300.2</ele></trkpt>
      <trkpt lat="43.789891" lon="-114.012561"><ele>3286.2</ele></trkpt>
      <trkpt lat="43.789517" lon="-114.011983"><ele>3278.8</ele></trkpt>
      <trkpt lat="43.788938" lon="-114.011559"><ele>3263.0</ele></trkpt>
      <trkpt lat="43.788469" lon="-114.010769"><ele>3248.0</ele></trkpt>
      <trkpt lat="43.788035" lon="-114.009672"><ele>3233.8</ele></trkpt>
      <trkpt lat="43.788120" lon="-114.009118"><ele>3241.8</ele></trkpt>
      <trkpt lat="43.787942" lon="-114.008858"><ele>3237.0</ele></trkpt>
      <trkpt lat="43.787831" lon="-114.008151"><ele>3237.2</ele></trkpt>
      <trkpt lat="43.787371" lon="-114.008033"><ele>3224.8</ele></trkpt>
      <trkpt lat="43.787405" lon="-114.007820"><ele>3225.2</ele></trkpt>
      <trkpt lat="43.787295" lon="-114.007679"><ele>3223.5</ele></trkpt>
      <trkpt lat="43.787337" lon="-114.007337"><ele>3224.2</ele></trkpt>
      <trkpt lat="43.787252" lon="-114.007266"><ele>3222.8</ele></trkpt>
      <trkpt lat="43.786554" lon="-114.007915"><ele>3210.5</ele></trkpt>
      <trkpt lat="43.786401" lon="-114.007738"><ele>3208.0</ele></trkpt>
      <trkpt lat="43.785558" lon="-114.007915"><ele>3189.2</ele></trkpt>
      <trkpt lat="43.785541" lon="-114.008316"><ele>3185.8</ele></trkpt>
      <trkpt lat="43.786086" lon="-114.008976"><ele>3193.2</ele></trkpt>
      <trkpt lat="43.785677" lon="-114.009660"><ele>3175.8</ele></trkpt>
      <trkpt lat="43.785321" lon="-114.009605"><ele>3169.2</ele></trkpt>
      <trkpt lat="43.785311" lon="-114.009566"><ele>3169.2</ele></trkpt>
      <trkpt lat="43.785247" lon="-114.009442"><ele>3169.2</ele></trkpt>
      <trkpt lat="43.785311" lon="-114.009566"><ele>3169.2</ele></trkpt>
      <trkpt lat="43.785321" lon="-114.009605"><ele>3169.2</ele></trkpt>
      <trkpt lat="43.785351" lon="-114.009756"><ele>3168.5</ele></trkpt>
      <trkpt lat="43.785328" lon="-114.009869"><ele>3167.0</ele></trkpt>
      <trkpt lat="43.785324" lon="-114.010003"><ele>3165.8</ele></trkpt>
      <trkpt lat="43.785282" lon="-114.010142"><ele>3164.5</ele></trkpt>
      <trkpt lat="43.785169" lon="-114.010271"><ele>3162.0</ele></trkpt>
      <trkpt lat="43.785045" lon="-114.010320"><ele>3159.8</ele></trkpt>
      <trkpt lat="43.784910" lon="-114.010341"><ele>3159.0</ele></trkpt>
      <trkpt lat="43.784794" lon="-114.010405"><ele>3159.0</ele></trkpt>
      <trkpt lat="43.784658" lon="-114.010518"><ele>3159.5</ele></trkpt>
      <trkpt lat="43.784519" lon="-114.010684"><ele>3160.8</ele></trkpt>
      <trkpt lat="43.784437" lon="-114.010759"><ele>3161.5</ele></trkpt>
      <trkpt lat="43.784364" lon="-114.010797"><ele>3162.2</ele></trkpt>
      <trkpt lat="43.784255" lon="-114.010931"><ele>3163.5</ele></trkpt>
      <trkpt lat="43.784116" lon="-114.011076"><ele>3165.0</ele></trkpt>
      <trkpt lat="43.784004" lon="-114.011178"><ele>3165.8</ele></trkpt>
      <trkpt lat="43.783918" lon="-114.011216"><ele>3166.2</ele></trkpt>
      <trkpt lat="43.783798" lon="-114.011237"><ele>3166.8</ele></trkpt>
      <trkpt lat="43.783744" lon="-114.011269"><ele>3167.5</ele></trkpt>
      <trkpt lat="43.783663" lon="-114.011360"><ele>3169.0</ele></trkpt>
      <trkpt lat="43.783574" lon="-114.011532"><ele>3172.2</ele></trkpt>
      <trkpt lat="43.783458" lon="-114.011671"><ele>3175.8</ele></trkpt>
      <trkpt lat="43.783299" lon="-114.011816"><ele>3181.2</ele></trkpt>
      <trkpt lat="43.783210" lon="-114.012004"><ele>3187.2</ele></trkpt>
      <trkpt lat="43.783159" lon="-114.012165"><ele>3192.5</ele></trkpt>
      <trkpt lat="43.783113" lon="-114.012272"><ele>3196.0</ele></trkpt>
      <trkpt lat="43.783020" lon="-114.012433"><ele>3202.0</ele></trkpt>
      <trkpt lat="43.783024" lon="-114.012562"><ele>3204.5</ele></trkpt>
      <trkpt lat="43.783055" lon="-114.012648"><ele>3204.5</ele></trkpt>
      <trkpt lat="43.783210" lon="-114.012707"><ele>3203.5</ele></trkpt>
      <trkpt lat="43.783295" lon="-114.012771"><ele>3203.2</ele></trkpt>
      <trkpt lat="43.783376" lon="-114.012884"><ele>3202.8</ele></trkpt>
      <trkpt lat="43.783392" lon="-114.012991"><ele>3203.5</ele></trkpt>
      <trkpt lat="43.783415" lon="-114.013093"><ele>3204.0</ele></trkpt>
      <trkpt lat="43.783500" lon="-114.013254"><ele>3203.0</ele></trkpt>
      <trkpt lat="43.783516" lon="-114.013742"><ele>3203.5</ele></trkpt>
      <trkpt lat="43.783504" lon="-114.013914"><ele>3203.8</ele></trkpt>
      <trkpt lat="43.783547" lon="-114.014064"><ele>3203.2</ele></trkpt>
      <trkpt lat="43.783570" lon="-114.014203"><ele>3203.8</ele></trkpt>
      <trkpt lat="43.783609" lon="-114.014311"><ele>3205.2</ele></trkpt>
      <trkpt lat="43.783678" lon="-114.014429"><ele>3206.5</ele></trkpt>
      <trkpt lat="43.783779" lon="-114.014541"><ele>3207.2</ele></trkpt>
      <trkpt lat="43.783868" lon="-114.014718"><ele>3208.5</ele></trkpt>
      <trkpt lat="43.783891" lon="-114.014820"><ele>3209.5</ele></trkpt>
      <trkpt lat="43.783857" lon="-114.014992"><ele>3212.2</ele></trkpt>
      <trkpt lat="43.783845" lon="-114.015115"><ele>3214.8</ele></trkpt>
      <trkpt lat="43.783806" lon="-114.015196"><ele>3217.2</ele></trkpt>
      <trkpt lat="43.783756" lon="-114.015523"><ele>3225.0</ele></trkpt>
      <trkpt lat="43.783702" lon="-114.015674"><ele>3229.8</ele></trkpt>
      <trkpt lat="43.783601" lon="-114.015829"><ele>3236.5</ele></trkpt>
      <trkpt lat="43.783516" lon="-114.016022"><ele>3240.0</ele></trkpt>
      <trkpt lat="43.783442" lon="-114.016129"><ele>3242.2</ele></trkpt>
      <trkpt lat="43.783338" lon="-114.016231"><ele>3245.2</ele></trkpt>
      <trkpt lat="43.783241" lon="-114.016349"><ele>3246.0</ele></trkpt>
      <trkpt lat="43.783152" lon="-114.016499"><ele>3246.8</ele></trkpt>
      <trkpt lat="43.783032" lon="-114.016623"><ele>3248.2</ele></trkpt>
      <trkpt lat="43.782935" lon="-114.016752"><ele>3249.2</ele></trkpt>
      <trkpt lat="43.782838" lon="-114.017014"><ele>3249.5</ele></trkpt>
      <trkpt lat="43.782760" lon="-114.017105"><ele>3250.2</ele></trkpt>
      <trkpt lat="43.782714" lon="-114.017218"><ele>3250.2</ele></trkpt>
      <trkpt lat="43.782660" lon="-114.017261"><ele>3250.8</ele></trkpt>
      <trkpt lat="43.782594" lon="-114.017341"><ele>3251.2</ele></trkpt>
      <trkpt lat="43.782559" lon="-114.017417"><ele>3251.5</ele></trkpt>
      <trkpt lat="43.782513" lon="-114.017449"><ele>3252.0</ele></trkpt>
      <trkpt lat="43.782470" lon="-114.017540"><ele>3253.0</ele></trkpt>
      <trkpt lat="43.782381" lon="-114.017615"><ele>3255.0</ele></trkpt>
      <trkpt lat="43.782226" lon="-114.017781"><ele>3257.8</ele></trkpt>
      <trkpt lat="43.782149" lon="-114.017883"><ele>3258.5</ele></trkpt>
      <trkpt lat="43.782071" lon="-114.017915"><ele>3258.5</ele></trkpt>
      <trkpt lat="43.782013" lon="-114.017884"><ele>3258.5</ele></trkpt>
      <trkpt lat="43.781967" lon="-114.017824"><ele>3258.8</ele></trkpt>
      <trkpt lat="43.781901" lon="-114.017707"><ele>3259.2</ele></trkpt>
      <trkpt lat="43.781839" lon="-114.017626"><ele>3260.0</ele></trkpt>
      <trkpt lat="43.781777" lon="-114.017631"><ele>3260.5</ele></trkpt>
      <trkpt lat="43.781719" lon="-114.017696"><ele>3260.5</ele></trkpt>
      <trkpt lat="43.781703" lon="-114.017856"><ele>3259.0</ele></trkpt>
      <trkpt lat="43.781657" lon="-114.018050"><ele>3256.5</ele></trkpt>
      <trkpt lat="43.781556" lon="-114.018613"><ele>3250.2</ele></trkpt>
      <trkpt lat="43.781362" lon="-114.019418"><ele>3249.5</ele></trkpt>
      <trkpt lat="43.781327" lon="-114.019589"><ele>3251.2</ele></trkpt>
      <trkpt lat="43.781258" lon="-114.019734"><ele>3250.8</ele></trkpt>
      <trkpt lat="43.781173" lon="-114.019820"><ele>3248.2</ele></trkpt>
      <trkpt lat="43.781080" lon="-114.019804"><ele>3243.5</ele></trkpt>
      <trkpt lat="43.780956" lon="-114.019750"><ele>3236.8</ele></trkpt>
      <trkpt lat="43.780890" lon="-114.019788"><ele>3234.2</ele></trkpt>
      <trkpt lat="43.780816" lon="-114.019852"><ele>3232.0</ele></trkpt>
      <trkpt lat="43.780758" lon="-114.019932"><ele>3231.2</ele></trkpt>
      <trkpt lat="43.780681" lon="-114.020158"><ele>3232.2</ele></trkpt>
      <trkpt lat="43.780638" lon="-114.020142"><ele>3230.5</ele></trkpt>
      <trkpt lat="43.780634" lon="-114.020029"><ele>3228.2</ele></trkpt>
      <trkpt lat="43.780611" lon="-114.019884"><ele>3225.2</ele></trkpt>
      <trkpt lat="43.780642" lon="-114.019745"><ele>3224.2</ele></trkpt>
      <trkpt lat="43.780661" lon="-114.019595"><ele>3222.8</ele></trkpt>
      <trkpt lat="43.780661" lon="-114.019552"><ele>3222.0</ele></trkpt>
      <trkpt lat="43.780619" lon="-114.019546"><ele>3220.8</ele></trkpt>
      <trkpt lat="43.780561" lon="-114.019600"><ele>3219.5</ele></trkpt>
      <trkpt lat="43.780483" lon="-114.019702"><ele>3218.2</ele></trkpt>
      <trkpt lat="43.780441" lon="-114.019825"><ele>3218.5</ele></trkpt>
      <trkpt lat="43.780398" lon="-114.019874"><ele>3217.5</ele></trkpt>
      <trkpt lat="43.780363" lon="-114.019836"><ele>3215.8</ele></trkpt>
      <trkpt lat="43.780332" lon="-114.019766"><ele>3213.8</ele></trkpt>
      <trkpt lat="43.780320" lon="-114.019525"><ele>3210.5</ele></trkpt>
      <trkpt lat="43.780332" lon="-114.019445"><ele>3209.8</ele></trkpt>
      <trkpt lat="43.780371" lon="-114.019278"><ele>3209.0</ele></trkpt>
      <trkpt lat="43.780495" lon="-114.019085"><ele>3210.8</ele></trkpt>
      <trkpt lat="43.780549" lon="-114.018817"><ele>3210.5</ele></trkpt>
      <trkpt lat="43.780526" lon="-114.018634"><ele>3208.8</ele></trkpt>
      <trkpt lat="43.780584" lon="-114.018430"><ele>3209.0</ele></trkpt>
      <trkpt lat="43.780557" lon="-114.018291"><ele>3207.8</ele></trkpt>
      <trkpt lat="43.780487" lon="-114.018146"><ele>3206.8</ele></trkpt>
      <trkpt lat="43.780375" lon="-114.017958"><ele>3204.5</ele></trkpt>
      <trkpt lat="43.780286" lon="-114.017830"><ele>3202.8</ele></trkpt>
      <trkpt lat="43.780123" lon="-114.017792"><ele>3198.0</ele></trkpt>
      <trkpt lat="43.779995" lon="-114.017808"><ele>3194.0</ele></trkpt>
      <trkpt lat="43.779879" lon="-114.017776"><ele>3193.8</ele></trkpt>
      <trkpt lat="43.779801" lon="-114.017664"><ele>3194.0</ele></trkpt>
      <trkpt lat="43.779693" lon="-114.017583"><ele>3194.0</ele></trkpt>
      <trkpt lat="43.779553" lon="-114.017438"><ele>3194.2</ele></trkpt>
      <trkpt lat="43.779372" lon="-114.017218"><ele>3194.0</ele></trkpt>
      <trkpt lat="43.779174" lon="-114.017009"><ele>3192.5</ele></trkpt>
      <trkpt lat="43.778953" lon="-114.016789"><ele>3192.0</ele></trkpt>
      <trkpt lat="43.778821" lon="-114.016558"><ele>3189.8</ele></trkpt>
      <trkpt lat="43.778655" lon="-114.016435"><ele>3187.2</ele></trkpt>
      <trkpt lat="43.778558" lon="-114.016226"><ele>3183.5</ele></trkpt>
      <trkpt lat="43.778450" lon="-114.016027"><ele>3180.0</ele></trkpt>
      <trkpt lat="43.778376" lon="-114.015808"><ele>3176.0</ele></trkpt>
      <trkpt lat="43.778395" lon="-114.015598"><ele>3168.5</ele></trkpt>
      <trkpt lat="43.778419" lon="-114.015459"><ele>3163.5</ele></trkpt>
      <trkpt lat="43.778496" lon="-114.015292"><ele>3158.5</ele></trkpt>
      <trkpt lat="43.778570" lon="-114.015174"><ele>3155.2</ele></trkpt>
      <trkpt lat="43.778663" lon="-114.015121"><ele>3154.8</ele></trkpt>
      <trkpt lat="43.778767" lon="-114.015169"><ele>3157.8</ele></trkpt>
      <trkpt lat="43.778860" lon="-114.015276"><ele>3161.8</ele></trkpt>
      <trkpt lat="43.778969" lon="-114.015282"><ele>3163.2</ele></trkpt>
      <trkpt lat="43.779011" lon="-114.015223"><ele>3162.2</ele></trkpt>
      <trkpt lat="43.778973" lon="-114.015126"><ele>3159.2</ele></trkpt>
      <trkpt lat="43.779019" lon="-114.015030"><ele>3157.2</ele></trkpt>
      <trkpt lat="43.778996" lon="-114.014777"><ele>3154.2</ele></trkpt>
      <trkpt lat="43.778934" lon="-114.014627"><ele>3151.2</ele></trkpt>
      <trkpt lat="43.778860" lon="-114.014488"><ele>3147.2</ele></trkpt>
      <trkpt lat="43.778713" lon="-114.014166"><ele>3136.8</ele></trkpt>
      <trkpt lat="43.778624" lon="-114.014053"><ele>3134.0</ele></trkpt>
      <trkpt lat="43.778496" lon="-114.013973"><ele>3129.2</ele></trkpt>
      <trkpt lat="43.778322" lon="-114.013844"><ele>3122.5</ele></trkpt>
      <trkpt lat="43.778167" lon="-114.013871"><ele>3118.8</ele></trkpt>
      <trkpt lat="43.778008" lon="-114.013801"><ele>3115.2</ele></trkpt>
      <trkpt lat="43.777907" lon="-114.013774"><ele>3113.0</ele></trkpt>
      <trkpt lat="43.777784" lon="-114.013699"><ele>3110.5</ele></trkpt>
      <trkpt lat="43.777648" lon="-114.013747"><ele>3107.0</ele></trkpt>
      <trkpt lat="43.777567" lon="-114.013866"><ele>3104.5</ele></trkpt>
      <trkpt lat="43.777489" lon="-114.014000"><ele>3102.5</ele></trkpt>
      <trkpt lat="43.777408" lon="-114.014091"><ele>3101.8</ele></trkpt>
      <trkpt lat="43.777330" lon="-114.014128"><ele>3101.2</ele></trkpt>
      <trkpt lat="43.777210" lon="-114.014096"><ele>3101.0</ele></trkpt>
      <trkpt lat="43.777028" lon="-114.014069"><ele>3100.2</ele></trkpt>
      <trkpt lat="43.776951" lon="-114.014021"><ele>3100.0</ele></trkpt>
      <trkpt lat="43.776865" lon="-114.013989"><ele>3099.8</ele></trkpt>
      <trkpt lat="43.776951" lon="-114.014021"><ele>3100.0</ele></trkpt>
      <trkpt lat="43.777028" lon="-114.014069"><ele>3100.2</ele></trkpt>
      <trkpt lat="43.777210" lon="-114.014096"><ele>3101.0</ele></trkpt>
      <trkpt lat="43.777330" lon="-114.014128"><ele>3101.2</ele></trkpt>
      <trkpt lat="43.777408" lon="-114.014091"><ele>3101.8</ele></trkpt>
      <trkpt lat="43.777489" lon="-114.014000"><ele>3102.5</ele></trkpt>
      <trkpt lat="43.777567" lon="-114.013866"><ele>3104.5</ele></trkpt>
      <trkpt lat="43.777648" lon="-114.013747"><ele>3107.0</ele></trkpt>
      <trkpt lat="43.777784" lon="-114.013699"><ele>3110.5</ele></trkpt>
      <trkpt lat="43.777907" lon="-114.013774"><ele>3113.0</ele></trkpt>
      <trkpt lat="43.778008" lon="-114.013801"><ele>3115.2</ele></trkpt>
      <trkpt lat="43.778167" lon="-114.013871"><ele>3118.8</ele></trkpt>
      <trkpt lat="43.778322" lon="-114.013844"><ele>3122.5</ele></trkpt>
      <trkpt lat="43.778496" lon="-114.013973"><ele>3129.2</ele></trkpt>
      <trkpt lat="43.778624" lon="-114.014053"><ele>3134.0</ele></trkpt>
      <trkpt lat="43.778713" lon="-114.014166"><ele>3136.8</ele></trkpt>
      <trkpt lat="43.778860" lon="-114.014488"><ele>3147.2</ele></trkpt>
      <trkpt lat="43.778934" lon="-114.014627"><ele>3151.2</ele></trkpt>
      <trkpt lat="43.778996" lon="-114.014777"><ele>3154.2</ele></trkpt>
      <trkpt lat="43.779019" lon="-114.015030"><ele>3157.2</ele></trkpt>
      <trkpt lat="43.778973" lon="-114.015126"><ele>3159.2</ele></trkpt>
      <trkpt lat="43.779011" lon="-114.015223"><ele>3162.2</ele></trkpt>
      <trkpt lat="43.778969" lon="-114.015282"><ele>3163.2</ele></trkpt>
      <trkpt lat="43.778860" lon="-114.015276"><ele>3161.8</ele></trkpt>
      <trkpt lat="43.778767" lon="-114.015169"><ele>3157.8</ele></trkpt>
      <trkpt lat="43.778663" lon="-114.015121"><ele>3154.8</ele></trkpt>
      <trkpt lat="43.778570" lon="-114.015174"><ele>3155.2</ele></trkpt>
      <trkpt lat="43.778496" lon="-114.015292"><ele>3158.5</ele></trkpt>
      <trkpt lat="43.778419" lon="-114.015459"><ele>3163.5</ele></trkpt>
      <trkpt lat="43.778395" lon="-114.015598"><ele>3168.5</ele></trkpt>
      <trkpt lat="43.778376" lon="-114.015808"><ele>3176.0</ele></trkpt>
      <trkpt lat="43.778450" lon="-114.016027"><ele>3180.0</ele></trkpt>
      <trkpt lat="43.778558" lon="-114.016226"><ele>3183.5</ele></trkpt>
      <trkpt lat="43.778655" lon="-114.016435"><ele>3187.2</ele></trkpt>
      <trkpt lat="43.778821" lon="-114.016558"><ele>3189.8</ele></trkpt>
      <trkpt lat="43.778953" lon="-114.016789"><ele>3192.0</ele></trkpt>
      <trkpt lat="43.779174" lon="-114.017009"><ele>3192.5</ele></trkpt>
      <trkpt lat="43.779372" lon="-114.017218"><ele>3194.0</ele></trkpt>
      <trkpt lat="43.779553" lon="-114.017438"><ele>3194.2</ele></trkpt>
      <trkpt lat="43.779693" lon="-114.017583"><ele>3194.0</ele></trkpt>
      <trkpt lat="43.779801" lon="-114.017664"><ele>3194.0</ele></trkpt>
      <trkpt lat="43.779879" lon="-114.017776"><ele>3193.8</ele></trkpt>
      <trkpt lat="43.779995" lon="-114.017808"><ele>3194.0</ele></trkpt>
      <trkpt lat="43.780123" lon="-114.017792"><ele>3198.0</ele></trkpt>
      <trkpt lat="43.780286" lon="-114.017830"><ele>3202.8</ele></trkpt>
      <trkpt lat="43.780375" lon="-114.017958"><ele>3204.5</ele></trkpt>
      <trkpt lat="43.780487" lon="-114.018146"><ele>3206.8</ele></trkpt>
      <trkpt lat="43.780557" lon="-114.018291"><ele>3207.8</ele></trkpt>
      <trkpt lat="43.780584" lon="-114.018430"><ele>3209.0</ele></trkpt>
      <trkpt lat="43.780526" lon="-114.018634"><ele>3208.8</ele></trkpt>
      <trkpt lat="43.780549" lon="-114.018817"><ele>3210.5</ele></trkpt>
      <trkpt lat="43.780495" lon="-114.019085"><ele>3210.8</ele></trkpt>
      <trkpt lat="43.780371" lon="-114.019278"><ele>3209.0</ele></trkpt>
      <trkpt lat="43.780332" lon="-114.019445"><ele>3209.8</ele></trkpt>
      <trkpt lat="43.780320" lon="-114.019525"><ele>3210.5</ele></trkpt>
      <trkpt lat="43.780332" lon="-114.019766"><ele>3213.8</ele></trkpt>
      <trkpt lat="43.780363" lon="-114.019836"><ele>3215.8</ele></trkpt>
      <trkpt lat="43.780398" lon="-114.019874"><ele>3217.5</ele></trkpt>
      <trkpt lat="43.780441" lon="-114.019825"><ele>3218.5</ele></trkpt>
      <trkpt lat="43.780483" lon="-114.019702"><ele>3218.2</ele></trkpt>
      <trkpt lat="43.780561" lon="-114.019600"><ele>3219.5</ele></trkpt>
      <trkpt lat="43.780619" lon="-114.019546"><ele>3220.8</ele></trkpt>
      <trkpt lat="43.780661" lon="-114.019552"><ele>3222.0</ele></trkpt>
      <trkpt lat="43.780661" lon="-114.019595"><ele>3222.8</ele></trkpt>
      <trkpt lat="43.780642" lon="-114.019745"><ele>3224.2</ele></trkpt>
      <trkpt lat="43.780611" lon="-114.019884"><ele>3225.2</ele></trkpt>
      <trkpt lat="43.780634" lon="-114.020029"><ele>3228.2</ele></trkpt>
      <trkpt lat="43.780638" lon="-114.020142"><ele>3230.5</ele></trkpt>
      <trkpt lat="43.780681" lon="-114.020158"><ele>3232.2</ele></trkpt>
      <trkpt lat="43.780758" lon="-114.019932"><ele>3231.2</ele></trkpt>
      <trkpt lat="43.780816" lon="-114.019852"><ele>3232.0</ele></trkpt>
      <trkpt lat="43.780890" lon="-114.019788"><ele>3234.2</ele></trkpt>
      <trkpt lat="43.780956" lon="-114.019750"><ele>3236.8</ele></trkpt>
      <trkpt lat="43.781080" lon="-114.019804"><ele>3243.5</ele></trkpt>
      <trkpt lat="43.781173" lon="-114.019820"><ele>3248.2</ele></trkpt>
      <trkpt lat="43.781258" lon="-114.019734"><ele>3250.8</ele></trkpt>
      <trkpt lat="43.781327" lon="-114.019589"><ele>3251.2</ele></trkpt>
      <trkpt lat="43.781362" lon="-114.019418"><ele>3249.5</ele></trkpt>
      <trkpt lat="43.781556" lon="-114.018613"><ele>3250.2</ele></trkpt>
      <trkpt lat="43.781657" lon="-114.018050"><ele>3256.5</ele></trkpt>
      <trkpt lat="43.781703" lon="-114.017856"><ele>3259.0</ele></trkpt>
      <trkpt lat="43.781719" lon="-114.017696"><ele>3260.5</ele></trkpt>
      <trkpt lat="43.781777" lon="-114.017631"><ele>3260.5</ele></trkpt>
      <trkpt lat="43.781839" lon="-114.017626"><ele>3260.0</ele></trkpt>
      <trkpt lat="43.781901" lon="-114.017707"><ele>3259.2</ele></trkpt>
      <trkpt lat="43.781967" lon="-114.017824"><ele>3258.8</ele></trkpt>
      <trkpt lat="43.782013" lon="-114.017884"><ele>3258.5</ele></trkpt>
      <trkpt lat="43.782071" lon="-114.017915"><ele>3258.5</ele></trkpt>
      <trkpt lat="43.782149" lon="-114.017883"><ele>3258.5</ele></trkpt>
      <trkpt lat="43.782226" lon="-114.017781"><ele>3257.8</ele></trkpt>
      <trkpt lat="43.782381" lon="-114.017615"><ele>3255.0</ele></trkpt>
      <trkpt lat="43.782470" lon="-114.017540"><ele>3253.0</ele></trkpt>
      <trkpt lat="43.782513" lon="-114.017449"><ele>3252.0</ele></trkpt>
      <trkpt lat="43.782559" lon="-114.017417"><ele>3251.5</ele></trkpt>
      <trkpt lat="43.782594" lon="-114.017341"><ele>3251.2</ele></trkpt>
      <trkpt lat="43.782660" lon="-114.017261"><ele>3250.8</ele></trkpt>
      <trkpt lat="43.782714" lon="-114.017218"><ele>3250.2</ele></trkpt>
      <trkpt lat="43.782760" lon="-114.017105"><ele>3250.2</ele></trkpt>
      <trkpt lat="43.782838" lon="-114.017014"><ele>3249.5</ele></trkpt>
      <trkpt lat="43.782935" lon="-114.016752"><ele>3249.2</ele></trkpt>
      <trkpt lat="43.783032" lon="-114.016623"><ele>3248.2</ele></trkpt>
      <trkpt lat="43.783152" lon="-114.016499"><ele>3246.8</ele></trkpt>
      <trkpt lat="43.783241" lon="-114.016349"><ele>3246.0</ele></trkpt>
      <trkpt lat="43.783338" lon="-114.016231"><ele>3245.2</ele></trkpt>
      <trkpt lat="43.783442" lon="-114.016129"><ele>3242.2</ele></trkpt>
      <trkpt lat="43.783516" lon="-114.016022"><ele>3240.0</ele></trkpt>
      <trkpt lat="43.783601" lon="-114.015829"><ele>3236.5</ele></trkpt>
      <trkpt lat="43.783702" lon="-114.015674"><ele>3229.8</ele></trkpt>
      <trkpt lat="43.783756" lon="-114.015523"><ele>3225.0</ele></trkpt>
      <trkpt lat="43.783806" lon="-114.015196"><ele>3217.2</ele></trkpt>
      <trkpt lat="43.783845" lon="-114.015115"><ele>3214.8</ele></trkpt>
      <trkpt lat="43.783857" lon="-114.014992"><ele>3212.2</ele></trkpt>
      <trkpt lat="43.783891" lon="-114.014820"><ele>3209.5</ele></trkpt>
      <trkpt lat="43.783868" lon="-114.014718"><ele>3208.5</ele></trkpt>
      <trkpt lat="43.783779" lon="-114.014541"><ele>3207.2</ele></trkpt>
      <trkpt lat="43.783678" lon="-114.014429"><ele>3206.5</ele></trkpt>
      <trkpt lat="43.783609" lon="-114.014311"><ele>3205.2</ele></trkpt>
      <trkpt lat="43.783570" lon="-114.014203"><ele>3203.8</ele></trkpt>
      <trkpt lat="43.783547" lon="-114.014064"><ele>3203.2</ele></trkpt>
      <trkpt lat="43.783504" lon="-114.013914"><ele>3203.8</ele></trkpt>
      <trkpt lat="43.783516" lon="-114.013742"><ele>3203.5</ele></trkpt>
      <trkpt lat="43.783500" lon="-114.013254"><ele>3203.0</ele></trkpt>
      <trkpt lat="43.783415" lon="-114.013093"><ele>3204.0</ele></trkpt>
      <trkpt lat="43.783392" lon="-114.012991"><ele>3203.5</ele></trkpt>
      <trkpt lat="43.783376" lon="-114.012884"><ele>3202.8</ele></trkpt>
      <trkpt lat="43.783295" lon="-114.012771"><ele>3203.2</ele></trkpt>
      <trkpt lat="43.783210" lon="-114.012707"><ele>3203.5</ele></trkpt>
      <trkpt lat="43.783055" lon="-114.012648"><ele>3204.5</ele></trkpt>
      <trkpt lat="43.783024" lon="-114.012562"><ele>3204.5</ele></trkpt>
      <trkpt lat="43.783020" lon="-114.012433"><ele>3202.0</ele></trkpt>
      <trkpt lat="43.783113" lon="-114.012272"><ele>3196.0</ele></trkpt>
      <trkpt lat="43.783159" lon="-114.012165"><ele>3192.5</ele></trkpt>
      <trkpt lat="43.783210" lon="-114.012004"><ele>3187.2</ele></trkpt>
      <trkpt lat="43.783299" lon="-114.011816"><ele>3181.2</ele></trkpt>
      <trkpt lat="43.783458" lon="-114.011671"><ele>3175.8</ele></trkpt>
      <trkpt lat="43.783574" lon="-114.011532"><ele>3172.2</ele></trkpt>
      <trkpt lat="43.783663" lon="-114.011360"><ele>3169.0</ele></trkpt>
      <trkpt lat="43.783744" lon="-114.011269"><ele>3167.5</ele></trkpt>
      <trkpt lat="43.783798" lon="-114.011237"><ele>3166.8</ele></trkpt>
      <trkpt lat="43.783918" lon="-114.011216"><ele>3166.2</ele></trkpt>
      <trkpt lat="43.784004" lon="-114.011178"><ele>3165.8</ele></trkpt>
      <trkpt lat="43.784116" lon="-114.011076"><ele>3165.0</ele></trkpt>
      <trkpt lat="43.784255" lon="-114.010931"><ele>3163.5</ele></trkpt>
      <trkpt lat="43.784364" lon="-114.010797"><ele>3162.2</ele></trkpt>
      <trkpt lat="43.784437" lon="-114.010759"><ele>3161.5</ele></trkpt>
      <trkpt lat="43.784519" lon="-114.010684"><ele>3160.8</ele></trkpt>
      <trkpt lat="43.784658" lon="-114.010518"><ele>3159.5</ele></trkpt>
      <trkpt lat="43.784794" lon="-114.010405"><ele>3159.0</ele></trkpt>
      <trkpt lat="43.784910" lon="-114.010341"><ele>3159.0</ele></trkpt>
      <trkpt lat="43.785045" lon="-114.010320"><ele>3159.8</ele></trkpt>
      <trkpt lat="43.785169" lon="-114.010271"><ele>3162.0</ele></trkpt>
      <trkpt lat="43.785282" lon="-114.010142"><ele>3164.5</ele></trkpt>
      <trkpt lat="43.785324" lon="-114.010003"><ele>3165.8</ele></trkpt>
      <trkpt lat="43.785328" lon="-114.009869"><ele>3167.0</ele></trkpt>
      <trkpt lat="43.785351" lon="-114.009756"><ele>3168.5</ele></trkpt>
      <trkpt lat="43.785321" lon="-114.009605"><ele>3169.2</ele></trkpt>
      <trkpt lat="43.785311" lon="-114.009566"><ele>3169.2</ele></trkpt>
      <trkpt lat="43.785247" lon="-114.009442"><ele>3169.2</ele></trkpt>
      <trkpt lat="43.785311" lon="-114.009566"><ele>3169.2</ele></trkpt>
      <trkpt lat="43.785321" lon="-114.009605"><ele>3169.2</ele></trkpt>
      <trkpt lat="43.785677" lon="-114.009660"><ele>3175.8</ele></trkpt>
      <trkpt lat="43.786086" lon="-114.008976"><ele>3193.2</ele></trkpt>
      <trkpt lat="43.785541" lon="-114.008316"><ele>3185.8</ele></trkpt>
      <trkpt lat="43.785558" lon="-114.007915"><ele>3189.2</ele></trkpt>
      <trkpt lat="43.786401" lon="-114.007738"><ele>3208.0</ele></trkpt>
      <trkpt lat="43.786554" lon="-114.007915"><ele>3210.5</ele></trkpt>
      <trkpt lat="43.787252" lon="-114.007266"><ele>3222.8</ele></trkpt>
      <trkpt lat="43.787337" lon="-114.007337"><ele>3224.2</ele></trkpt>
      <trkpt lat="43.787295" lon="-114.007679"><ele>3223.5</ele></trkpt>
      <trkpt lat="43.787405" lon="-114.007820"><ele>3225.2</ele></trkpt>
      <trkpt lat="43.787371" lon="-114.008033"><ele>3224.8</ele></trkpt>
      <trkpt lat="43.787831" lon="-114.008151"><ele>3237.2</ele></trkpt>
      <trkpt lat="43.787942" lon="-114.008858"><ele>3237.0</ele></trkpt>
      <trkpt lat="43.788120" lon="-114.009118"><ele>3241.8</ele></trkpt>
      <trkpt lat="43.788035" lon="-114.009672"><ele>3233.8</ele></trkpt>
      <trkpt lat="43.788469" lon="-114.010769"><ele>3248.0</ele></trkpt>
      <trkpt lat="43.788938" lon="-114.011559"><ele>3263.0</ele></trkpt>
      <trkpt lat="43.789517" lon="-114.011983"><ele>3278.8</ele></trkpt>
      <trkpt lat="43.789891" lon="-114.012561"><ele>3286.2</ele></trkpt>
      <trkpt lat="43.790121" lon="-114.012880"><ele>3300.2</ele></trkpt>
      <trkpt lat="43.790164" lon="-114.013399"><ele>3307.0</ele></trkpt>
      <trkpt lat="43.790317" lon="-114.012785"><ele>3313.8</ele></trkpt>
      <trkpt lat="43.790351" lon="-114.012137"><ele>3316.2</ele></trkpt>
      <trkpt lat="43.790462" lon="-114.012691"><ele>3323.8</ele></trkpt>
      <trkpt lat="43.790598" lon="-114.012125"><ele>3332.2</ele></trkpt>
      <trkpt lat="43.790623" lon="-114.011759"><ele>3333.2</ele></trkpt>
      <trkpt lat="43.790777" lon="-114.012219"><ele>3344.5</ele></trkpt>
      <trkpt lat="43.790807" lon="-114.012537"><ele>3348.0</ele></trkpt>
      <trkpt lat="43.790751" lon="-114.012891"><ele>3345.0</ele></trkpt>
      <trkpt lat="43.790624" lon="-114.013313"><ele>3337.2</ele></trkpt>
      <trkpt lat="43.790554" lon="-114.014004"><ele>3334.2</ele></trkpt>
      <trkpt lat="43.790583" lon="-114.014342"><ele>3336.5</ele></trkpt>
      <trkpt lat="43.790692" lon="-114.014577"><ele>3337.2</ele></trkpt>
      <trkpt lat="43.790718" lon="-114.014496"><ele>3337.5</ele></trkpt>
      <trkpt lat="43.790831" lon="-114.014635"><ele>3335.8</ele></trkpt>
      <trkpt lat="43.790862" lon="-114.014454"><ele>3336.5</ele></trkpt>
      <trkpt lat="43.790997" lon="-114.014659"><ele>3327.8</ele></trkpt>
      <trkpt lat="43.791008" lon="-114.014544"><ele>3328.5</ele></trkpt>
      <trkpt lat="43.791056" lon="-114.014647"><ele>3325.0</ele></trkpt>
      <trkpt lat="43.791091" lon="-114.014550"><ele>3324.5</ele></trkpt>
      <trkpt lat="43.791149" lon="-114.014710"><ele>3319.8</ele></trkpt>
      <trkpt lat="43.791193" lon="-114.014580"><ele>3319.5</ele></trkpt>
      <trkpt lat="43.791210" lon="-114.014704"><ele>3316.8</ele></trkpt>
      <trkpt lat="43.791249" lon="-114.014629"><ele>3316.0</ele></trkpt>
      <trkpt lat="43.791260" lon="-114.014752"><ele>3313.5</ele></trkpt>
      <trkpt lat="43.791300" lon="-114.014677"><ele>3312.8</ele></trkpt>
      <trkpt lat="43.791339" lon="-114.014831"><ele>3308.5</ele></trkpt>
      <trkpt lat="43.791448" lon="-114.014792"><ele>3303.8</ele></trkpt>
      <trkpt lat="43.791629" lon="-114.014973"><ele>3291.2</ele></trkpt>
      <trkpt lat="43.791943" lon="-114.015094"><ele>3284.0</ele></trkpt>
      <trkpt lat="43.792230" lon="-114.015329"><ele>3275.8</ele></trkpt>
      <trkpt lat="43.792518" lon="-114.015933"><ele>3257.8</ele></trkpt>
      <trkpt lat="43.792667" lon="-114.016056"><ele>3252.5</ele></trkpt>
      <trkpt lat="43.792654" lon="-114.016344"><ele>3246.8</ele></trkpt>
      <trkpt lat="43.792731" lon="-114.016446"><ele>3242.8</ele></trkpt>
      <trkpt lat="43.793237" lon="-114.016568"><ele>3225.8</ele></trkpt>
      <trkpt lat="43.793485" lon="-114.016484"><ele>3221.5</ele></trkpt>
      <trkpt lat="43.793656" lon="-114.016179"><ele>3225.8</ele></trkpt>
      <trkpt lat="43.793887" lon="-114.016142"><ele>3220.0</ele></trkpt>
      <trkpt lat="43.793925" lon="-114.016086"><ele>3220.5</ele></trkpt>
      <trkpt lat="43.794033" lon="-114.016063"><ele>3217.8</ele></trkpt>
      <trkpt lat="43.794107" lon="-114.016003"><ele>3217.2</ele></trkpt>
      <trkpt lat="43.794181" lon="-114.016132"><ele>3211.5</ele></trkpt>
      <trkpt lat="43.794127" lon="-114.016217"><ele>3211.0</ele></trkpt>
      <trkpt lat="43.794040" lon="-114.016264"><ele>3212.2</ele></trkpt>
      <trkpt lat="43.794065" lon="-114.016564"><ele>3203.2</ele></trkpt>
      <trkpt lat="43.794239" lon="-114.016374"><ele>3203.8</ele></trkpt>
      <trkpt lat="43.794342" lon="-114.016393"><ele>3200.8</ele></trkpt>
      <trkpt lat="43.794414" lon="-114.016280"><ele>3201.5</ele></trkpt>
      <trkpt lat="43.794506" lon="-114.016209"><ele>3200.2</ele></trkpt>
      <trkpt lat="43.794535" lon="-114.016614"><ele>3191.8</ele></trkpt>
      <trkpt lat="43.794626" lon="-114.016813"><ele>3186.2</ele></trkpt>
      <trkpt lat="43.794648" lon="-114.016929"><ele>3183.8</ele></trkpt>
      <trkpt lat="43.794608" lon="-114.017001"><ele>3183.2</ele></trkpt>
      <trkpt lat="43.794588" lon="-114.017104"><ele>3181.8</ele></trkpt>
      <trkpt lat="43.794855" lon="-114.017364"><ele>3172.5</ele></trkpt>
      <trkpt lat="43.795283" lon="-114.017964"><ele>3151.5</ele></trkpt>
      <trkpt lat="43.795279" lon="-114.018038"><ele>3150.0</ele></trkpt>
      <trkpt lat="43.795287" lon="-114.018161"><ele>3147.2</ele></trkpt>
      <trkpt lat="43.795885" lon="-114.018910"><ele>3124.0</ele></trkpt>
      <trkpt lat="43.795877" lon="-114.019019"><ele>3121.2</ele></trkpt>
      <trkpt lat="43.796079" lon="-114.019374"><ele>3115.2</ele></trkpt>
      <trkpt lat="43.796259" lon="-114.019943"><ele>3109.5</ele></trkpt>
      <trkpt lat="43.796604" lon="-114.020452"><ele>3103.2</ele></trkpt>
      <trkpt lat="43.796670" lon="-114.020571"><ele>3101.8</ele></trkpt>
      <trkpt lat="43.796808" lon="-114.020646"><ele>3099.0</ele></trkpt>
    </trkseg>
    <trkseg>
      <!-- Mon — out to Copper Basin -->
      <trkpt lat="43.796808" lon="-114.020646"><ele>3100.5</ele></trkpt>
      <trkpt lat="43.796670" lon="-114.020571"><ele>3101.8</ele></trkpt>
      <trkpt lat="43.796604" lon="-114.020452"><ele>3103.2</ele></trkpt>
      <trkpt lat="43.796259" lon="-114.019943"><ele>3109.5</ele></trkpt>
      <trkpt lat="43.796079" lon="-114.019374"><ele>3115.2</ele></trkpt>
      <trkpt lat="43.795877" lon="-114.019019"><ele>3121.2</ele></trkpt>
      <trkpt lat="43.795885" lon="-114.018910"><ele>3124.0</ele></trkpt>
      <trkpt lat="43.795287" lon="-114.018161"><ele>3147.2</ele></trkpt>
      <trkpt lat="43.795279" lon="-114.018038"><ele>3150.0</ele></trkpt>
      <trkpt lat="43.795283" lon="-114.017964"><ele>3151.5</ele></trkpt>
      <trkpt lat="43.794855" lon="-114.017364"><ele>3172.5</ele></trkpt>
      <trkpt lat="43.794588" lon="-114.017104"><ele>3181.8</ele></trkpt>
      <trkpt lat="43.794608" lon="-114.017001"><ele>3183.2</ele></trkpt>
      <trkpt lat="43.794648" lon="-114.016929"><ele>3183.8</ele></trkpt>
      <trkpt lat="43.794626" lon="-114.016813"><ele>3186.2</ele></trkpt>
      <trkpt lat="43.794535" lon="-114.016614"><ele>3191.8</ele></trkpt>
      <trkpt lat="43.794506" lon="-114.016209"><ele>3200.2</ele></trkpt>
      <trkpt lat="43.794414" lon="-114.016280"><ele>3201.5</ele></trkpt>
      <trkpt lat="43.794342" lon="-114.016393"><ele>3200.8</ele></trkpt>
      <trkpt lat="43.794239" lon="-114.016374"><ele>3203.8</ele></trkpt>
      <trkpt lat="43.794065" lon="-114.016564"><ele>3203.2</ele></trkpt>
      <trkpt lat="43.794040" lon="-114.016264"><ele>3212.2</ele></trkpt>
      <trkpt lat="43.794127" lon="-114.016217"><ele>3211.0</ele></trkpt>
      <trkpt lat="43.794181" lon="-114.016132"><ele>3211.5</ele></trkpt>
      <trkpt lat="43.794107" lon="-114.016003"><ele>3217.2</ele></trkpt>
      <trkpt lat="43.794033" lon="-114.016063"><ele>3217.8</ele></trkpt>
      <trkpt lat="43.793925" lon="-114.016086"><ele>3220.5</ele></trkpt>
      <trkpt lat="43.793887" lon="-114.016142"><ele>3220.0</ele></trkpt>
      <trkpt lat="43.793656" lon="-114.016179"><ele>3225.8</ele></trkpt>
      <trkpt lat="43.793485" lon="-114.016484"><ele>3221.5</ele></trkpt>
      <trkpt lat="43.793237" lon="-114.016568"><ele>3225.8</ele></trkpt>
      <trkpt lat="43.792731" lon="-114.016446"><ele>3242.8</ele></trkpt>
      <trkpt lat="43.792654" lon="-114.016344"><ele>3246.8</ele></trkpt>
      <trkpt lat="43.792667" lon="-114.016056"><ele>3252.5</ele></trkpt>
      <trkpt lat="43.792518" lon="-114.015933"><ele>3257.8</ele></trkpt>
      <trkpt lat="43.792230" lon="-114.015329"><ele>3275.8</ele></trkpt>
      <trkpt lat="43.791943" lon="-114.015094"><ele>3284.0</ele></trkpt>
      <trkpt lat="43.791629" lon="-114.014973"><ele>3291.2</ele></trkpt>
      <trkpt lat="43.791448" lon="-114.014792"><ele>3303.8</ele></trkpt>
      <trkpt lat="43.791339" lon="-114.014831"><ele>3308.5</ele></trkpt>
      <trkpt lat="43.791300" lon="-114.014677"><ele>3312.8</ele></trkpt>
      <trkpt lat="43.791260" lon="-114.014752"><ele>3313.5</ele></trkpt>
      <trkpt lat="43.791249" lon="-114.014629"><ele>3316.0</ele></trkpt>
      <trkpt lat="43.791210" lon="-114.014704"><ele>3316.8</ele></trkpt>
      <trkpt lat="43.791193" lon="-114.014580"><ele>3319.5</ele></trkpt>
      <trkpt lat="43.791149" lon="-114.014710"><ele>3319.8</ele></trkpt>
      <trkpt lat="43.791091" lon="-114.014550"><ele>3324.5</ele></trkpt>
      <trkpt lat="43.791056" lon="-114.014647"><ele>3325.0</ele></trkpt>
      <trkpt lat="43.791008" lon="-114.014544"><ele>3328.5</ele></trkpt>
      <trkpt lat="43.790997" lon="-114.014659"><ele>3327.8</ele></trkpt>
      <trkpt lat="43.790862" lon="-114.014454"><ele>3336.5</ele></trkpt>
      <trkpt lat="43.790831" lon="-114.014635"><ele>3335.8</ele></trkpt>
      <trkpt lat="43.790718" lon="-114.014496"><ele>3337.5</ele></trkpt>
      <trkpt lat="43.790692" lon="-114.014577"><ele>3337.2</ele></trkpt>
      <trkpt lat="43.790583" lon="-114.014342"><ele>3336.5</ele></trkpt>
      <trkpt lat="43.790554" lon="-114.014004"><ele>3334.2</ele></trkpt>
      <trkpt lat="43.790624" lon="-114.013313"><ele>3337.2</ele></trkpt>
      <trkpt lat="43.790751" lon="-114.012891"><ele>3345.0</ele></trkpt>
      <trkpt lat="43.790807" lon="-114.012537"><ele>3348.0</ele></trkpt>
      <trkpt lat="43.790777" lon="-114.012219"><ele>3344.5</ele></trkpt>
      <trkpt lat="43.790623" lon="-114.011759"><ele>3333.2</ele></trkpt>
      <trkpt lat="43.790598" lon="-114.012125"><ele>3332.2</ele></trkpt>
      <trkpt lat="43.790462" lon="-114.012691"><ele>3323.8</ele></trkpt>
      <trkpt lat="43.790351" lon="-114.012137"><ele>3316.2</ele></trkpt>
      <trkpt lat="43.790317" lon="-114.012785"><ele>3313.8</ele></trkpt>
      <trkpt lat="43.790164" lon="-114.013399"><ele>3307.0</ele></trkpt>
      <trkpt lat="43.790121" lon="-114.012880"><ele>3300.2</ele></trkpt>
      <trkpt lat="43.789891" lon="-114.012561"><ele>3286.2</ele></trkpt>
      <trkpt lat="43.789517" lon="-114.011983"><ele>3278.8</ele></trkpt>
      <trkpt lat="43.788938" lon="-114.011559"><ele>3263.0</ele></trkpt>
      <trkpt lat="43.788469" lon="-114.010769"><ele>3248.0</ele></trkpt>
      <trkpt lat="43.788035" lon="-114.009672"><ele>3233.8</ele></trkpt>
      <trkpt lat="43.788120" lon="-114.009118"><ele>3241.8</ele></trkpt>
      <trkpt lat="43.787942" lon="-114.008858"><ele>3237.0</ele></trkpt>
      <trkpt lat="43.787831" lon="-114.008151"><ele>3237.2</ele></trkpt>
      <trkpt lat="43.787371" lon="-114.008033"><ele>3224.8</ele></trkpt>
      <trkpt lat="43.787405" lon="-114.007820"><ele>3225.2</ele></trkpt>
      <trkpt lat="43.787295" lon="-114.007679"><ele>3223.5</ele></trkpt>
      <trkpt lat="43.787337" lon="-114.007337"><ele>3224.2</ele></trkpt>
      <trkpt lat="43.787252" lon="-114.007266"><ele>3222.8</ele></trkpt>
      <trkpt lat="43.786554" lon="-114.007915"><ele>3210.5</ele></trkpt>
      <trkpt lat="43.786401" lon="-114.007738"><ele>3208.0</ele></trkpt>
      <trkpt lat="43.785558" lon="-114.007915"><ele>3189.2</ele></trkpt>
      <trkpt lat="43.785541" lon="-114.008316"><ele>3185.8</ele></trkpt>
      <trkpt lat="43.786086" lon="-114.008976"><ele>3193.2</ele></trkpt>
      <trkpt lat="43.785677" lon="-114.009660"><ele>3175.8</ele></trkpt>
      <trkpt lat="43.785321" lon="-114.009605"><ele>3169.2</ele></trkpt>
      <trkpt lat="43.785311" lon="-114.009566"><ele>3169.2</ele></trkpt>
      <trkpt lat="43.785247" lon="-114.009442"><ele>3169.2</ele></trkpt>
      <trkpt lat="43.785247" lon="-114.009440"><ele>3169.2</ele></trkpt>
      <trkpt lat="43.785163" lon="-114.009364"><ele>3168.0</ele></trkpt>
      <trkpt lat="43.785023" lon="-114.009257"><ele>3165.8</ele></trkpt>
      <trkpt lat="43.784883" lon="-114.009107"><ele>3164.5</ele></trkpt>
      <trkpt lat="43.784767" lon="-114.008999"><ele>3163.2</ele></trkpt>
      <trkpt lat="43.784535" lon="-114.008398"><ele>3159.8</ele></trkpt>
      <trkpt lat="43.784419" lon="-114.008181"><ele>3156.8</ele></trkpt>
      <trkpt lat="43.784148" lon="-114.007744"><ele>3149.2</ele></trkpt>
      <trkpt lat="43.784008" lon="-114.007572"><ele>3145.8</ele></trkpt>
      <trkpt lat="43.783591" lon="-114.006889"><ele>3139.8</ele></trkpt>
      <trkpt lat="43.783414" lon="-114.006629"><ele>3137.8</ele></trkpt>
      <trkpt lat="43.783225" lon="-114.006377"><ele>3136.2</ele></trkpt>
      <trkpt lat="43.782965" lon="-114.006119"><ele>3134.0</ele></trkpt>
      <trkpt lat="43.782784" lon="-114.005883"><ele>3132.8</ele></trkpt>
      <trkpt lat="43.782609" lon="-114.005830"><ele>3130.2</ele></trkpt>
      <trkpt lat="43.782412" lon="-114.005621"><ele>3121.8</ele></trkpt>
      <trkpt lat="43.782199" lon="-114.005492"><ele>3115.2</ele></trkpt>
      <trkpt lat="43.782067" lon="-114.005379"><ele>3109.8</ele></trkpt>
      <trkpt lat="43.782083" lon="-114.005266"><ele>3106.0</ele></trkpt>
      <trkpt lat="43.782311" lon="-114.005159"><ele>3105.8</ele></trkpt>
      <trkpt lat="43.782369" lon="-114.005063"><ele>3103.5</ele></trkpt>
      <trkpt lat="43.782261" lon="-114.004896"><ele>3096.0</ele></trkpt>
      <trkpt lat="43.782400" lon="-114.004687"><ele>3090.8</ele></trkpt>
      <trkpt lat="43.782660" lon="-114.004403"><ele>3085.8</ele></trkpt>
      <trkpt lat="43.782671" lon="-114.004129"><ele>3077.5</ele></trkpt>
      <trkpt lat="43.782574" lon="-114.004059"><ele>3074.0</ele></trkpt>
      <trkpt lat="43.782373" lon="-114.003689"><ele>3066.5</ele></trkpt>
      <trkpt lat="43.782230" lon="-114.003126"><ele>3058.0</ele></trkpt>
      <trkpt lat="43.781715" lon="-114.002059"><ele>3039.2</ele></trkpt>
      <trkpt lat="43.780921" lon="-114.000492"><ele>3035.5</ele></trkpt>
      <trkpt lat="43.780572" lon="-113.999548"><ele>3028.0</ele></trkpt>
      <trkpt lat="43.780344" lon="-113.999011"><ele>3020.0</ele></trkpt>
      <trkpt lat="43.780181" lon="-113.998572"><ele>3015.5</ele></trkpt>
      <trkpt lat="43.780088" lon="-113.998191"><ele>3014.0</ele></trkpt>
      <trkpt lat="43.779844" lon="-113.997745"><ele>3012.0</ele></trkpt>
      <trkpt lat="43.779561" lon="-113.997536"><ele>3008.8</ele></trkpt>
      <trkpt lat="43.779387" lon="-113.997155"><ele>3006.8</ele></trkpt>
      <trkpt lat="43.779259" lon="-113.996812"><ele>3004.5</ele></trkpt>
      <trkpt lat="43.779015" lon="-113.996533"><ele>3000.8</ele></trkpt>
      <trkpt lat="43.778728" lon="-113.996286"><ele>2998.5</ele></trkpt>
      <trkpt lat="43.778539" lon="-113.996104"><ele>2996.5</ele></trkpt>
      <trkpt lat="43.778391" lon="-113.995680"><ele>2993.8</ele></trkpt>
      <trkpt lat="43.778415" lon="-113.995401"><ele>2993.2</ele></trkpt>
      <trkpt lat="43.778318" lon="-113.995117"><ele>2991.8</ele></trkpt>
      <trkpt lat="43.778395" lon="-113.994741"><ele>2991.5</ele></trkpt>
      <trkpt lat="43.778244" lon="-113.994387"><ele>2988.5</ele></trkpt>
      <trkpt lat="43.778097" lon="-113.994194"><ele>2983.2</ele></trkpt>
      <trkpt lat="43.778093" lon="-113.993942"><ele>2977.8</ele></trkpt>
      <trkpt lat="43.778171" lon="-113.993701"><ele>2974.0</ele></trkpt>
      <trkpt lat="43.777975" lon="-113.993443"><ele>2964.5</ele></trkpt>
      <trkpt lat="43.777832" lon="-113.993293"><ele>2960.0</ele></trkpt>
      <trkpt lat="43.777675" lon="-113.993304"><ele>2958.0</ele></trkpt>
      <trkpt lat="43.777580" lon="-113.993432"><ele>2958.0</ele></trkpt>
      <trkpt lat="43.777561" lon="-113.993658"><ele>2960.2</ele></trkpt>
      <trkpt lat="43.777441" lon="-113.993722"><ele>2957.0</ele></trkpt>
      <trkpt lat="43.777247" lon="-113.993618"><ele>2948.0</ele></trkpt>
      <trkpt lat="43.777136" lon="-113.993666"><ele>2943.8</ele></trkpt>
      <trkpt lat="43.777036" lon="-113.993465"><ele>2938.2</ele></trkpt>
      <trkpt lat="43.776937" lon="-113.993628"><ele>2935.2</ele></trkpt>
      <trkpt lat="43.776838" lon="-113.993454"><ele>2930.2</ele></trkpt>
      <trkpt lat="43.776817" lon="-113.993644"><ele>2930.2</ele></trkpt>
      <trkpt lat="43.776749" lon="-113.993883"><ele>2928.5</ele></trkpt>
      <trkpt lat="43.776532" lon="-113.993682"><ele>2921.5</ele></trkpt>
      <trkpt lat="43.776145" lon="-113.993124"><ele>2915.0</ele></trkpt>
      <trkpt lat="43.775750" lon="-113.992904"><ele>2910.2</ele></trkpt>
      <trkpt lat="43.775227" lon="-113.992775"><ele>2905.8</ele></trkpt>
      <trkpt lat="43.774940" lon="-113.992716"><ele>2903.0</ele></trkpt>
      <trkpt lat="43.774807" lon="-113.992588"><ele>2901.0</ele></trkpt>
      <trkpt lat="43.774634" lon="-113.992639"><ele>2898.2</ele></trkpt>
      <trkpt lat="43.774495" lon="-113.992480"><ele>2896.2</ele></trkpt>
      <trkpt lat="43.774398" lon="-113.992295"><ele>2896.5</ele></trkpt>
      <trkpt lat="43.774137" lon="-113.992113"><ele>2894.2</ele></trkpt>
      <trkpt lat="43.773741" lon="-113.992094"><ele>2890.5</ele></trkpt>
      <trkpt lat="43.773631" lon="-113.992043"><ele>2889.5</ele></trkpt>
      <trkpt lat="43.773437" lon="-113.992099"><ele>2887.5</ele></trkpt>
      <trkpt lat="43.773281" lon="-113.992040"><ele>2886.2</ele></trkpt>
      <trkpt lat="43.773095" lon="-113.991922"><ele>2885.8</ele></trkpt>
      <trkpt lat="43.772783" lon="-113.991850"><ele>2884.5</ele></trkpt>
      <trkpt lat="43.772579" lon="-113.991544"><ele>2881.8</ele></trkpt>
      <trkpt lat="43.772099" lon="-113.991104"><ele>2869.0</ele></trkpt>
      <trkpt lat="43.771971" lon="-113.990951"><ele>2864.5</ele></trkpt>
      <trkpt lat="43.771727" lon="-113.990828"><ele>2857.2</ele></trkpt>
      <trkpt lat="43.771440" lon="-113.990565"><ele>2849.2</ele></trkpt>
      <trkpt lat="43.771268" lon="-113.990396"><ele>2844.2</ele></trkpt>
      <trkpt lat="43.771154" lon="-113.990316"><ele>2840.8</ele></trkpt>
      <trkpt lat="43.771034" lon="-113.990136"><ele>2837.0</ele></trkpt>
      <trkpt lat="43.770879" lon="-113.990058"><ele>2832.2</ele></trkpt>
      <trkpt lat="43.770714" lon="-113.990093"><ele>2828.8</ele></trkpt>
      <trkpt lat="43.770575" lon="-113.990332"><ele>2825.8</ele></trkpt>
      <trkpt lat="43.770416" lon="-113.990238"><ele>2822.8</ele></trkpt>
      <trkpt lat="43.770187" lon="-113.990396"><ele>2817.5</ele></trkpt>
      <trkpt lat="43.770160" lon="-113.990646"><ele>2815.2</ele></trkpt>
      <trkpt lat="43.769833" lon="-113.990710"><ele>2807.0</ele></trkpt>
      <trkpt lat="43.769771" lon="-113.990568"><ele>2806.8</ele></trkpt>
      <trkpt lat="43.769688" lon="-113.990595"><ele>2804.5</ele></trkpt>
      <trkpt lat="43.769647" lon="-113.990458"><ele>2804.8</ele></trkpt>
      <trkpt lat="43.769544" lon="-113.990581"><ele>2801.2</ele></trkpt>
      <trkpt lat="43.769451" lon="-113.990769"><ele>2797.2</ele></trkpt>
      <trkpt lat="43.769215" lon="-113.990721"><ele>2792.0</ele></trkpt>
      <trkpt lat="43.769045" lon="-113.990721"><ele>2789.0</ele></trkpt>
      <trkpt lat="43.769002" lon="-113.990850"><ele>2787.0</ele></trkpt>
      <trkpt lat="43.768874" lon="-113.990890"><ele>2785.0</ele></trkpt>
      <trkpt lat="43.768834" lon="-113.991018"><ele>2784.2</ele></trkpt>
      <trkpt lat="43.768520" lon="-113.991233"><ele>2777.8</ele></trkpt>
      <trkpt lat="43.768270" lon="-113.991043"><ele>2773.8</ele></trkpt>
      <trkpt lat="43.768051" lon="-113.991080"><ele>2770.0</ele></trkpt>
      <trkpt lat="43.767927" lon="-113.991069"><ele>2767.8</ele></trkpt>
      <trkpt lat="43.767788" lon="-113.991169"><ele>2764.8</ele></trkpt>
      <trkpt lat="43.767342" lon="-113.990753"><ele>2755.2</ele></trkpt>
      <trkpt lat="43.767286" lon="-113.990568"><ele>2753.2</ele></trkpt>
      <trkpt lat="43.767197" lon="-113.990512"><ele>2749.2</ele></trkpt>
      <trkpt lat="43.767175" lon="-113.990302"><ele>2749.2</ele></trkpt>
      <trkpt lat="43.767053" lon="-113.990187"><ele>2744.5</ele></trkpt>
      <trkpt lat="43.766879" lon="-113.989677"><ele>2742.5</ele></trkpt>
      <trkpt lat="43.766627" lon="-113.989433"><ele>2737.0</ele></trkpt>
      <trkpt lat="43.766314" lon="-113.989286"><ele>2724.8</ele></trkpt>
      <trkpt lat="43.766067" lon="-113.988940"><ele>2716.0</ele></trkpt>
      <trkpt lat="43.765986" lon="-113.988186"><ele>2712.8</ele></trkpt>
      <trkpt lat="43.765845" lon="-113.987591"><ele>2703.8</ele></trkpt>
      <trkpt lat="43.765736" lon="-113.987057"><ele>2698.0</ele></trkpt>
      <trkpt lat="43.765636" lon="-113.986813"><ele>2693.5</ele></trkpt>
      <trkpt lat="43.765482" lon="-113.986188"><ele>2687.5</ele></trkpt>
      <trkpt lat="43.765275" lon="-113.986051"><ele>2680.8</ele></trkpt>
      <trkpt lat="43.765105" lon="-113.985509"><ele>2676.0</ele></trkpt>
      <trkpt lat="43.765008" lon="-113.985308"><ele>2672.5</ele></trkpt>
      <trkpt lat="43.764894" lon="-113.984493"><ele>2669.8</ele></trkpt>
      <trkpt lat="43.764799" lon="-113.983908"><ele>2669.8</ele></trkpt>
      <trkpt lat="43.764861" lon="-113.983554"><ele>2675.5</ele></trkpt>
      <trkpt lat="43.764849" lon="-113.983243"><ele>2677.2</ele></trkpt>
      <trkpt lat="43.764568" lon="-113.982730"><ele>2666.8</ele></trkpt>
      <trkpt lat="43.764332" lon="-113.982033"><ele>2660.2</ele></trkpt>
      <trkpt lat="43.764266" lon="-113.981647"><ele>2659.8</ele></trkpt>
      <trkpt lat="43.763753" lon="-113.980410"><ele>2648.5</ele></trkpt>
      <trkpt lat="43.763344" lon="-113.979311"><ele>2642.8</ele></trkpt>
      <trkpt lat="43.763185" lon="-113.979083"><ele>2638.2</ele></trkpt>
      <trkpt lat="43.762714" lon="-113.977991"><ele>2628.8</ele></trkpt>
      <trkpt lat="43.762532" lon="-113.977487"><ele>2625.2</ele></trkpt>
      <trkpt lat="43.762519" lon="-113.977261"><ele>2626.5</ele></trkpt>
      <trkpt lat="43.762401" lon="-113.976840"><ele>2626.0</ele></trkpt>
      <trkpt lat="43.762476" lon="-113.976435"><ele>2630.5</ele></trkpt>
      <trkpt lat="43.762463" lon="-113.976162"><ele>2630.8</ele></trkpt>
      <trkpt lat="43.762527" lon="-113.975212"><ele>2628.2</ele></trkpt>
      <trkpt lat="43.762904" lon="-113.974282"><ele>2632.2</ele></trkpt>
      <trkpt lat="43.762951" lon="-113.973646"><ele>2627.2</ele></trkpt>
      <trkpt lat="43.763001" lon="-113.973402"><ele>2625.8</ele></trkpt>
      <trkpt lat="43.762968" lon="-113.973152"><ele>2622.8</ele></trkpt>
      <trkpt lat="43.763081" lon="-113.972790"><ele>2622.8</ele></trkpt>
      <trkpt lat="43.763024" lon="-113.972597"><ele>2620.0</ele></trkpt>
      <trkpt lat="43.763032" lon="-113.972195"><ele>2616.5</ele></trkpt>
      <trkpt lat="43.762949" lon="-113.972023"><ele>2612.8</ele></trkpt>
      <trkpt lat="43.762968" lon="-113.971658"><ele>2609.8</ele></trkpt>
      <trkpt lat="43.763019" lon="-113.970921"><ele>2606.2</ele></trkpt>
      <trkpt lat="43.763065" lon="-113.970733"><ele>2607.2</ele></trkpt>
      <trkpt lat="43.763059" lon="-113.970411"><ele>2607.0</ele></trkpt>
      <trkpt lat="43.763214" lon="-113.969467"><ele>2610.5</ele></trkpt>
      <trkpt lat="43.763175" lon="-113.968974"><ele>2606.5</ele></trkpt>
      <trkpt lat="43.763216" lon="-113.968088"><ele>2601.2</ele></trkpt>
      <trkpt lat="43.763268" lon="-113.967772"><ele>2598.5</ele></trkpt>
      <trkpt lat="43.763123" lon="-113.967732"><ele>2592.2</ele></trkpt>
      <trkpt lat="43.763129" lon="-113.967635"><ele>2591.0</ele></trkpt>
      <trkpt lat="43.763067" lon="-113.967447"><ele>2585.0</ele></trkpt>
      <trkpt lat="43.763175" lon="-113.967233"><ele>2582.5</ele></trkpt>
      <trkpt lat="43.763224" lon="-113.967010"><ele>2577.2</ele></trkpt>
      <trkpt lat="43.763354" lon="-113.966863"><ele>2576.8</ele></trkpt>
      <trkpt lat="43.763383" lon="-113.966798"><ele>2575.5</ele></trkpt>
      <trkpt lat="43.763352" lon="-113.966600"><ele>2569.0</ele></trkpt>
      <trkpt lat="43.763427" lon="-113.966498"><ele>2569.0</ele></trkpt>
      <trkpt lat="43.763350" lon="-113.966366"><ele>2563.8</ele></trkpt>
      <trkpt lat="43.763251" lon="-113.966404"><ele>2561.5</ele></trkpt>
      <trkpt lat="43.763257" lon="-113.966350"><ele>2560.2</ele></trkpt>
      <trkpt lat="43.763365" lon="-113.966275"><ele>2562.2</ele></trkpt>
      <trkpt lat="43.763354" lon="-113.966114"><ele>2558.5</ele></trkpt>
      <trkpt lat="43.763422" lon="-113.965913"><ele>2555.5</ele></trkpt>
      <trkpt lat="43.763470" lon="-113.965709"><ele>2551.2</ele></trkpt>
      <trkpt lat="43.763360" lon="-113.965639"><ele>2547.0</ele></trkpt>
      <trkpt lat="43.763528" lon="-113.965323"><ele>2541.8</ele></trkpt>
      <trkpt lat="43.763718" lon="-113.964921"><ele>2535.5</ele></trkpt>
      <trkpt lat="43.763809" lon="-113.964821"><ele>2535.2</ele></trkpt>
      <trkpt lat="43.763809" lon="-113.964526"><ele>2527.5</ele></trkpt>
      <trkpt lat="43.763737" lon="-113.964545"><ele>2526.0</ele></trkpt>
      <trkpt lat="43.763544" lon="-113.964714"><ele>2525.5</ele></trkpt>
      <trkpt lat="43.763398" lon="-113.964770"><ele>2523.2</ele></trkpt>
      <trkpt lat="43.763278" lon="-113.964733"><ele>2518.5</ele></trkpt>
      <trkpt lat="43.763425" lon="-113.964333"><ele>2512.0</ele></trkpt>
      <trkpt lat="43.763685" lon="-113.963837"><ele>2506.0</ele></trkpt>
      <trkpt lat="43.763648" lon="-113.963775"><ele>2503.2</ele></trkpt>
      <trkpt lat="43.763422" lon="-113.963858"><ele>2499.0</ele></trkpt>
      <trkpt lat="43.763404" lon="-113.963807"><ele>2497.0</ele></trkpt>
      <trkpt lat="43.763590" lon="-113.963086"><ele>2483.5</ele></trkpt>
      <trkpt lat="43.763609" lon="-113.962863"><ele>2478.5</ele></trkpt>
      <trkpt lat="43.763487" lon="-113.962904"><ele>2476.2</ele></trkpt>
      <trkpt lat="43.763270" lon="-113.962901"><ele>2470.0</ele></trkpt>
      <trkpt lat="43.763272" lon="-113.962718"><ele>2466.0</ele></trkpt>
      <trkpt lat="43.763323" lon="-113.962198"><ele>2457.5</ele></trkpt>
      <trkpt lat="43.763487" lon="-113.961721"><ele>2453.0</ele></trkpt>
      <trkpt lat="43.763516" lon="-113.961455"><ele>2449.2</ele></trkpt>
      <trkpt lat="43.763576" lon="-113.961308"><ele>2448.2</ele></trkpt>
      <trkpt lat="43.763447" lon="-113.961039"><ele>2441.0</ele></trkpt>
      <trkpt lat="43.763346" lon="-113.960723"><ele>2433.2</ele></trkpt>
      <trkpt lat="43.763164" lon="-113.960731"><ele>2429.8</ele></trkpt>
      <trkpt lat="43.762991" lon="-113.960967"><ele>2430.0</ele></trkpt>
      <trkpt lat="43.762970" lon="-113.960900"><ele>2428.5</ele></trkpt>
      <trkpt lat="43.762893" lon="-113.960549"><ele>2422.0</ele></trkpt>
      <trkpt lat="43.763019" lon="-113.960015"><ele>2416.2</ele></trkpt>
      <trkpt lat="43.762962" lon="-113.959951"><ele>2415.0</ele></trkpt>
      <trkpt lat="43.763121" lon="-113.959607"><ele>2413.8</ele></trkpt>
      <trkpt lat="43.763298" lon="-113.959280"><ele>2411.8</ele></trkpt>
      <trkpt lat="43.763675" lon="-113.959036"><ele>2415.0</ele></trkpt>
      <trkpt lat="43.763824" lon="-113.958904"><ele>2415.5</ele></trkpt>
      <trkpt lat="43.764074" lon="-113.958634"><ele>2414.8</ele></trkpt>
      <trkpt lat="43.764462" lon="-113.958572"><ele>2420.2</ele></trkpt>
      <trkpt lat="43.764640" lon="-113.958373"><ele>2420.0</ele></trkpt>
      <trkpt lat="43.764731" lon="-113.958081"><ele>2418.0</ele></trkpt>
      <trkpt lat="43.764679" lon="-113.957671"><ele>2412.5</ele></trkpt>
      <trkpt lat="43.764721" lon="-113.957373"><ele>2410.2</ele></trkpt>
      <trkpt lat="43.764646" lon="-113.957027"><ele>2406.8</ele></trkpt>
      <trkpt lat="43.764706" lon="-113.956887"><ele>2406.5</ele></trkpt>
      <trkpt lat="43.764605" lon="-113.956710"><ele>2404.2</ele></trkpt>
      <trkpt lat="43.764576" lon="-113.956295"><ele>2403.5</ele></trkpt>
      <trkpt lat="43.764679" lon="-113.955975"><ele>2404.0</ele></trkpt>
      <trkpt lat="43.764967" lon="-113.955670"><ele>2404.0</ele></trkpt>
      <trkpt lat="43.765231" lon="-113.955316"><ele>2401.8</ele></trkpt>
      <trkpt lat="43.765300" lon="-113.955139"><ele>2400.2</ele></trkpt>
      <trkpt lat="43.765413" lon="-113.955088"><ele>2400.2</ele></trkpt>
      <trkpt lat="43.765545" lon="-113.955010"><ele>2400.2</ele></trkpt>
      <trkpt lat="43.765676" lon="-113.954876"><ele>2400.0</ele></trkpt>
      <trkpt lat="43.765837" lon="-113.954626"><ele>2399.2</ele></trkpt>
      <trkpt lat="43.766203" lon="-113.954334"><ele>2403.8</ele></trkpt>
      <trkpt lat="43.766358" lon="-113.953964"><ele>2403.2</ele></trkpt>
      <trkpt lat="43.766604" lon="-113.953234"><ele>2399.0</ele></trkpt>
      <trkpt lat="43.766846" lon="-113.952478"><ele>2400.2</ele></trkpt>
      <trkpt lat="43.767080" lon="-113.951955"><ele>2398.5</ele></trkpt>
      <trkpt lat="43.767505" lon="-113.951263"><ele>2395.2</ele></trkpt>
      <trkpt lat="43.767573" lon="-113.951094"><ele>2394.8</ele></trkpt>
      <trkpt lat="43.767689" lon="-113.950981"><ele>2396.2</ele></trkpt>
      <trkpt lat="43.767788" lon="-113.950780"><ele>2396.2</ele></trkpt>
      <trkpt lat="43.767875" lon="-113.950646"><ele>2397.2</ele></trkpt>
      <trkpt lat="43.768008" lon="-113.950182"><ele>2395.5</ele></trkpt>
      <trkpt lat="43.768249" lon="-113.949780"><ele>2395.2</ele></trkpt>
      <trkpt lat="43.768431" lon="-113.948972"><ele>2390.2</ele></trkpt>
      <trkpt lat="43.768702" lon="-113.948385"><ele>2389.8</ele></trkpt>
      <trkpt lat="43.769072" lon="-113.947097"><ele>2381.0</ele></trkpt>
      <trkpt lat="43.769230" lon="-113.946585"><ele>2379.0</ele></trkpt>
      <trkpt lat="43.769399" lon="-113.946244"><ele>2378.5</ele></trkpt>
      <trkpt lat="43.769349" lon="-113.946064"><ele>2377.5</ele></trkpt>
      <trkpt lat="43.769291" lon="-113.945990"><ele>2376.8</ele></trkpt>
      <trkpt lat="43.769492" lon="-113.945762"><ele>2376.2</ele></trkpt>
      <trkpt lat="43.769426" lon="-113.945410"><ele>2374.2</ele></trkpt>
      <trkpt lat="43.769329" lon="-113.944984"><ele>2372.5</ele></trkpt>
      <trkpt lat="43.769275" lon="-113.944906"><ele>2373.5</ele></trkpt>
      <trkpt lat="43.769283" lon="-113.944648"><ele>2375.5</ele></trkpt>
      <trkpt lat="43.769157" lon="-113.944278"><ele>2379.0</ele></trkpt>
      <trkpt lat="43.769010" lon="-113.944037"><ele>2382.0</ele></trkpt>
      <trkpt lat="43.768994" lon="-113.943908"><ele>2383.5</ele></trkpt>
      <trkpt lat="43.768804" lon="-113.943669"><ele>2386.5</ele></trkpt>
      <trkpt lat="43.768760" lon="-113.943487"><ele>2388.0</ele></trkpt>
      <trkpt lat="43.768498" lon="-113.943256"><ele>2389.8</ele></trkpt>
      <trkpt lat="43.768379" lon="-113.943142"><ele>2389.8</ele></trkpt>
    </trkseg>
  </trk>
</gpx>
