<?xml version="1.0" encoding="UTF-8"?>
<gpx version="1.1" creator="pathbeaters26" xmlns="http://www.topografix.com/GPX/1/1" xmlns:xsi="http://www.w3.org/2001/XMLSchema-instance" xsi:schemaLocation="http://www.topografix.com/GPX/1/1 http://www.topografix.com/GPX/1/1/gpx.xsd">
  <metadata>
    <name>Red Castle Lakes (+ Smiths Fork Pass)</name>
    <desc>Routed on OpenStreetMap trails with BRouter (hiking-mountain). Waypoints from OpenStreetMap.</desc>
  </metadata>
  <wpt lat="40.927000" lon="-110.407000">
    <ele>2890.5</ele>
    <name>China Meadows TH</name>
    <type>Trailhead</type>
  </wpt>
  <wpt lat="40.904480" lon="-110.408030">
    <ele>2933.0</ele>
    <name>Thu camp · wilderness-boundary meadows</name>
    <type>Camp</type>
  </wpt>
  <wpt lat="40.812420" lon="-110.462670">
    <ele>3296.8</ele>
    <name>Fri camp · Lower Red Castle Lake</name>
    <type>Camp</type>
  </wpt>
  <wpt lat="40.812420" lon="-110.462670">
    <ele>3296.8</ele>
    <name>Sat camp · Lower Red Castle Lake</name>
    <type>Camp</type>
  </wpt>
  <wpt lat="40.853030" lon="-110.456800">
    <ele>3122.8</ele>
    <name>Sun camp · Broadbent Meadow</name>
    <type>Camp</type>
  </wpt>
  <wpt lat="40.853030" lon="-110.456800">
    <ele>3122.8</ele>
    <name>Broadbent Meadow</name>
    <type>Waypoint</type>
  </wpt>
  <wpt lat="40.788450" lon="-110.473390">
    <ele>3445.0</ele>
    <name>Red Castle Lake</name>
    <type>Waypoint</type>
  </wpt>
  <wpt lat="40.779420" lon="-110.475310">
    <ele>3445.0</ele>
    <name>Upper Red Castle Lake</name>
    <type>Waypoint</type>
  </wpt>
  <wpt lat="40.779960" lon="-110.442640">
    <ele>3598.0</ele>
    <name>Smiths Fork Pass</name>
    <type>Waypoint</type>
  </wpt>
  <trk>
    <name>Red Castle Lakes (+ Smiths Fork Pass)</name>
    <!-- Thu: walk in to the wilderness-boundary meadows (2.0 mi, 222 ft up) -->
    <trkseg>
      <trkpt lat="40.926824" lon="-110.406627"><ele>2890.5</ele></trkpt>
      <trkpt lat="40.927123" lon="-110.406412"><ele>2889.8</ele></trkpt>
      <trkpt lat="40.927581" lon="-110.406236"><ele>2889.2</ele></trkpt>
      <trkpt lat="40.927704" lon="-110.405776"><ele>2888.5</ele></trkpt>
      <trkpt lat="40.927736" lon="-110.405365"><ele>2886.5</ele></trkpt>
      <trkpt lat="40.927783" lon="-110.404918"><ele>2884.2</ele></trkpt>
      <trkpt lat="40.927664" lon="-110.404683"><ele>2882.8</ele></trkpt>
      <trkpt lat="40.926963" lon="-110.405219"><ele>2886.0</ele></trkpt>
      <trkpt lat="40.926320" lon="-110.406138"><ele>2892.5</ele></trkpt>
      <trkpt lat="40.926048" lon="-110.406400"><ele>2894.5</ele></trkpt>
      <trkpt lat="40.925730" lon="-110.406563"><ele>2895.8</ele></trkpt>
      <trkpt lat="40.924942" lon="-110.406978"><ele>2898.8</ele></trkpt>
      <trkpt lat="40.924655" lon="-110.406996"><ele>2898.5</ele></trkpt>
      <trkpt lat="40.924423" lon="-110.406852"><ele>2898.8</ele></trkpt>
      <trkpt lat="40.924243" lon="-110.406568"><ele>2898.8</ele></trkpt>
      <trkpt lat="40.924187" lon="-110.406394"><ele>2898.5</ele></trkpt>
      <trkpt lat="40.924174" lon="-110.406158"><ele>2898.2</ele></trkpt>
      <trkpt lat="40.924152" lon="-110.406019"><ele>2898.0</ele></trkpt>
      <trkpt lat="40.923977" lon="-110.405889"><ele>2897.2</ele></trkpt>
      <trkpt lat="40.923587" lon="-110.405799"><ele>2895.5</ele></trkpt>
      <trkpt lat="40.923465" lon="-110.405688"><ele>2894.5</ele></trkpt>
      <trkpt lat="40.923321" lon="-110.405452"><ele>2892.8</ele></trkpt>
      <trkpt lat="40.923077" lon="-110.404954"><ele>2891.2</ele></trkpt>
      <trkpt lat="40.923041" lon="-110.404719"><ele>2890.8</ele></trkpt>
      <trkpt lat="40.922941" lon="-110.404540"><ele>2890.8</ele></trkpt>
      <trkpt lat="40.922878" lon="-110.404581"><ele>2891.2</ele></trkpt>
      <trkpt lat="40.922774" lon="-110.404577"><ele>2892.0</ele></trkpt>
      <trkpt lat="40.922573" lon="-110.404573"><ele>2893.0</ele></trkpt>
      <trkpt lat="40.922375" lon="-110.404498"><ele>2895.0</ele></trkpt>
      <trkpt lat="40.921914" lon="-110.403956"><ele>2898.5</ele></trkpt>
      <trkpt lat="40.921656" lon="-110.403416"><ele>2896.8</ele></trkpt>
      <trkpt lat="40.921115" lon="-110.403085"><ele>2898.8</ele></trkpt>
      <trkpt lat="40.920415" lon="-110.402790"><ele>2895.0</ele></trkpt>
      <trkpt lat="40.919532" lon="-110.403122"><ele>2899.8</ele></trkpt>
      <trkpt lat="40.919001" lon="-110.403450"><ele>2902.0</ele></trkpt>
      <trkpt lat="40.918557" lon="-110.403521"><ele>2902.0</ele></trkpt>
      <trkpt lat="40.917905" lon="-110.403383"><ele>2900.0</ele></trkpt>
      <trkpt lat="40.916707" lon="-110.403278"><ele>2896.0</ele></trkpt>
      <trkpt lat="40.915941" lon="-110.403456"><ele>2899.0</ele></trkpt>
      <trkpt lat="40.914962" lon="-110.403458"><ele>2903.2</ele></trkpt>
      <trkpt lat="40.914548" lon="-110.403843"><ele>2906.8</ele></trkpt>
      <trkpt lat="40.913710" lon="-110.403999"><ele>2908.2</ele></trkpt>
      <trkpt lat="40.912927" lon="-110.404360"><ele>2912.0</ele></trkpt>
      <trkpt lat="40.912422" lon="-110.405048"><ele>2920.0</ele></trkpt>
      <trkpt lat="40.912110" lon="-110.405416"><ele>2920.8</ele></trkpt>
      <trkpt lat="40.910519" lon="-110.406014"><ele>2924.0</ele></trkpt>
      <trkpt lat="40.909540" lon="-110.406124"><ele>2926.0</ele></trkpt>
      <trkpt lat="40.908579" lon="-110.406050"><ele>2926.5</ele></trkpt>
      <trkpt lat="40.908021" lon="-110.406301"><ele>2926.8</ele></trkpt>
      <trkpt lat="40.907453" lon="-110.406543"><ele>2928.8</ele></trkpt>
      <trkpt lat="40.906575" lon="-110.406874"><ele>2931.0</ele></trkpt>
      <trkpt lat="40.906045" lon="-110.407464"><ele>2931.2</ele></trkpt>
      <trkpt lat="40.905630" lon="-110.407938"><ele>2934.0</ele></trkpt>
      <trkpt lat="40.904480" lon="-110.408030"><ele>2933.0</ele></trkpt>
    </trkseg>
    <!-- Fri: to Lower Red Castle Lake (8.3 mi, 1289 ft up) -->
    <trkseg>
      <trkpt lat="40.904480" lon="-110.408030"><ele>2933.5</ele></trkpt>
      <trkpt lat="40.904107" lon="-110.408001"><ele>2932.8</ele></trkpt>
      <trkpt lat="40.903011" lon="-110.408321"><ele>2934.5</ele></trkpt>
      <trkpt lat="40.902256" lon="-110.408948"><ele>2941.2</ele></trkpt>
      <trkpt lat="40.901793" lon="-110.409321"><ele>2942.8</ele></trkpt>
      <trkpt lat="40.901623" lon="-110.409867"><ele>2947.5</ele></trkpt>
      <trkpt lat="40.900960" lon="-110.410560"><ele>2950.8</ele></trkpt>
      <trkpt lat="40.900641" lon="-110.410593"><ele>2950.0</ele></trkpt>
      <trkpt lat="40.899593" lon="-110.409916"><ele>2948.5</ele></trkpt>
      <trkpt lat="40.898815" lon="-110.410067"><ele>2950.8</ele></trkpt>
      <trkpt lat="40.898305" lon="-110.410990"><ele>2956.0</ele></trkpt>
      <trkpt lat="40.897920" lon="-110.411956"><ele>2961.5</ele></trkpt>
      <trkpt lat="40.897230" lon="-110.412669"><ele>2965.5</ele></trkpt>
      <trkpt lat="40.896599" lon="-110.412910"><ele>2965.5</ele></trkpt>
      <trkpt lat="40.895153" lon="-110.413467"><ele>2966.0</ele></trkpt>
      <trkpt lat="40.894116" lon="-110.413899"><ele>2968.2</ele></trkpt>
      <trkpt lat="40.893239" lon="-110.414744"><ele>2970.0</ele></trkpt>
      <trkpt lat="40.892970" lon="-110.415007"><ele>2972.8</ele></trkpt>
      <trkpt lat="40.892442" lon="-110.415194"><ele>2976.5</ele></trkpt>
      <trkpt lat="40.892120" lon="-110.415976"><ele>2981.2</ele></trkpt>
      <trkpt lat="40.891065" lon="-110.417265"><ele>2986.2</ele></trkpt>
      <trkpt lat="40.890018" lon="-110.418795"><ele>2990.8</ele></trkpt>
      <trkpt lat="40.889021" lon="-110.419733"><ele>2995.0</ele></trkpt>
      <trkpt lat="40.888186" lon="-110.421010"><ele>3002.8</ele></trkpt>
      <trkpt lat="40.887752" lon="-110.421921"><ele>3005.8</ele></trkpt>
      <trkpt lat="40.887099" lon="-110.423541"><ele>3009.2</ele></trkpt>
      <trkpt lat="40.886637" lon="-110.425065"><ele>3011.2</ele></trkpt>
      <trkpt lat="40.886629" lon="-110.426116"><ele>3015.2</ele></trkpt>
      <trkpt lat="40.886822" lon="-110.426634"><ele>3018.2</ele></trkpt>
      <trkpt lat="40.887099" lon="-110.427961"><ele>3018.5</ele></trkpt>
      <trkpt lat="40.887188" lon="-110.429539"><ele>3014.8</ele></trkpt>
      <trkpt lat="40.886507" lon="-110.431031"><ele>3014.5</ele></trkpt>
      <trkpt lat="40.885386" lon="-110.432704"><ele>3017.0</ele></trkpt>
      <trkpt lat="40.884857" lon="-110.433354"><ele>3015.5</ele></trkpt>
      <trkpt lat="40.884353" lon="-110.433191"><ele>3014.8</ele></trkpt>
      <trkpt lat="40.883162" lon="-110.432556"><ele>3016.0</ele></trkpt>
      <trkpt lat="40.882394" lon="-110.433171"><ele>3015.2</ele></trkpt>
      <trkpt lat="40.881861" lon="-110.433623"><ele>3017.0</ele></trkpt>
      <trkpt lat="40.881807" lon="-110.434702"><ele>3015.5</ele></trkpt>
      <trkpt lat="40.880749" lon="-110.436782"><ele>3015.8</ele></trkpt>
      <trkpt lat="40.880013" lon="-110.438225"><ele>3020.2</ele></trkpt>
      <trkpt lat="40.879279" lon="-110.439917"><ele>3020.2</ele></trkpt>
      <trkpt lat="40.878519" lon="-110.441622"><ele>3020.0</ele></trkpt>
      <trkpt lat="40.877740" lon="-110.442702"><ele>3024.5</ele></trkpt>
      <trkpt lat="40.876743" lon="-110.443652"><ele>3029.2</ele></trkpt>
      <trkpt lat="40.875648" lon="-110.444619"><ele>3031.8</ele></trkpt>
      <trkpt lat="40.875313" lon="-110.445005"><ele>3031.5</ele></trkpt>
      <trkpt lat="40.874553" lon="-110.445263"><ele>3035.2</ele></trkpt>
      <trkpt lat="40.873230" lon="-110.446351"><ele>3038.0</ele></trkpt>
      <trkpt lat="40.872279" lon="-110.447145"><ele>3041.2</ele></trkpt>
      <trkpt lat="40.870937" lon="-110.448494"><ele>3043.0</ele></trkpt>
      <trkpt lat="40.870073" lon="-110.449095"><ele>3044.8</ele></trkpt>
      <trkpt lat="40.869193" lon="-110.449361"><ele>3050.2</ele></trkpt>
      <trkpt lat="40.868277" lon="-110.449245"><ele>3055.5</ele></trkpt>
      <trkpt lat="40.866951" lon="-110.448819"><ele>3057.0</ele></trkpt>
      <trkpt lat="40.866413" lon="-110.448216"><ele>3061.2</ele></trkpt>
      <trkpt lat="40.866378" lon="-110.447752"><ele>3066.5</ele></trkpt>
      <trkpt lat="40.865081" lon="-110.447621"><ele>3068.8</ele></trkpt>
      <trkpt lat="40.863493" lon="-110.448111"><ele>3067.5</ele></trkpt>
      <trkpt lat="40.862598" lon="-110.448555"><ele>3067.2</ele></trkpt>
      <trkpt lat="40.861020" lon="-110.448670"><ele>3074.0</ele></trkpt>
      <trkpt lat="40.859752" lon="-110.449020"><ele>3079.0</ele></trkpt>
      <trkpt lat="40.858112" lon="-110.449590"><ele>3083.5</ele></trkpt>
      <trkpt lat="40.855532" lon="-110.449935"><ele>3104.0</ele></trkpt>
      <trkpt lat="40.854299" lon="-110.450229"><ele>3114.0</ele></trkpt>
      <trkpt lat="40.853816" lon="-110.450377"><ele>3115.0</ele></trkpt>
      <trkpt lat="40.853467" lon="-110.450703"><ele>3113.8</ele></trkpt>
      <trkpt lat="40.853339" lon="-110.451475"><ele>3111.5</ele></trkpt>
      <trkpt lat="40.853407" lon="-110.452124"><ele>3113.2</ele></trkpt>
      <trkpt lat="40.853313" lon="-110.452648"><ele>3116.8</ele></trkpt>
      <trkpt lat="40.852743" lon="-110.453934"><ele>3120.0</ele></trkpt>
      <trkpt lat="40.851936" lon="-110.454668"><ele>3124.2</ele></trkpt>
      <trkpt lat="40.851686" lon="-110.455294"><ele>3122.8</ele></trkpt>
      <trkpt lat="40.851101" lon="-110.456027"><ele>3124.8</ele></trkpt>
      <trkpt lat="40.850668" lon="-110.456609"><ele>3124.2</ele></trkpt>
      <trkpt lat="40.850174" lon="-110.457511"><ele>3123.2</ele></trkpt>
      <trkpt lat="40.849676" lon="-110.457689"><ele>3127.5</ele></trkpt>
      <trkpt lat="40.848873" lon="-110.457984"><ele>3131.0</ele></trkpt>
      <trkpt lat="40.847660" lon="-110.458145"><ele>3133.8</ele></trkpt>
      <trkpt lat="40.846407" lon="-110.458401"><ele>3131.2</ele></trkpt>
      <trkpt lat="40.844967" lon="-110.458401"><ele>3134.8</ele></trkpt>
      <trkpt lat="40.843996" lon="-110.458865"><ele>3141.2</ele></trkpt>
      <trkpt lat="40.843114" lon="-110.459404"><ele>3144.0</ele></trkpt>
      <trkpt lat="40.841001" lon="-110.460619"><ele>3149.5</ele></trkpt>
      <trkpt lat="40.840064" lon="-110.460764"><ele>3152.2</ele></trkpt>
      <trkpt lat="40.839363" lon="-110.460598"><ele>3155.2</ele></trkpt>
      <trkpt lat="40.839209" lon="-110.460701"><ele>3154.8</ele></trkpt>
      <trkpt lat="40.839079" lon="-110.461060"><ele>3155.5</ele></trkpt>
      <trkpt lat="40.838091" lon="-110.461204"><ele>3158.2</ele></trkpt>
      <trkpt lat="40.837154" lon="-110.461330"><ele>3161.2</ele></trkpt>
      <trkpt lat="40.835400" lon="-110.461191"><ele>3166.5</ele></trkpt>
      <trkpt lat="40.834030" lon="-110.461034"><ele>3171.8</ele></trkpt>
      <trkpt lat="40.832638" lon="-110.461102"><ele>3184.2</ele></trkpt>
      <trkpt lat="40.832093" lon="-110.461418"><ele>3190.5</ele></trkpt>
      <trkpt lat="40.831375" lon="-110.461737"><ele>3198.2</ele></trkpt>
      <trkpt lat="40.831656" lon="-110.462149"><ele>3204.0</ele></trkpt>
      <trkpt lat="40.831411" lon="-110.462333"><ele>3207.8</ele></trkpt>
      <trkpt lat="40.830382" lon="-110.462686"><ele>3223.2</ele></trkpt>
      <trkpt lat="40.829986" lon="-110.462771"><ele>3228.2</ele></trkpt>
      <trkpt lat="40.829983" lon="-110.462888"><ele>3231.0</ele></trkpt>
      <trkpt lat="40.830661" lon="-110.463126"><ele>3230.2</ele></trkpt>
      <trkpt lat="40.830070" lon="-110.463253"><ele>3239.2</ele></trkpt>
      <trkpt lat="40.829435" lon="-110.463578"><ele>3237.5</ele></trkpt>
      <trkpt lat="40.829611" lon="-110.463694"><ele>3241.2</ele></trkpt>
      <trkpt lat="40.829841" lon="-110.463738"><ele>3244.8</ele></trkpt>
      <trkpt lat="40.829518" lon="-110.464180"><ele>3246.2</ele></trkpt>
      <trkpt lat="40.828477" lon="-110.464877"><ele>3250.0</ele></trkpt>
      <trkpt lat="40.827531" lon="-110.465409"><ele>3252.0</ele></trkpt>
      <trkpt lat="40.826897" lon="-110.465751"><ele>3256.5</ele></trkpt>
      <trkpt lat="40.826408" lon="-110.465669"><ele>3256.2</ele></trkpt>
      <trkpt lat="40.826180" lon="-110.465696"><ele>3256.2</ele></trkpt>
      <trkpt lat="40.825795" lon="-110.465862"><ele>3255.5</ele></trkpt>
      <trkpt lat="40.824807" lon="-110.465989"><ele>3262.2</ele></trkpt>
      <trkpt lat="40.823932" lon="-110.466133"><ele>3267.8</ele></trkpt>
      <trkpt lat="40.822659" lon="-110.466263"><ele>3275.0</ele></trkpt>
      <trkpt lat="40.821864" lon="-110.466390"><ele>3275.5</ele></trkpt>
      <trkpt lat="40.821172" lon="-110.466728"><ele>3279.0</ele></trkpt>
      <trkpt lat="40.820215" lon="-110.466734"><ele>3281.8</ele></trkpt>
      <trkpt lat="40.819613" lon="-110.466822"><ele>3286.0</ele></trkpt>
      <trkpt lat="40.818830" lon="-110.466736"><ele>3288.2</ele></trkpt>
      <trkpt lat="40.817947" lon="-110.466546"><ele>3288.5</ele></trkpt>
      <trkpt lat="40.817238" lon="-110.466388"><ele>3289.5</ele></trkpt>
      <trkpt lat="40.816488" lon="-110.466321"><ele>3292.8</ele></trkpt>
      <trkpt lat="40.815603" lon="-110.466341"><ele>3296.0</ele></trkpt>
      <trkpt lat="40.814859" lon="-110.466251"><ele>3298.2</ele></trkpt>
      <trkpt lat="40.814539" lon="-110.466151"><ele>3298.5</ele></trkpt>
      <trkpt lat="40.814241" lon="-110.466038"><ele>3298.2</ele></trkpt>
      <trkpt lat="40.813699" lon="-110.465885"><ele>3298.0</ele></trkpt>
      <trkpt lat="40.813241" lon="-110.465590"><ele>3296.8</ele></trkpt>
      <trkpt lat="40.812971" lon="-110.465655"><ele>3297.5</ele></trkpt>
      <trkpt lat="40.812829" lon="-110.465568"><ele>3296.8</ele></trkpt>
    </trkseg>
    <!-- Sat: day pack: Upper Red Castle Lake and the Smiths Fork Pass overlook (14.5 mi, 1851 ft up) -->
    <trkseg>
      <trkpt lat="40.812829" lon="-110.465568"><ele>3296.8</ele></trkpt>
      <trkpt lat="40.812398" lon="-110.465675"><ele>3297.8</ele></trkpt>
      <trkpt lat="40.811816" lon="-110.465749"><ele>3297.2</ele></trkpt>
      <trkpt lat="40.811224" lon="-110.465724"><ele>3293.2</ele></trkpt>
      <trkpt lat="40.810985" lon="-110.465749"><ele>3291.8</ele></trkpt>
      <trkpt lat="40.810366" lon="-110.465985"><ele>3289.8</ele></trkpt>
      <trkpt lat="40.809980" lon="-110.466181"><ele>3289.5</ele></trkpt>
      <trkpt lat="40.809533" lon="-110.466540"><ele>3293.5</ele></trkpt>
      <trkpt lat="40.809303" lon="-110.466551"><ele>3293.2</ele></trkpt>
      <trkpt lat="40.808893" lon="-110.466599"><ele>3295.2</ele></trkpt>
      <trkpt lat="40.807720" lon="-110.466964"><ele>3304.8</ele></trkpt>
      <trkpt lat="40.807419" lon="-110.467278"><ele>3308.2</ele></trkpt>
      <trkpt lat="40.807122" lon="-110.467729"><ele>3312.8</ele></trkpt>
      <trkpt lat="40.806830" lon="-110.468236"><ele>3315.2</ele></trkpt>
      <trkpt lat="40.806451" lon="-110.468501"><ele>3316.2</ele></trkpt>
      <trkpt lat="40.805752" lon="-110.468952"><ele>3316.2</ele></trkpt>
      <trkpt lat="40.805218" lon="-110.469636"><ele>3317.0</ele></trkpt>
      <trkpt lat="40.804846" lon="-110.470001"><ele>3316.5</ele></trkpt>
      <trkpt lat="40.804544" lon="-110.470122"><ele>3319.0</ele></trkpt>
      <trkpt lat="40.804434" lon="-110.470232"><ele>3320.2</ele></trkpt>
      <trkpt lat="40.804178" lon="-110.470473"><ele>3322.8</ele></trkpt>
      <trkpt lat="40.803900" lon="-110.470624"><ele>3327.0</ele></trkpt>
      <trkpt lat="40.803594" lon="-110.470856"><ele>3332.5</ele></trkpt>
      <trkpt lat="40.802431" lon="-110.471611"><ele>3348.8</ele></trkpt>
      <trkpt lat="40.802077" lon="-110.471959"><ele>3353.5</ele></trkpt>
      <trkpt lat="40.800893" lon="-110.473349"><ele>3371.5</ele></trkpt>
      <trkpt lat="40.800342" lon="-110.473900"><ele>3375.8</ele></trkpt>
      <trkpt lat="40.800053" lon="-110.474475"><ele>3379.8</ele></trkpt>
      <trkpt lat="40.799445" lon="-110.475253"><ele>3381.8</ele></trkpt>
      <trkpt lat="40.798865" lon="-110.476167"><ele>3384.2</ele></trkpt>
      <trkpt lat="40.798351" lon="-110.476817"><ele>3385.2</ele></trkpt>
      <trkpt lat="40.798251" lon="-110.477384"><ele>3386.8</ele></trkpt>
      <trkpt lat="40.798308" lon="-110.478056"><ele>3387.8</ele></trkpt>
      <trkpt lat="40.798336" lon="-110.478506"><ele>3390.0</ele></trkpt>
      <trkpt lat="40.798073" lon="-110.478870"><ele>3396.0</ele></trkpt>
      <trkpt lat="40.797846" lon="-110.479375"><ele>3400.8</ele></trkpt>
      <trkpt lat="40.797581" lon="-110.479465"><ele>3402.5</ele></trkpt>
      <trkpt lat="40.797305" lon="-110.479911"><ele>3408.0</ele></trkpt>
      <trkpt lat="40.796044" lon="-110.479817"><ele>3431.5</ele></trkpt>
      <trkpt lat="40.794449" lon="-110.479377"><ele>3456.0</ele></trkpt>
      <trkpt lat="40.793214" lon="-110.478862"><ele>3453.2</ele></trkpt>
      <trkpt lat="40.792259" lon="-110.478258"><ele>3445.0</ele></trkpt>
      <trkpt lat="40.788089" lon="-110.473467"><ele>3445.0</ele></trkpt>
      <trkpt lat="40.787366" lon="-110.473620"><ele>3445.0</ele></trkpt>
      <trkpt lat="40.786644" lon="-110.473774"><ele>3445.0</ele></trkpt>
      <trkpt lat="40.785922" lon="-110.473928"><ele>3445.0</ele></trkpt>
      <trkpt lat="40.785199" lon="-110.474081"><ele>3445.0</ele></trkpt>
      <trkpt lat="40.784477" lon="-110.474235"><ele>3445.0</ele></trkpt>
      <trkpt lat="40.783754" lon="-110.474388"><ele>3445.0</ele></trkpt>
      <trkpt lat="40.783032" lon="-110.474542"><ele>3445.0</ele></trkpt>
      <trkpt lat="40.782310" lon="-110.474696"><ele>3445.0</ele></trkpt>
      <trkpt lat="40.781587" lon="-110.474849"><ele>3445.0</ele></trkpt>
      <trkpt lat="40.780865" lon="-110.475003"><ele>3445.0</ele></trkpt>
      <trkpt lat="40.780142" lon="-110.475156"><ele>3445.0</ele></trkpt>
      <trkpt lat="40.779420" lon="-110.475310"><ele>3445.0</ele></trkpt>
      <trkpt lat="40.780142" lon="-110.475156"><ele>3445.0</ele></trkpt>
      <trkpt lat="40.780865" lon="-110.475003"><ele>3445.0</ele></trkpt>
      <trkpt lat="40.781587" lon="-110.474849"><ele>3445.0</ele></trkpt>
      <trkpt lat="40.782310" lon="-110.474696"><ele>3445.0</ele></trkpt>
      <trkpt lat="40.783032" lon="-110.474542"><ele>3445.0</ele></trkpt>
      <trkpt lat="40.783754" lon="-110.474388"><ele>3445.0</ele></trkpt>
      <trkpt lat="40.784477" lon="-110.474235"><ele>3445.0</ele></trkpt>
      <trkpt lat="40.785199" lon="-110.474081"><ele>3445.0</ele></trkpt>
      <trkpt lat="40.785922" lon="-110.473928"><ele>3445.0</ele></trkpt>
      <trkpt lat="40.786644" lon="-110.473774"><ele>3445.0</ele></trkpt>
      <trkpt lat="40.787366" lon="-110.473620"><ele>3445.0</ele></trkpt>
      <trkpt lat="40.788089" lon="-110.473467"><ele>3445.0</ele></trkpt>
      <trkpt lat="40.792259" lon="-110.478258"><ele>3445.0</ele></trkpt>
      <trkpt lat="40.793214" lon="-110.478862"><ele>3453.2</ele></trkpt>
      <trkpt lat="40.794449" lon="-110.479377"><ele>3456.0</ele></trkpt>
      <trkpt lat="40.796044" lon="-110.479817"><ele>3431.5</ele></trkpt>
      <trkpt lat="40.797305" lon="-110.479911"><ele>3408.0</ele></trkpt>
      <trkpt lat="40.797581" lon="-110.479465"><ele>3402.5</ele></trkpt>
      <trkpt lat="40.797846" lon="-110.479375"><ele>3400.8</ele></trkpt>
      <trkpt lat="40.798073" lon="-110.478870"><ele>3396.0</ele></trkpt>
      <trkpt lat="40.798336" lon="-110.478506"><ele>3390.0</ele></trkpt>
      <trkpt lat="40.798308" lon="-110.478056"><ele>3387.8</ele></trkpt>
      <trkpt lat="40.798251" lon="-110.477384"><ele>3386.8</ele></trkpt>
      <trkpt lat="40.798351" lon="-110.476817"><ele>3385.2</ele></trkpt>
      <trkpt lat="40.798865" lon="-110.476167"><ele>3384.2</ele></trkpt>
      <trkpt lat="40.799445" lon="-110.475253"><ele>3381.8</ele></trkpt>
      <trkpt lat="40.800053" lon="-110.474475"><ele>3379.8</ele></trkpt>
      <trkpt lat="40.800342" lon="-110.473900"><ele>3375.8</ele></trkpt>
      <trkpt lat="40.800893" lon="-110.473349"><ele>3371.5</ele></trkpt>
      <trkpt lat="40.802077" lon="-110.471959"><ele>3353.5</ele></trkpt>
      <trkpt lat="40.802431" lon="-110.471611"><ele>3348.8</ele></trkpt>
      <trkpt lat="40.803594" lon="-110.470856"><ele>3332.5</ele></trkpt>
      <trkpt lat="40.803900" lon="-110.470624"><ele>3327.0</ele></trkpt>
      <trkpt lat="40.804178" lon="-110.470473"><ele>3322.8</ele></trkpt>
      <trkpt lat="40.804434" lon="-110.470232"><ele>3320.2</ele></trkpt>
      <trkpt lat="40.804544" lon="-110.470122"><ele>3319.0</ele></trkpt>
      <trkpt lat="40.804846" lon="-110.470001"><ele>3316.5</ele></trkpt>
      <trkpt lat="40.805218" lon="-110.469636"><ele>3317.0</ele></trkpt>
      <trkpt lat="40.805752" lon="-110.468952"><ele>3316.2</ele></trkpt>
      <trkpt lat="40.806451" lon="-110.468501"><ele>3316.2</ele></trkpt>
      <trkpt lat="40.806830" lon="-110.468236"><ele>3315.2</ele></trkpt>
      <trkpt lat="40.807122" lon="-110.467729"><ele>3312.8</ele></trkpt>
      <trkpt lat="40.807419" lon="-110.467278"><ele>3308.2</ele></trkpt>
      <trkpt lat="40.807720" lon="-110.466964"><ele>3304.8</ele></trkpt>
      <trkpt lat="40.808893" lon="-110.466599"><ele>3295.2</ele></trkpt>
      <trkpt lat="40.809303" lon="-110.466551"><ele>3293.2</ele></trkpt>
      <trkpt lat="40.809533" lon="-110.466540"><ele>3293.5</ele></trkpt>
      <trkpt lat="40.809980" lon="-110.466181"><ele>3289.5</ele></trkpt>
      <trkpt lat="40.810366" lon="-110.465985"><ele>3289.8</ele></trkpt>
      <trkpt lat="40.810985" lon="-110.465749"><ele>3291.8</ele></trkpt>
      <trkpt lat="40.811224" lon="-110.465724"><ele>3293.2</ele></trkpt>
      <trkpt lat="40.811816" lon="-110.465749"><ele>3297.2</ele></trkpt>
      <trkpt lat="40.812398" lon="-110.465675"><ele>3297.8</ele></trkpt>
      <trkpt lat="40.812829" lon="-110.465568"><ele>3296.8</ele></trkpt>
      <trkpt lat="40.813151" lon="-110.465591"><ele>3296.8</ele></trkpt>
      <trkpt lat="40.813513" lon="-110.465741"><ele>3297.2</ele></trkpt>
      <trkpt lat="40.813904" lon="-110.465921"><ele>3297.5</ele></trkpt>
      <trkpt lat="40.814405" lon="-110.466068"><ele>3297.8</ele></trkpt>
      <trkpt lat="40.814738" lon="-110.466167"><ele>3297.5</ele></trkpt>
      <trkpt lat="40.815129" lon="-110.466228"><ele>3296.5</ele></trkpt>
      <trkpt lat="40.815955" lon="-110.466483"><ele>3296.2</ele></trkpt>
      <trkpt lat="40.816646" lon="-110.466381"><ele>3293.2</ele></trkpt>
      <trkpt lat="40.817562" lon="-110.466410"><ele>3288.0</ele></trkpt>
      <trkpt lat="40.818502" lon="-110.466575"><ele>3286.8</ele></trkpt>
      <trkpt lat="40.819303" lon="-110.466708"><ele>3285.2</ele></trkpt>
      <trkpt lat="40.819825" lon="-110.466836"><ele>3285.0</ele></trkpt>
      <trkpt lat="40.820697" lon="-110.466721"><ele>3280.5</ele></trkpt>
      <trkpt lat="40.821628" lon="-110.466523"><ele>3275.8</ele></trkpt>
      <trkpt lat="40.822016" lon="-110.466228"><ele>3275.0</ele></trkpt>
      <trkpt lat="40.821961" lon="-110.465969"><ele>3274.0</ele></trkpt>
      <trkpt lat="40.821884" lon="-110.465575"><ele>3276.2</ele></trkpt>
      <trkpt lat="40.821622" lon="-110.464760"><ele>3283.8</ele></trkpt>
      <trkpt lat="40.821339" lon="-110.463454"><ele>3289.0</ele></trkpt>
      <trkpt lat="40.821091" lon="-110.462480"><ele>3289.8</ele></trkpt>
      <trkpt lat="40.821024" lon="-110.461930"><ele>3291.5</ele></trkpt>
      <trkpt lat="40.820934" lon="-110.461454"><ele>3293.5</ele></trkpt>
      <trkpt lat="40.820868" lon="-110.460823"><ele>3296.8</ele></trkpt>
      <trkpt lat="40.820539" lon="-110.460338"><ele>3300.8</ele></trkpt>
      <trkpt lat="40.820115" lon="-110.460328"><ele>3303.8</ele></trkpt>
      <trkpt lat="40.819462" lon="-110.460196"><ele>3310.8</ele></trkpt>
      <trkpt lat="40.819137" lon="-110.460126"><ele>3314.8</ele></trkpt>
      <trkpt lat="40.818771" lon="-110.460264"><ele>3316.2</ele></trkpt>
      <trkpt lat="40.818554" lon="-110.460259"><ele>3318.2</ele></trkpt>
      <trkpt lat="40.818400" lon="-110.460313"><ele>3319.0</ele></trkpt>
      <trkpt lat="40.818278" lon="-110.460109"><ele>3321.5</ele></trkpt>
      <trkpt lat="40.818173" lon="-110.459900"><ele>3322.2</ele></trkpt>
      <trkpt lat="40.817782" lon="-110.459342"><ele>3322.2</ele></trkpt>
      <trkpt lat="40.817533" lon="-110.459006"><ele>3322.5</ele></trkpt>
      <trkpt lat="40.817183" lon="-110.458487"><ele>3322.2</ele></trkpt>
      <trkpt lat="40.816982" lon="-110.458143"><ele>3322.5</ele></trkpt>
      <trkpt lat="40.816938" lon="-110.457904"><ele>3323.0</ele></trkpt>
      <trkpt lat="40.816551" lon="-110.457401"><ele>3323.0</ele></trkpt>
      <trkpt lat="40.815849" lon="-110.456889"><ele>3323.8</ele></trkpt>
      <trkpt lat="40.815706" lon="-110.456636"><ele>3324.0</ele></trkpt>
      <trkpt lat="40.815087" lon="-110.456124"><ele>3324.2</ele></trkpt>
      <trkpt lat="40.814397" lon="-110.455975"><ele>3324.5</ele></trkpt>
      <trkpt lat="40.814106" lon="-110.455792"><ele>3323.8</ele></trkpt>
      <trkpt lat="40.813940" lon="-110.455545"><ele>3323.2</ele></trkpt>
      <trkpt lat="40.813846" lon="-110.455375"><ele>3323.2</ele></trkpt>
      <trkpt lat="40.813639" lon="-110.455186"><ele>3323.2</ele></trkpt>
      <trkpt lat="40.813534" lon="-110.454653"><ele>3321.8</ele></trkpt>
      <trkpt lat="40.813231" lon="-110.454508"><ele>3322.2</ele></trkpt>
      <trkpt lat="40.812667" lon="-110.454539"><ele>3322.5</ele></trkpt>
      <trkpt lat="40.812381" lon="-110.454664"><ele>3324.5</ele></trkpt>
      <trkpt lat="40.812263" lon="-110.454621"><ele>3325.5</ele></trkpt>
      <trkpt lat="40.812119" lon="-110.454673"><ele>3327.2</ele></trkpt>
      <trkpt lat="40.811806" lon="-110.454576"><ele>3330.5</ele></trkpt>
      <trkpt lat="40.811460" lon="-110.454473"><ele>3333.8</ele></trkpt>
      <trkpt lat="40.811107" lon="-110.454542"><ele>3336.2</ele></trkpt>
      <trkpt lat="40.810946" lon="-110.454356"><ele>3338.2</ele></trkpt>
      <trkpt lat="40.810726" lon="-110.454074"><ele>3341.0</ele></trkpt>
      <trkpt lat="40.810424" lon="-110.453875"><ele>3343.5</ele></trkpt>
      <trkpt lat="40.810095" lon="-110.453942"><ele>3346.8</ele></trkpt>
      <trkpt lat="40.809730" lon="-110.453863"><ele>3348.8</ele></trkpt>
      <trkpt lat="40.809559" lon="-110.453962"><ele>3350.2</ele></trkpt>
      <trkpt lat="40.809215" lon="-110.453923"><ele>3352.2</ele></trkpt>
      <trkpt lat="40.809031" lon="-110.453773"><ele>3352.2</ele></trkpt>
      <trkpt lat="40.808825" lon="-110.453536"><ele>3352.0</ele></trkpt>
      <trkpt lat="40.808632" lon="-110.453383"><ele>3351.8</ele></trkpt>
      <trkpt lat="40.808260" lon="-110.453453"><ele>3354.0</ele></trkpt>
      <trkpt lat="40.807859" lon="-110.453406"><ele>3354.5</ele></trkpt>
      <trkpt lat="40.807576" lon="-110.453456"><ele>3355.5</ele></trkpt>
      <trkpt lat="40.807261" lon="-110.453435"><ele>3356.0</ele></trkpt>
      <trkpt lat="40.806859" lon="-110.453268"><ele>3355.2</ele></trkpt>
      <trkpt lat="40.806092" lon="-110.453151"><ele>3355.2</ele></trkpt>
      <trkpt lat="40.805802" lon="-110.453068"><ele>3355.0</ele></trkpt>
      <trkpt lat="40.805460" lon="-110.452900"><ele>3352.8</ele></trkpt>
      <trkpt lat="40.805062" lon="-110.452585"><ele>3348.8</ele></trkpt>
      <trkpt lat="40.804901" lon="-110.452355"><ele>3349.0</ele></trkpt>
      <trkpt lat="40.804544" lon="-110.452135"><ele>3353.0</ele></trkpt>
      <trkpt lat="40.804217" lon="-110.451676"><ele>3354.5</ele></trkpt>
      <trkpt lat="40.803971" lon="-110.451322"><ele>3355.8</ele></trkpt>
      <trkpt lat="40.803819" lon="-110.451061"><ele>3356.8</ele></trkpt>
      <trkpt lat="40.803651" lon="-110.451026"><ele>3359.5</ele></trkpt>
      <trkpt lat="40.803458" lon="-110.450966"><ele>3362.5</ele></trkpt>
      <trkpt lat="40.803171" lon="-110.450721"><ele>3366.0</ele></trkpt>
      <trkpt lat="40.802933" lon="-110.450571"><ele>3368.5</ele></trkpt>
      <trkpt lat="40.802836" lon="-110.450490"><ele>3369.0</ele></trkpt>
      <trkpt lat="40.802652" lon="-110.450405"><ele>3370.8</ele></trkpt>
      <trkpt lat="40.802504" lon="-110.450288"><ele>3371.2</ele></trkpt>
      <trkpt lat="40.802365" lon="-110.450219"><ele>3372.5</ele></trkpt>
      <trkpt lat="40.802095" lon="-110.450268"><ele>3377.5</ele></trkpt>
      <trkpt lat="40.801954" lon="-110.450213"><ele>3379.0</ele></trkpt>
      <trkpt lat="40.801780" lon="-110.450208"><ele>3381.8</ele></trkpt>
      <trkpt lat="40.800926" lon="-110.450082"><ele>3389.2</ele></trkpt>
      <trkpt lat="40.800591" lon="-110.450317"><ele>3395.2</ele></trkpt>
      <trkpt lat="40.800403" lon="-110.450202"><ele>3395.0</ele></trkpt>
      <trkpt lat="40.800038" lon="-110.450287"><ele>3398.5</ele></trkpt>
      <trkpt lat="40.799820" lon="-110.450392"><ele>3400.5</ele></trkpt>
      <trkpt lat="40.799376" lon="-110.450393"><ele>3403.0</ele></trkpt>
      <trkpt lat="40.799130" lon="-110.450138"><ele>3402.0</ele></trkpt>
      <trkpt lat="40.798635" lon="-110.449852"><ele>3399.8</ele></trkpt>
      <trkpt lat="40.798434" lon="-110.449756"><ele>3398.8</ele></trkpt>
      <trkpt lat="40.798072" lon="-110.449732"><ele>3398.8</ele></trkpt>
      <trkpt lat="40.797926" lon="-110.449726"><ele>3398.8</ele></trkpt>
      <trkpt lat="40.797660" lon="-110.449764"><ele>3399.2</ele></trkpt>
      <trkpt lat="40.797509" lon="-110.449673"><ele>3398.2</ele></trkpt>
      <trkpt lat="40.797417" lon="-110.449543"><ele>3397.8</ele></trkpt>
      <trkpt lat="40.797239" lon="-110.449286"><ele>3397.2</ele></trkpt>
      <trkpt lat="40.797155" lon="-110.449119"><ele>3396.5</ele></trkpt>
      <trkpt lat="40.796885" lon="-110.448710"><ele>3395.2</ele></trkpt>
      <trkpt lat="40.796377" lon="-110.448374"><ele>3398.8</ele></trkpt>
      <trkpt lat="40.795852" lon="-110.447871"><ele>3403.8</ele></trkpt>
      <trkpt lat="40.795593" lon="-110.447795"><ele>3403.5</ele></trkpt>
      <trkpt lat="40.794982" lon="-110.446954"><ele>3401.0</ele></trkpt>
      <trkpt lat="40.794226" lon="-110.445676"><ele>3407.0</ele></trkpt>
      <trkpt lat="40.793524" lon="-110.445067"><ele>3405.8</ele></trkpt>
      <trkpt lat="40.792530" lon="-110.444274"><ele>3410.2</ele></trkpt>
      <trkpt lat="40.791627" lon="-110.443913"><ele>3417.8</ele></trkpt>
      <trkpt lat="40.790306" lon="-110.443459"><ele>3417.8</ele></trkpt>
      <trkpt lat="40.788873" lon="-110.443944"><ele>3418.5</ele></trkpt>
      <trkpt lat="40.788272" lon="-110.444150"><ele>3418.2</ele></trkpt>
      <trkpt lat="40.788270" lon="-110.443783"><ele>3422.0</ele></trkpt>
      <trkpt lat="40.787756" lon="-110.443447"><ele>3428.8</ele></trkpt>
      <trkpt lat="40.787203" lon="-110.442957"><ele>3437.8</ele></trkpt>
      <trkpt lat="40.786631" lon="-110.442085"><ele>3445.5</ele></trkpt>
      <trkpt lat="40.786246" lon="-110.441934"><ele>3448.2</ele></trkpt>
      <trkpt lat="40.785664" lon="-110.441784"><ele>3453.5</ele></trkpt>
      <trkpt lat="40.785373" lon="-110.441849"><ele>3458.2</ele></trkpt>
      <trkpt lat="40.785318" lon="-110.441481"><ele>3459.8</ele></trkpt>
      <trkpt lat="40.785114" lon="-110.441023"><ele>3463.8</ele></trkpt>
      <trkpt lat="40.784745" lon="-110.440413"><ele>3470.0</ele></trkpt>
      <trkpt lat="40.784375" lon="-110.440235"><ele>3476.5</ele></trkpt>
      <trkpt lat="40.783906" lon="-110.440065"><ele>3484.5</ele></trkpt>
      <trkpt lat="40.783476" lon="-110.439863"><ele>3491.2</ele></trkpt>
      <trkpt lat="40.783169" lon="-110.439538"><ele>3497.2</ele></trkpt>
      <trkpt lat="40.782745" lon="-110.439628"><ele>3511.5</ele></trkpt>
      <trkpt lat="40.782450" lon="-110.439630"><ele>3520.2</ele></trkpt>
      <trkpt lat="40.782140" lon="-110.440191"><ele>3533.0</ele></trkpt>
      <trkpt lat="40.782314" lon="-110.441259"><ele>3545.2</ele></trkpt>
      <trkpt lat="40.781856" lon="-110.441246"><ele>3552.0</ele></trkpt>
      <trkpt lat="40.781250" lon="-110.441754"><ele>3569.8</ele></trkpt>
      <trkpt lat="40.781006" lon="-110.441938"><ele>3576.8</ele></trkpt>
      <trkpt lat="40.780839" lon="-110.442322"><ele>3585.2</ele></trkpt>
      <trkpt lat="40.780592" lon="-110.442606"><ele>3592.0</ele></trkpt>
      <trkpt lat="40.780124" lon="-110.442586"><ele>3595.0</ele></trkpt>
      <trkpt lat="40.779961" lon="-110.442644"><ele>3598.0</ele></trkpt>
      <trkpt lat="40.780124" lon="-110.442586"><ele>3595.0</ele></trkpt>
      <trkpt lat="40.780592" lon="-110.442606"><ele>3592.0</ele></trkpt>
      <trkpt lat="40.780839" lon="-110.442322"><ele>3585.2</ele></trkpt>
      <trkpt lat="40.781006" lon="-110.441938"><ele>3576.8</ele></trkpt>
      <trkpt lat="40.781250" lon="-110.441754"><ele>3569.8</ele></trkpt>
      <trkpt lat="40.781856" lon="-110.441246"><ele>3552.0</ele></trkpt>
      <trkpt lat="40.782314" lon="-110.441259"><ele>3545.2</ele></trkpt>
      <trkpt lat="40.782140" lon="-110.440191"><ele>3533.0</ele></trkpt>
      <trkpt lat="40.782450" lon="-110.439630"><ele>3520.2</ele></trkpt>
      <trkpt lat="40.782745" lon="-110.439628"><ele>3511.5</ele></trkpt>
      <trkpt lat="40.783169" lon="-110.439538"><ele>3497.2</ele></trkpt>
      <trkpt lat="40.783476" lon="-110.439863"><ele>3491.2</ele></trkpt>
      <trkpt lat="40.783906" lon="-110.440065"><ele>3484.5</ele></trkpt>
      <trkpt lat="40.784375" lon="-110.440235"><ele>3476.5</ele></trkpt>
      <trkpt lat="40.784745" lon="-110.440413"><ele>3470.0</ele></trkpt>
      <trkpt lat="40.785114" lon="-110.441023"><ele>3463.8</ele></trkpt>
      <trkpt lat="40.785318" lon="-110.441481"><ele>3459.8</ele></trkpt>
      <trkpt lat="40.785373" lon="-110.441849"><ele>3458.2</ele></trkpt>
      <trkpt lat="40.785664" lon="-110.441784"><ele>3453.5</ele></trkpt>
      <trkpt lat="40.786246" lon="-110.441934"><ele>3448.2</ele></trkpt>
      <trkpt lat="40.786631" lon="-110.442085"><ele>3445.5</ele></trkpt>
      <trkpt lat="40.787203" lon="-110.442957"><ele>3437.8</ele></trkpt>
      <trkpt lat="40.787756" lon="-110.443447"><ele>3428.8</ele></trkpt>
      <trkpt lat="40.788270" lon="-110.443783"><ele>3422.0</ele></trkpt>
      <trkpt lat="40.788272" lon="-110.444150"><ele>3418.2</ele></trkpt>
      <trkpt lat="40.788873" lon="-110.443944"><ele>3418.5</ele></trkpt>
      <trkpt lat="40.790306" lon="-110.443459"><ele>3417.8</ele></trkpt>
      <trkpt lat="40.791627" lon="-110.443913"><ele>3417.8</ele></trkpt>
      <trkpt lat="40.792530" lon="-110.444274"><ele>3410.2</ele></trkpt>
      <trkpt lat="40.793524" lon="-110.445067"><ele>3405.8</ele></trkpt>
      <trkpt lat="40.794226" lon="-110.445676"><ele>3407.0</ele></trkpt>
      <trkpt lat="40.794982" lon="-110.446954"><ele>3401.0</ele></trkpt>
      <trkpt lat="40.795593" lon="-110.447795"><ele>3403.5</ele></trkpt>
      <trkpt lat="40.795852" lon="-110.447871"><ele>3403.8</ele></trkpt>
      <trkpt lat="40.796377" lon="-110.448374"><ele>3398.8</ele></trkpt>
      <trkpt lat="40.796885" lon="-110.448710"><ele>3395.2</ele></trkpt>
      <trkpt lat="40.797155" lon="-110.449119"><ele>3396.5</ele></trkpt>
      <trkpt lat="40.797239" lon="-110.449286"><ele>3397.2</ele></trkpt>
      <trkpt lat="40.797417" lon="-110.449543"><ele>3397.8</ele></trkpt>
      <trkpt lat="40.797509" lon="-110.449673"><ele>3398.2</ele></trkpt>
      <trkpt lat="40.797660" lon="-110.449764"><ele>3399.2</ele></trkpt>
      <trkpt lat="40.797926" lon="-110.449726"><ele>3398.8</ele></trkpt>
      <trkpt lat="40.798072" lon="-110.449732"><ele>3398.8</ele></trkpt>
      <trkpt lat="40.798434" lon="-110.449756"><ele>3398.8</ele></trkpt>
      <trkpt lat="40.798635" lon="-110.449852"><ele>3399.8</ele></trkpt>
      <trkpt lat="40.799130" lon="-110.450138"><ele>3402.0</ele></trkpt>
      <trkpt lat="40.799376" lon="-110.450393"><ele>3403.0</ele></trkpt>
      <trkpt lat="40.799820" lon="-110.450392"><ele>3400.5</ele></trkpt>
      <trkpt lat="40.800038" lon="-110.450287"><ele>3398.5</ele></trkpt>
      <trkpt lat="40.800403" lon="-110.450202"><ele>3395.0</ele></trkpt>
      <trkpt lat="40.800591" lon="-110.450317"><ele>3395.2</ele></trkpt>
      <trkpt lat="40.800926" lon="-110.450082"><ele>3389.2</ele></trkpt>
      <trkpt lat="40.801780" lon="-110.450208"><ele>3381.8</ele></trkpt>
      <trkpt lat="40.801954" lon="-110.450213"><ele>3379.0</ele></trkpt>
      <trkpt lat="40.802095" lon="-110.450268"><ele>3377.5</ele></trkpt>
      <trkpt lat="40.802365" lon="-110.450219"><ele>3372.5</ele></trkpt>
      <trkpt lat="40.802504" lon="-110.450288"><ele>3371.2</ele></trkpt>
      <trkpt lat="40.802652" lon="-110.450405"><ele>3370.8</ele></trkpt>
      <trkpt lat="40.802836" lon="-110.450490"><ele>3369.0</ele></trkpt>
      <trkpt lat="40.802933" lon="-110.450571"><ele>3368.5</ele></trkpt>
      <trkpt lat="40.803171" lon="-110.450721"><ele>3366.0</ele></trkpt>
      <trkpt lat="40.803458" lon="-110.450966"><ele>3362.5</ele></trkpt>
      <trkpt lat="40.803651" lon="-110.451026"><ele>3359.5</ele></trkpt>
      <trkpt lat="40.803819" lon="-110.451061"><ele>3356.8</ele></trkpt>
      <trkpt lat="40.803971" lon="-110.451322"><ele>3355.8</ele></trkpt>
      <trkpt lat="40.804217" lon="-110.451676"><ele>3354.5</ele></trkpt>
      <trkpt lat="40.804544" lon="-110.452135"><ele>3353.0</ele></trkpt>
      <trkpt lat="40.804901" lon="-110.452355"><ele>3349.0</ele></trkpt>
      <trkpt lat="40.805062" lon="-110.452585"><ele>3348.8</ele></trkpt>
      <trkpt lat="40.805460" lon="-110.452900"><ele>3352.8</ele></trkpt>
      <trkpt lat="40.805802" lon="-110.453068"><ele>3355.0</ele></trkpt>
      <trkpt lat="40.806092" lon="-110.453151"><ele>3355.2</ele></trkpt>
      <trkpt lat="40.806859" lon="-110.453268"><ele>3355.2</ele></trkpt>
      <trkpt lat="40.807261" lon="-110.453435"><ele>3356.0</ele></trkpt>
      <trkpt lat="40.807576" lon="-110.453456"><ele>3355.5</ele></trkpt>
      <trkpt lat="40.807859" lon="-110.453406"><ele>3354.5</ele></trkpt>
      <trkpt lat="40.808260" lon="-110.453453"><ele>3354.0</ele></trkpt>
      <trkpt lat="40.808632" lon="-110.453383"><ele>3351.8</ele></trkpt>
      <trkpt lat="40.808825" lon="-110.453536"><ele>3352.0</ele></trkpt>
      <trkpt lat="40.809031" lon="-110.453773"><ele>3352.2</ele></trkpt>
      <trkpt lat="40.809215" lon="-110.453923"><ele>3352.2</ele></trkpt>
      <trkpt lat="40.809559" lon="-110.453962"><ele>3350.2</ele></trkpt>
      <trkpt lat="40.809730" lon="-110.453863"><ele>3348.8</ele></trkpt>
      <trkpt lat="40.810095" lon="-110.453942"><ele>3346.8</ele></trkpt>
      <trkpt lat="40.810424" lon="-110.453875"><ele>3343.5</ele></trkpt>
      <trkpt lat="40.810726" lon="-110.454074"><ele>3341.0</ele></trkpt>
      <trkpt lat="40.810946" lon="-110.454356"><ele>3338.2</ele></trkpt>
      <trkpt lat="40.811107" lon="-110.454542"><ele>3336.2</ele></trkpt>
      <trkpt lat="40.811460" lon="-110.454473"><ele>3333.8</ele></trkpt>
      <trkpt lat="40.811806" lon="-110.454576"><ele>3330.5</ele></trkpt>
      <trkpt lat="40.812119" lon="-110.454673"><ele>3327.2</ele></trkpt>
      <trkpt lat="40.812263" lon="-110.454621"><ele>3325.5</ele></trkpt>
      <trkpt lat="40.812381" lon="-110.454664"><ele>3324.5</ele></trkpt>
      <trkpt lat="40.812667" lon="-110.454539"><ele>3322.5</ele></trkpt>
      <trkpt lat="40.813231" lon="-110.454508"><ele>3322.2</ele></trkpt>
      <trkpt lat="40.813534" lon="-110.454653"><ele>3321.8</ele></trkpt>
      <trkpt lat="40.813639" lon="-110.455186"><ele>3323.2</ele></trkpt>
      <trkpt lat="40.813846" lon="-110.455375"><ele>3323.2</ele></trkpt>
      <trkpt lat="40.813940" lon="-110.455545"><ele>3323.2</ele></trkpt>
      <trkpt lat="40.814106" lon="-110.455792"><ele>3323.8</ele></trkpt>
      <trkpt lat="40.814397" lon="-110.455975"><ele>3324.5</ele></trkpt>
      <trkpt lat="40.815087" lon="-110.456124"><ele>3324.2</ele></trkpt>
      <trkpt lat="40.815706" lon="-110.456636"><ele>3324.0</ele></trkpt>
      <trkpt lat="40.815849" lon="-110.456889"><ele>3323.8</ele></trkpt>
      <trkpt lat="40.816551" lon="-110.457401"><ele>3323.0</ele></trkpt>
      <trkpt lat="40.816938" lon="-110.457904"><ele>3323.0</ele></trkpt>
      <trkpt lat="40.816982" lon="-110.458143"><ele>3322.5</ele></trkpt>
      <trkpt lat="40.817183" lon="-110.458487"><ele>3322.2</ele></trkpt>
      <trkpt lat="40.817533" lon="-110.459006"><ele>3322.5</ele></trkpt>
      <trkpt lat="40.817782" lon="-110.459342"><ele>3322.2</ele></trkpt>
      <trkpt lat="40.818173" lon="-110.459900"><ele>3322.2</ele></trkpt>
      <trkpt lat="40.818278" lon="-110.460109"><ele>3321.5</ele></trkpt>
      <trkpt lat="40.818400" lon="-110.460313"><ele>3319.0</ele></trkpt>
      <trkpt lat="40.818554" lon="-110.460259"><ele>3318.2</ele></trkpt>
      <trkpt lat="40.818771" lon="-110.460264"><ele>3316.2</ele></trkpt>
      <trkpt lat="40.819137" lon="-110.460126"><ele>3314.8</ele></trkpt>
      <trkpt lat="40.819462" lon="-110.460196"><ele>3310.8</ele></trkpt>
      <trkpt lat="40.820115" lon="-110.460328"><ele>3303.8</ele></trkpt>
      <trkpt lat="40.820539" lon="-110.460338"><ele>3300.8</ele></trkpt>
      <trkpt lat="40.820868" lon="-110.460823"><ele>3296.8</ele></trkpt>
      <trkpt lat="40.820934" lon="-110.461454"><ele>3293.5</ele></trkpt>
      <trkpt lat="40.821024" lon="-110.461930"><ele>3291.5</ele></trkpt>
      <trkpt lat="40.821091" lon="-110.462480"><ele>3289.8</ele></trkpt>
      <trkpt lat="40.821339" lon="-110.463454"><ele>3289.0</ele></trkpt>
      <trkpt lat="40.821622" lon="-110.464760"><ele>3283.8</ele></trkpt>
      <trkpt lat="40.821884" lon="-110.465575"><ele>3276.2</ele></trkpt>
      <trkpt lat="40.821961" lon="-110.465969"><ele>3274.0</ele></trkpt>
      <trkpt lat="40.822016" lon="-110.466228"><ele>3275.0</ele></trkpt>
      <trkpt lat="40.821628" lon="-110.466523"><ele>3275.8</ele></trkpt>
      <trkpt lat="40.820697" lon="-110.466721"><ele>3280.5</ele></trkpt>
      <trkpt lat="40.819825" lon="-110.466836"><ele>3285.0</ele></trkpt>
      <trkpt lat="40.819303" lon="-110.466708"><ele>3285.2</ele></trkpt>
      <trkpt lat="40.818502" lon="-110.466575"><ele>3286.8</ele></trkpt>
      <trkpt lat="40.817562" lon="-110.466410"><ele>3288.0</ele></trkpt>
      <trkpt lat="40.816646" lon="-110.466381"><ele>3293.2</ele></trkpt>
      <trkpt lat="40.815955" lon="-110.466483"><ele>3296.2</ele></trkpt>
      <trkpt lat="40.815129" lon="-110.466228"><ele>3296.5</ele></trkpt>
      <trkpt lat="40.814738" lon="-110.466167"><ele>3297.5</ele></trkpt>
      <trkpt lat="40.814405" lon="-110.466068"><ele>3297.8</ele></trkpt>
      <trkpt lat="40.813904" lon="-110.465921"><ele>3297.5</ele></trkpt>
      <trkpt lat="40.813513" lon="-110.465741"><ele>3297.2</ele></trkpt>
      <trkpt lat="40.813151" lon="-110.465591"><ele>3296.8</ele></trkpt>
      <trkpt lat="40.812829" lon="-110.465568"><ele>3296.8</ele></trkpt>
    </trkseg>
    <!-- Sun: back to Broadbent Meadow (3.1 mi, 15 ft up) -->
    <trkseg>
      <trkpt lat="40.812829" lon="-110.465568"><ele>3296.8</ele></trkpt>
      <trkpt lat="40.813151" lon="-110.465591"><ele>3296.8</ele></trkpt>
      <trkpt lat="40.813513" lon="-110.465741"><ele>3297.2</ele></trkpt>
      <trkpt lat="40.813904" lon="-110.465921"><ele>3297.5</ele></trkpt>
      <trkpt lat="40.814405" lon="-110.466068"><ele>3297.8</ele></trkpt>
      <trkpt lat="40.814738" lon="-110.466167"><ele>3297.5</ele></trkpt>
      <trkpt lat="40.815129" lon="-110.466228"><ele>3296.5</ele></trkpt>
      <trkpt lat="40.815955" lon="-110.466483"><ele>3296.2</ele></trkpt>
      <trkpt lat="40.816646" lon="-110.466381"><ele>3293.2</ele></trkpt>
      <trkpt lat="40.817562" lon="-110.466410"><ele>3288.0</ele></trkpt>
      <trkpt lat="40.818502" lon="-110.466575"><ele>3286.8</ele></trkpt>
      <trkpt lat="40.819303" lon="-110.466708"><ele>3285.2</ele></trkpt>
      <trkpt lat="40.819825" lon="-110.466836"><ele>3285.0</ele></trkpt>
      <trkpt lat="40.820697" lon="-110.466721"><ele>3280.5</ele></trkpt>
      <trkpt lat="40.821628" lon="-110.466523"><ele>3275.8</ele></trkpt>
      <trkpt lat="40.822016" lon="-110.466228"><ele>3275.0</ele></trkpt>
      <trkpt lat="40.823390" lon="-110.466170"><ele>3271.2</ele></trkpt>
      <trkpt lat="40.824094" lon="-110.466159"><ele>3267.0</ele></trkpt>
      <trkpt lat="40.825357" lon="-110.466128"><ele>3262.2</ele></trkpt>
      <trkpt lat="40.826107" lon="-110.465767"><ele>3255.8</ele></trkpt>
      <trkpt lat="40.826310" lon="-110.465655"><ele>3256.2</ele></trkpt>
      <trkpt lat="40.826611" lon="-110.465837"><ele>3256.8</ele></trkpt>
      <trkpt lat="40.827050" lon="-110.465550"><ele>3255.0</ele></trkpt>
      <trkpt lat="40.827882" lon="-110.465320"><ele>3253.2</ele></trkpt>
      <trkpt lat="40.829185" lon="-110.464432"><ele>3246.5</ele></trkpt>
      <trkpt lat="40.829728" lon="-110.463952"><ele>3246.0</ele></trkpt>
      <trkpt lat="40.829828" lon="-110.463643"><ele>3243.5</ele></trkpt>
      <trkpt lat="40.829497" lon="-110.463648"><ele>3239.2</ele></trkpt>
      <trkpt lat="40.829618" lon="-110.463451"><ele>3238.2</ele></trkpt>
      <trkpt lat="40.830363" lon="-110.463154"><ele>3234.0</ele></trkpt>
      <trkpt lat="40.830368" lon="-110.463014"><ele>3230.8</ele></trkpt>
      <trkpt lat="40.829905" lon="-110.462830"><ele>3229.2</ele></trkpt>
      <trkpt lat="40.830096" lon="-110.462775"><ele>3227.8</ele></trkpt>
      <trkpt lat="40.830876" lon="-110.462410"><ele>3213.2</ele></trkpt>
      <trkpt lat="40.831717" lon="-110.462230"><ele>3204.5</ele></trkpt>
      <trkpt lat="40.831160" lon="-110.461892"><ele>3200.5</ele></trkpt>
      <trkpt lat="40.831827" lon="-110.461463"><ele>3193.2</ele></trkpt>
      <trkpt lat="40.832320" lon="-110.461199"><ele>3186.8</ele></trkpt>
      <trkpt lat="40.833238" lon="-110.461028"><ele>3178.0</ele></trkpt>
      <trkpt lat="40.834518" lon="-110.461343"><ele>3172.8</ele></trkpt>
      <trkpt lat="40.836241" lon="-110.461218"><ele>3163.8</ele></trkpt>
      <trkpt lat="40.837657" lon="-110.461281"><ele>3159.5</ele></trkpt>
      <trkpt lat="40.838993" lon="-110.461285"><ele>3157.0</ele></trkpt>
      <trkpt lat="40.839138" lon="-110.460792"><ele>3154.2</ele></trkpt>
      <trkpt lat="40.839276" lon="-110.460650"><ele>3155.0</ele></trkpt>
      <trkpt lat="40.839770" lon="-110.460771"><ele>3153.0</ele></trkpt>
      <trkpt lat="40.840584" lon="-110.460795"><ele>3150.0</ele></trkpt>
      <trkpt lat="40.841971" lon="-110.460086"><ele>3145.8</ele></trkpt>
      <trkpt lat="40.843410" lon="-110.459179"><ele>3143.2</ele></trkpt>
      <trkpt lat="40.844172" lon="-110.458671"><ele>3140.8</ele></trkpt>
      <trkpt lat="40.845749" lon="-110.458283"><ele>3130.8</ele></trkpt>
      <trkpt lat="40.846858" lon="-110.458275"><ele>3133.2</ele></trkpt>
      <trkpt lat="40.847998" lon="-110.458276"><ele>3130.8</ele></trkpt>
      <trkpt lat="40.849411" lon="-110.457881"><ele>3128.2</ele></trkpt>
      <trkpt lat="40.849937" lon="-110.457653"><ele>3125.0</ele></trkpt>
      <trkpt lat="40.850431" lon="-110.457199"><ele>3122.2</ele></trkpt>
      <trkpt lat="40.850957" lon="-110.456299"><ele>3123.8</ele></trkpt>
      <trkpt lat="40.851322" lon="-110.455858"><ele>3122.8</ele></trkpt>
      <trkpt lat="40.851686" lon="-110.455294"><ele>3121.5</ele></trkpt>
    </trkseg>
    <!-- Mon: out, home for dinner (7.2 mi, 161 ft up) -->
    <trkseg>
      <trkpt lat="40.851686" lon="-110.455294"><ele>3121.8</ele></trkpt>
      <trkpt lat="40.851936" lon="-110.454668"><ele>3124.2</ele></trkpt>
      <trkpt lat="40.852743" lon="-110.453934"><ele>3120.0</ele></trkpt>
      <trkpt lat="40.853313" lon="-110.452648"><ele>3116.8</ele></trkpt>
      <trkpt lat="40.853407" lon="-110.452124"><ele>3113.2</ele></trkpt>
      <trkpt lat="40.853339" lon="-110.451475"><ele>3111.5</ele></trkpt>
      <trkpt lat="40.853467" lon="-110.450703"><ele>3113.8</ele></trkpt>
      <trkpt lat="40.853816" lon="-110.450377"><ele>3115.0</ele></trkpt>
      <trkpt lat="40.854299" lon="-110.450229"><ele>3114.0</ele></trkpt>
      <trkpt lat="40.855532" lon="-110.449935"><ele>3104.0</ele></trkpt>
      <trkpt lat="40.858112" lon="-110.449590"><ele>3083.5</ele></trkpt>
      <trkpt lat="40.859752" lon="-110.449020"><ele>3079.0</ele></trkpt>
      <trkpt lat="40.861020" lon="-110.448670"><ele>3074.0</ele></trkpt>
      <trkpt lat="40.862598" lon="-110.448555"><ele>3067.2</ele></trkpt>
      <trkpt lat="40.863493" lon="-110.448111"><ele>3067.5</ele></trkpt>
      <trkpt lat="40.865081" lon="-110.447621"><ele>3068.8</ele></trkpt>
      <trkpt lat="40.866378" lon="-110.447752"><ele>3066.5</ele></trkpt>
      <trkpt lat="40.866413" lon="-110.448216"><ele>3061.2</ele></trkpt>
      <trkpt lat="40.866951" lon="-110.448819"><ele>3057.0</ele></trkpt>
      <trkpt lat="40.868277" lon="-110.449245"><ele>3055.5</ele></trkpt>
      <trkpt lat="40.869193" lon="-110.449361"><ele>3050.2</ele></trkpt>
      <trkpt lat="40.870073" lon="-110.449095"><ele>3044.8</ele></trkpt>
      <trkpt lat="40.870937" lon="-110.448494"><ele>3043.0</ele></trkpt>
      <trkpt lat="40.872279" lon="-110.447145"><ele>3041.2</ele></trkpt>
      <trkpt lat="40.873230" lon="-110.446351"><ele>3038.0</ele></trkpt>
      <trkpt lat="40.874553" lon="-110.445263"><ele>3035.2</ele></trkpt>
      <trkpt lat="40.875313" lon="-110.445005"><ele>3031.5</ele></trkpt>
      <trkpt lat="40.875648" lon="-110.444619"><ele>3031.8</ele></trkpt>
      <trkpt lat="40.876743" lon="-110.443652"><ele>3029.2</ele></trkpt>
      <trkpt lat="40.877740" lon="-110.442702"><ele>3024.5</ele></trkpt>
      <trkpt lat="40.878519" lon="-110.441622"><ele>3020.0</ele></trkpt>
      <trkpt lat="40.879279" lon="-110.439917"><ele>3020.2</ele></trkpt>
      <trkpt lat="40.880013" lon="-110.438225"><ele>3020.2</ele></trkpt>
      <trkpt lat="40.880749" lon="-110.436782"><ele>3015.8</ele></trkpt>
      <trkpt lat="40.881807" lon="-110.434702"><ele>3015.5</ele></trkpt>
      <trkpt lat="40.881861" lon="-110.433623"><ele>3017.0</ele></trkpt>
      <trkpt lat="40.882394" lon="-110.433171"><ele>3015.2</ele></trkpt>
      <trkpt lat="40.883162" lon="-110.432556"><ele>3016.0</ele></trkpt>
      <trkpt lat="40.884353" lon="-110.433191"><ele>3014.8</ele></trkpt>
      <trkpt lat="40.884857" lon="-110.433354"><ele>3015.5</ele></trkpt>
      <trkpt lat="40.885386" lon="-110.432704"><ele>3017.0</ele></trkpt>
      <trkpt lat="40.886507" lon="-110.431031"><ele>3014.5</ele></trkpt>
      <trkpt lat="40.887188" lon="-110.429539"><ele>3014.8</ele></trkpt>
      <trkpt lat="40.887099" lon="-110.427961"><ele>3018.5</ele></trkpt>
      <trkpt lat="40.886822" lon="-110.426634"><ele>3018.2</ele></trkpt>
      <trkpt lat="40.886629" lon="-110.426116"><ele>3015.2</ele></trkpt>
      <trkpt lat="40.886637" lon="-110.425065"><ele>3011.2</ele></trkpt>
      <trkpt lat="40.887099" lon="-110.423541"><ele>3009.2</ele></trkpt>
      <trkpt lat="40.887752" lon="-110.421921"><ele>3005.8</ele></trkpt>
      <trkpt lat="40.888186" lon="-110.421010"><ele>3002.8</ele></trkpt>
      <trkpt lat="40.889021" lon="-110.419733"><ele>2995.0</ele></trkpt>
      <trkpt lat="40.890018" lon="-110.418795"><ele>2990.8</ele></trkpt>
      <trkpt lat="40.891065" lon="-110.417265"><ele>2986.2</ele></trkpt>
      <trkpt lat="40.892120" lon="-110.415976"><ele>2981.2</ele></trkpt>
      <trkpt lat="40.892442" lon="-110.415194"><ele>2976.5</ele></trkpt>
      <trkpt lat="40.892970" lon="-110.415007"><ele>2972.8</ele></trkpt>
      <trkpt lat="40.893239" lon="-110.414744"><ele>2970.0</ele></trkpt>
      <trkpt lat="40.894116" lon="-110.413899"><ele>2968.2</ele></trkpt>
      <trkpt lat="40.895153" lon="-110.413467"><ele>2966.0</ele></trkpt>
      <trkpt lat="40.896599" lon="-110.412910"><ele>2965.5</ele></trkpt>
      <trkpt lat="40.897230" lon="-110.412669"><ele>2965.5</ele></trkpt>
      <trkpt lat="40.897920" lon="-110.411956"><ele>2961.5</ele></trkpt>
      <trkpt lat="40.898305" lon="-110.410990"><ele>2956.0</ele></trkpt>
      <trkpt lat="40.898815" lon="-110.410067"><ele>2950.8</ele></trkpt>
      <trkpt lat="40.899593" lon="-110.409916"><ele>2948.5</ele></trkpt>
      <trkpt lat="40.900641" lon="-110.410593"><ele>2950.0</ele></trkpt>
      <trkpt lat="40.900960" lon="-110.410560"><ele>2950.8</ele></trkpt>
      <trkpt lat="40.901623" lon="-110.409867"><ele>2947.5</ele></trkpt>
      <trkpt lat="40.901793" lon="-110.409321"><ele>2942.8</ele></trkpt>
      <trkpt lat="40.902256" lon="-110.408948"><ele>2941.2</ele></trkpt>
      <trkpt lat="40.903011" lon="-110.408321"><ele>2934.5</ele></trkpt>
      <trkpt lat="40.904107" lon="-110.408001"><ele>2932.8</ele></trkpt>
      <trkpt lat="40.904950" lon="-110.408118"><ele>2934.8</ele></trkpt>
      <trkpt lat="40.905742" lon="-110.407851"><ele>2933.5</ele></trkpt>
      <trkpt lat="40.906245" lon="-110.407136"><ele>2930.5</ele></trkpt>
      <trkpt lat="40.907182" lon="-110.406690"><ele>2930.2</ele></trkpt>
      <trkpt lat="40.907855" lon="-110.406435"><ele>2927.5</ele></trkpt>
      <trkpt lat="40.908194" lon="-110.406210"><ele>2926.5</ele></trkpt>
      <trkpt lat="40.908913" lon="-110.406062"><ele>2926.5</ele></trkpt>
      <trkpt lat="40.910138" lon="-110.406204"><ele>2925.5</ele></trkpt>
      <trkpt lat="40.911629" lon="-110.405648"><ele>2921.5</ele></trkpt>
      <trkpt lat="40.912301" lon="-110.405278"><ele>2920.5</ele></trkpt>
      <trkpt lat="40.912686" lon="-110.404745"><ele>2916.5</ele></trkpt>
      <trkpt lat="40.913310" lon="-110.404089"><ele>2909.2</ele></trkpt>
      <trkpt lat="40.913944" lon="-110.403820"><ele>2906.2</ele></trkpt>
      <trkpt lat="40.914704" lon="-110.403612"><ele>2904.5</ele></trkpt>
      <trkpt lat="40.915695" lon="-110.403353"><ele>2898.8</ele></trkpt>
      <trkpt lat="40.916358" lon="-110.403440"><ele>2898.0</ele></trkpt>
      <trkpt lat="40.916981" lon="-110.403396"><ele>2898.2</ele></trkpt>
      <trkpt lat="40.918312" lon="-110.403634"><ele>2902.5</ele></trkpt>
      <trkpt lat="40.918689" lon="-110.403562"><ele>2903.0</ele></trkpt>
      <trkpt lat="40.919344" lon="-110.403349"><ele>2901.5</ele></trkpt>
      <trkpt lat="40.919788" lon="-110.402887"><ele>2896.2</ele></trkpt>
      <trkpt lat="40.920742" lon="-110.402991"><ele>2899.5</ele></trkpt>
      <trkpt lat="40.921500" lon="-110.403234"><ele>2896.8</ele></trkpt>
      <trkpt lat="40.921834" lon="-110.403729"><ele>2897.5</ele></trkpt>
      <trkpt lat="40.922295" lon="-110.404387"><ele>2895.8</ele></trkpt>
      <trkpt lat="40.922424" lon="-110.404521"><ele>2894.2</ele></trkpt>
      <trkpt lat="40.922671" lon="-110.404593"><ele>2892.5</ele></trkpt>
      <trkpt lat="40.922868" lon="-110.404584"><ele>2891.5</ele></trkpt>
      <trkpt lat="40.922901" lon="-110.404531"><ele>2891.0</ele></trkpt>
      <trkpt lat="40.923047" lon="-110.404568"><ele>2890.5</ele></trkpt>
      <trkpt lat="40.923047" lon="-110.404807"><ele>2891.0</ele></trkpt>
      <trkpt lat="40.923128" lon="-110.405101"><ele>2891.8</ele></trkpt>
      <trkpt lat="40.923416" lon="-110.405603"><ele>2893.8</ele></trkpt>
      <trkpt lat="40.923531" lon="-110.405765"><ele>2895.2</ele></trkpt>
      <trkpt lat="40.923887" lon="-110.405844"><ele>2897.0</ele></trkpt>
      <trkpt lat="40.924051" lon="-110.405937"><ele>2897.8</ele></trkpt>
      <trkpt lat="40.924195" lon="-110.406081"><ele>2898.2</ele></trkpt>
      <trkpt lat="40.924168" lon="-110.406189"><ele>2898.2</ele></trkpt>
      <trkpt lat="40.924225" lon="-110.406512"><ele>2898.8</ele></trkpt>
      <trkpt lat="40.924317" lon="-110.406712"><ele>2899.0</ele></trkpt>
      <trkpt lat="40.924586" lon="-110.406961"><ele>2898.8</ele></trkpt>
      <trkpt lat="40.924751" lon="-110.407014"><ele>2898.5</ele></trkpt>
      <trkpt lat="40.925284" lon="-110.406834"><ele>2897.5</ele></trkpt>
      <trkpt lat="40.925897" lon="-110.406486"><ele>2895.2</ele></trkpt>
      <trkpt lat="40.926226" lon="-110.406237"><ele>2893.2</ele></trkpt>
      <trkpt lat="40.926869" lon="-110.405337"><ele>2886.5</ele></trkpt>
      <trkpt lat="40.927105" lon="-110.405094"><ele>2885.5</ele></trkpt>
      <trkpt lat="40.927790" lon="-110.404602"><ele>2882.0</ele></trkpt>
      <trkpt lat="40.927795" lon="-110.405140"><ele>2885.5</ele></trkpt>
      <trkpt lat="40.927746" lon="-110.405554"><ele>2887.5</ele></trkpt>
      <trkpt lat="40.927684" lon="-110.406069"><ele>2889.0</ele></trkpt>
      <trkpt lat="40.927501" lon="-110.406301"><ele>2889.2</ele></trkpt>
      <trkpt lat="40.926906" lon="-110.406559"><ele>2890.2</ele></trkpt>
      <trkpt lat="40.926824" lon="-110.406627"><ele>2891.8</ele></trkpt>
    </trkseg>
  </trk>
</gpx>
