<?xml version="1.0" encoding="UTF-8"?>
<gpx version="1.1" creator="pathbeaters26" xmlns="http://www.topografix.com/GPX/1/1" xmlns:xsi="http://www.w3.org/2001/XMLSchema-instance" xsi:schemaLocation="http://www.topografix.com/GPX/1/1 http://www.topografix.com/GPX/1/1/gpx.xsd">
  <metadata>
    <name>Titcomb Basin from Island Lake (Pole Creek Trail)</name>
    <desc>Routed on OpenStreetMap trails with BRouter (hiking-mountain). Waypoints from OpenStreetMap.</desc>
  </metadata>
  <wpt lat="43.002200" lon="-109.753000">
    <ele>2857.8</ele>
    <name>Elkhart Park TH</name>
    <type>Trailhead</type>
  </wpt>
  <wpt lat="43.087270" lon="-109.638570">
    <ele>3162.5</ele>
    <name>Fri camp · Island Lake</name>
    <type>Camp</type>
  </wpt>
  <wpt lat="43.087270" lon="-109.638570">
    <ele>3162.5</ele>
    <name>Sat camp · Island Lake</name>
    <type>Camp</type>
  </wpt>
  <wpt lat="43.035430" lon="-109.672530">
    <ele>3079.8</ele>
    <name>Sun camp · Hobbs Lake</name>
    <type>Camp</type>
  </wpt>
  <wpt lat="43.025230" lon="-109.695150">
    <ele>3076.0</ele>
    <name>Photographers Point</name>
    <type>Waypoint</type>
  </wpt>
  <wpt lat="43.052300" lon="-109.660160">
    <ele>3136.0</ele>
    <name>Seneca Lake</name>
    <type>Waypoint</type>
  </wpt>
  <wpt lat="43.066630" lon="-109.651980">
    <ele>3158.0</ele>
    <name>Little Seneca Lake</name>
    <type>Waypoint</type>
  </wpt>
  <wpt lat="43.114380" lon="-109.638450">
    <ele>3233.0</ele>
    <name>Lower Titcomb Lake</name>
    <type>Waypoint</type>
  </wpt>
  <wpt lat="43.127730" lon="-109.640190">
    <ele>3241.8</ele>
    <name>Upper Titcomb Lake</name>
    <type>Waypoint</type>
  </wpt>
  <trk>
    <name>Titcomb Basin from Island Lake (Pole Creek Trail)</name>
    <!-- Fri: Pole Creek Trail past Seneca Lake to Island Lake (12.9 mi, 2562 ft up) -->
    <trkseg>
      <trkpt lat="43.002116" lon="-109.753322"><ele>2857.8</ele></trkpt>
      <trkpt lat="43.002626" lon="-109.753390"><ele>2852.5</ele></trkpt>
      <trkpt lat="43.002725" lon="-109.752879"><ele>2851.0</ele></trkpt>
      <trkpt lat="43.002915" lon="-109.752554"><ele>2850.2</ele></trkpt>
      <trkpt lat="43.003078" lon="-109.752254"><ele>2852.2</ele></trkpt>
      <trkpt lat="43.003071" lon="-109.752112"><ele>2853.5</ele></trkpt>
      <trkpt lat="43.003126" lon="-109.751930"><ele>2855.2</ele></trkpt>
      <trkpt lat="43.003405" lon="-109.751758"><ele>2856.8</ele></trkpt>
      <trkpt lat="43.003897" lon="-109.751684"><ele>2857.0</ele></trkpt>
      <trkpt lat="43.004135" lon="-109.751703"><ele>2856.5</ele></trkpt>
      <trkpt lat="43.004500" lon="-109.751455"><ele>2863.0</ele></trkpt>
      <trkpt lat="43.005049" lon="-109.751795"><ele>2863.0</ele></trkpt>
      <trkpt lat="43.005367" lon="-109.751790"><ele>2863.2</ele></trkpt>
      <trkpt lat="43.005563" lon="-109.751710"><ele>2864.2</ele></trkpt>
      <trkpt lat="43.005770" lon="-109.751491"><ele>2866.8</ele></trkpt>
      <trkpt lat="43.005999" lon="-109.750827"><ele>2869.8</ele></trkpt>
      <trkpt lat="43.005924" lon="-109.750354"><ele>2868.0</ele></trkpt>
      <trkpt lat="43.005740" lon="-109.749972"><ele>2868.8</ele></trkpt>
      <trkpt lat="43.005057" lon="-109.749016"><ele>2869.8</ele></trkpt>
      <trkpt lat="43.004751" lon="-109.748440"><ele>2867.0</ele></trkpt>
      <trkpt lat="43.004550" lon="-109.747660"><ele>2867.5</ele></trkpt>
      <trkpt lat="43.004229" lon="-109.746914"><ele>2870.2</ele></trkpt>
      <trkpt lat="43.003849" lon="-109.746238"><ele>2876.0</ele></trkpt>
      <trkpt lat="43.003519" lon="-109.745336"><ele>2880.2</ele></trkpt>
      <trkpt lat="43.002807" lon="-109.743805"><ele>2891.2</ele></trkpt>
      <trkpt lat="43.001948" lon="-109.742619"><ele>2901.8</ele></trkpt>
      <trkpt lat="43.001025" lon="-109.741363"><ele>2910.0</ele></trkpt>
      <trkpt lat="43.000772" lon="-109.740696"><ele>2912.8</ele></trkpt>
      <trkpt lat="43.000688" lon="-109.740059"><ele>2912.8</ele></trkpt>
      <trkpt lat="43.000472" lon="-109.738455"><ele>2920.0</ele></trkpt>
      <trkpt lat="43.000386" lon="-109.738166"><ele>2922.8</ele></trkpt>
      <trkpt lat="42.999687" lon="-109.737188"><ele>2935.8</ele></trkpt>
      <trkpt lat="42.999164" lon="-109.736418"><ele>2939.5</ele></trkpt>
      <trkpt lat="42.998593" lon="-109.735706"><ele>2941.5</ele></trkpt>
      <trkpt lat="42.998150" lon="-109.735264"><ele>2944.2</ele></trkpt>
      <trkpt lat="42.997790" lon="-109.734520"><ele>2951.0</ele></trkpt>
      <trkpt lat="42.997038" lon="-109.733268"><ele>2964.5</ele></trkpt>
      <trkpt lat="42.996723" lon="-109.732578"><ele>2970.2</ele></trkpt>
      <trkpt lat="42.996590" lon="-109.731918"><ele>2973.5</ele></trkpt>
      <trkpt lat="42.996371" lon="-109.730846"><ele>2980.8</ele></trkpt>
      <trkpt lat="42.996227" lon="-109.730459"><ele>2983.2</ele></trkpt>
      <trkpt lat="42.995928" lon="-109.729887"><ele>2984.0</ele></trkpt>
      <trkpt lat="42.995537" lon="-109.729094"><ele>2989.5</ele></trkpt>
      <trkpt lat="42.995121" lon="-109.728118"><ele>2994.8</ele></trkpt>
      <trkpt lat="42.994924" lon="-109.727402"><ele>3001.5</ele></trkpt>
      <trkpt lat="42.994862" lon="-109.726484"><ele>3006.0</ele></trkpt>
      <trkpt lat="42.994986" lon="-109.725857"><ele>3009.5</ele></trkpt>
      <trkpt lat="42.995464" lon="-109.725013"><ele>3016.2</ele></trkpt>
      <trkpt lat="42.995847" lon="-109.724665"><ele>3019.5</ele></trkpt>
      <trkpt lat="42.996637" lon="-109.724112"><ele>3025.8</ele></trkpt>
      <trkpt lat="42.997512" lon="-109.723220"><ele>3032.2</ele></trkpt>
      <trkpt lat="42.997753" lon="-109.722872"><ele>3035.2</ele></trkpt>
      <trkpt lat="42.998307" lon="-109.722420"><ele>3040.0</ele></trkpt>
      <trkpt lat="42.998542" lon="-109.722225"><ele>3041.5</ele></trkpt>
      <trkpt lat="42.999258" lon="-109.721617"><ele>3046.2</ele></trkpt>
      <trkpt lat="42.999974" lon="-109.721058"><ele>3050.5</ele></trkpt>
      <trkpt lat="43.000904" lon="-109.720696"><ele>3050.5</ele></trkpt>
      <trkpt lat="43.001232" lon="-109.720703"><ele>3050.8</ele></trkpt>
      <trkpt lat="43.001630" lon="-109.720803"><ele>3050.8</ele></trkpt>
      <trkpt lat="43.002127" lon="-109.720647"><ele>3051.5</ele></trkpt>
      <trkpt lat="43.002542" lon="-109.720733"><ele>3052.5</ele></trkpt>
      <trkpt lat="43.003370" lon="-109.720872"><ele>3053.0</ele></trkpt>
      <trkpt lat="43.004211" lon="-109.720807"><ele>3055.0</ele></trkpt>
      <trkpt lat="43.004588" lon="-109.720729"><ele>3055.8</ele></trkpt>
      <trkpt lat="43.005078" lon="-109.720336"><ele>3056.5</ele></trkpt>
      <trkpt lat="43.005720" lon="-109.719966"><ele>3058.5</ele></trkpt>
      <trkpt lat="43.006081" lon="-109.719711"><ele>3063.0</ele></trkpt>
      <trkpt lat="43.006503" lon="-109.719118"><ele>3069.0</ele></trkpt>
      <trkpt lat="43.006648" lon="-109.718796"><ele>3071.5</ele></trkpt>
      <trkpt lat="43.006722" lon="-109.718493"><ele>3073.0</ele></trkpt>
      <trkpt lat="43.007060" lon="-109.717927"><ele>3078.5</ele></trkpt>
      <trkpt lat="43.007478" lon="-109.717248"><ele>3085.0</ele></trkpt>
      <trkpt lat="43.007850" lon="-109.716814"><ele>3085.5</ele></trkpt>
      <trkpt lat="43.008157" lon="-109.716516"><ele>3085.8</ele></trkpt>
      <trkpt lat="43.008636" lon="-109.715273"><ele>3085.0</ele></trkpt>
      <trkpt lat="43.008920" lon="-109.714078"><ele>3084.8</ele></trkpt>
      <trkpt lat="43.009321" lon="-109.712163"><ele>3081.5</ele></trkpt>
      <trkpt lat="43.009638" lon="-109.710377"><ele>3081.2</ele></trkpt>
      <trkpt lat="43.009717" lon="-109.709619"><ele>3080.2</ele></trkpt>
      <trkpt lat="43.009832" lon="-109.708712"><ele>3079.0</ele></trkpt>
      <trkpt lat="43.009974" lon="-109.707571"><ele>3081.8</ele></trkpt>
      <trkpt lat="43.010120" lon="-109.707499"><ele>3082.2</ele></trkpt>
      <trkpt lat="43.010485" lon="-109.707698"><ele>3082.2</ele></trkpt>
      <trkpt lat="43.010729" lon="-109.707654"><ele>3083.2</ele></trkpt>
      <trkpt lat="43.011543" lon="-109.706817"><ele>3091.8</ele></trkpt>
      <trkpt lat="43.012041" lon="-109.706343"><ele>3095.8</ele></trkpt>
      <trkpt lat="43.012324" lon="-109.706330"><ele>3097.2</ele></trkpt>
      <trkpt lat="43.012950" lon="-109.706368"><ele>3101.0</ele></trkpt>
      <trkpt lat="43.013152" lon="-109.706245"><ele>3102.8</ele></trkpt>
      <trkpt lat="43.014177" lon="-109.704893"><ele>3107.5</ele></trkpt>
      <trkpt lat="43.015003" lon="-109.702046"><ele>3114.2</ele></trkpt>
      <trkpt lat="43.015240" lon="-109.701067"><ele>3114.8</ele></trkpt>
      <trkpt lat="43.015169" lon="-109.699873"><ele>3116.2</ele></trkpt>
      <trkpt lat="43.015297" lon="-109.699217"><ele>3120.2</ele></trkpt>
      <trkpt lat="43.015369" lon="-109.698558"><ele>3124.0</ele></trkpt>
      <trkpt lat="43.015246" lon="-109.697681"><ele>3122.5</ele></trkpt>
      <trkpt lat="43.015334" lon="-109.697441"><ele>3124.0</ele></trkpt>
      <trkpt lat="43.016124" lon="-109.696356"><ele>3133.8</ele></trkpt>
      <trkpt lat="43.016321" lon="-109.696198"><ele>3136.0</ele></trkpt>
      <trkpt lat="43.016541" lon="-109.696222"><ele>3139.5</ele></trkpt>
      <trkpt lat="43.017571" lon="-109.696831"><ele>3143.2</ele></trkpt>
      <trkpt lat="43.017881" lon="-109.696908"><ele>3142.0</ele></trkpt>
      <trkpt lat="43.018180" lon="-109.696750"><ele>3140.8</ele></trkpt>
      <trkpt lat="43.018427" lon="-109.696589"><ele>3140.0</ele></trkpt>
      <trkpt lat="43.018956" lon="-109.696334"><ele>3141.5</ele></trkpt>
      <trkpt lat="43.019199" lon="-109.696151"><ele>3143.2</ele></trkpt>
      <trkpt lat="43.019176" lon="-109.695750"><ele>3146.8</ele></trkpt>
      <trkpt lat="43.019159" lon="-109.695598"><ele>3148.2</ele></trkpt>
      <trkpt lat="43.019296" lon="-109.695706"><ele>3148.0</ele></trkpt>
      <trkpt lat="43.019332" lon="-109.695588"><ele>3149.8</ele></trkpt>
      <trkpt lat="43.019323" lon="-109.695459"><ele>3151.0</ele></trkpt>
      <trkpt lat="43.019649" lon="-109.695552"><ele>3152.5</ele></trkpt>
      <trkpt lat="43.019900" lon="-109.695533"><ele>3154.5</ele></trkpt>
      <trkpt lat="43.020257" lon="-109.695220"><ele>3159.8</ele></trkpt>
      <trkpt lat="43.020450" lon="-109.695201"><ele>3160.0</ele></trkpt>
      <trkpt lat="43.021125" lon="-109.695469"><ele>3153.8</ele></trkpt>
      <trkpt lat="43.021320" lon="-109.695538"><ele>3151.8</ele></trkpt>
      <trkpt lat="43.021468" lon="-109.695438"><ele>3151.0</ele></trkpt>
      <trkpt lat="43.021720" lon="-109.695655"><ele>3147.8</ele></trkpt>
      <trkpt lat="43.021896" lon="-109.695682"><ele>3143.5</ele></trkpt>
      <trkpt lat="43.022108" lon="-109.695799"><ele>3138.8</ele></trkpt>
      <trkpt lat="43.022108" lon="-109.695799"><ele>3138.8</ele></trkpt>
      <trkpt lat="43.021896" lon="-109.695682"><ele>3143.5</ele></trkpt>
      <trkpt lat="43.021720" lon="-109.695655"><ele>3147.8</ele></trkpt>
      <trkpt lat="43.021468" lon="-109.695438"><ele>3151.0</ele></trkpt>
      <trkpt lat="43.021547" lon="-109.695299"><ele>3150.8</ele></trkpt>
      <trkpt lat="43.021441" lon="-109.695072"><ele>3153.0</ele></trkpt>
      <trkpt lat="43.021090" lon="-109.694418"><ele>3158.0</ele></trkpt>
      <trkpt lat="43.020786" lon="-109.694099"><ele>3161.2</ele></trkpt>
      <trkpt lat="43.020092" lon="-109.693617"><ele>3158.5</ele></trkpt>
      <trkpt lat="43.019846" lon="-109.693280"><ele>3156.0</ele></trkpt>
      <trkpt lat="43.019741" lon="-109.692988"><ele>3154.5</ele></trkpt>
      <trkpt lat="43.019692" lon="-109.692223"><ele>3150.8</ele></trkpt>
      <trkpt lat="43.019564" lon="-109.691761"><ele>3149.8</ele></trkpt>
      <trkpt lat="43.019612" lon="-109.691581"><ele>3149.0</ele></trkpt>
      <trkpt lat="43.020003" lon="-109.690946"><ele>3143.2</ele></trkpt>
      <trkpt lat="43.020261" lon="-109.690535"><ele>3141.0</ele></trkpt>
      <trkpt lat="43.020497" lon="-109.690064"><ele>3140.5</ele></trkpt>
      <trkpt lat="43.020788" lon="-109.689810"><ele>3139.8</ele></trkpt>
      <trkpt lat="43.020908" lon="-109.689605"><ele>3140.5</ele></trkpt>
      <trkpt lat="43.020851" lon="-109.689279"><ele>3143.0</ele></trkpt>
      <trkpt lat="43.020742" lon="-109.689001"><ele>3145.5</ele></trkpt>
      <trkpt lat="43.020635" lon="-109.688777"><ele>3147.8</ele></trkpt>
      <trkpt lat="43.020744" lon="-109.688437"><ele>3148.2</ele></trkpt>
      <trkpt lat="43.020726" lon="-109.688074"><ele>3148.2</ele></trkpt>
      <trkpt lat="43.020315" lon="-109.686685"><ele>3149.0</ele></trkpt>
      <trkpt lat="43.019970" lon="-109.685622"><ele>3143.0</ele></trkpt>
      <trkpt lat="43.019966" lon="-109.684934"><ele>3141.2</ele></trkpt>
      <trkpt lat="43.020085" lon="-109.684464"><ele>3143.5</ele></trkpt>
      <trkpt lat="43.020401" lon="-109.683814"><ele>3147.0</ele></trkpt>
      <trkpt lat="43.020583" lon="-109.683163"><ele>3149.2</ele></trkpt>
      <trkpt lat="43.020631" lon="-109.682711"><ele>3150.5</ele></trkpt>
      <trkpt lat="43.021111" lon="-109.682171"><ele>3152.8</ele></trkpt>
      <trkpt lat="43.021250" lon="-109.681821"><ele>3154.2</ele></trkpt>
      <trkpt lat="43.021357" lon="-109.681032"><ele>3155.0</ele></trkpt>
      <trkpt lat="43.021467" lon="-109.679828"><ele>3145.8</ele></trkpt>
      <trkpt lat="43.021769" lon="-109.679759"><ele>3143.5</ele></trkpt>
      <trkpt lat="43.022389" lon="-109.680211"><ele>3138.8</ele></trkpt>
      <trkpt lat="43.022770" lon="-109.680537"><ele>3137.2</ele></trkpt>
      <trkpt lat="43.023377" lon="-109.681158"><ele>3131.8</ele></trkpt>
      <trkpt lat="43.023677" lon="-109.681485"><ele>3129.2</ele></trkpt>
      <trkpt lat="43.024287" lon="-109.681888"><ele>3118.8</ele></trkpt>
      <trkpt lat="43.024468" lon="-109.681876"><ele>3120.5</ele></trkpt>
      <trkpt lat="43.024545" lon="-109.681696"><ele>3121.8</ele></trkpt>
      <trkpt lat="43.025039" lon="-109.681041"><ele>3122.5</ele></trkpt>
      <trkpt lat="43.025350" lon="-109.680866"><ele>3122.0</ele></trkpt>
      <trkpt lat="43.025831" lon="-109.680720"><ele>3122.8</ele></trkpt>
      <trkpt lat="43.025967" lon="-109.680384"><ele>3121.8</ele></trkpt>
      <trkpt lat="43.026273" lon="-109.679849"><ele>3120.2</ele></trkpt>
      <trkpt lat="43.027127" lon="-109.679460"><ele>3109.0</ele></trkpt>
      <trkpt lat="43.027336" lon="-109.679397"><ele>3105.2</ele></trkpt>
      <trkpt lat="43.027600" lon="-109.678600"><ele>3107.0</ele></trkpt>
      <trkpt lat="43.027900" lon="-109.678279"><ele>3100.2</ele></trkpt>
      <trkpt lat="43.028234" lon="-109.678241"><ele>3088.5</ele></trkpt>
      <trkpt lat="43.028212" lon="-109.677867"><ele>3093.5</ele></trkpt>
      <trkpt lat="43.028406" lon="-109.677549"><ele>3090.0</ele></trkpt>
      <trkpt lat="43.028493" lon="-109.677192"><ele>3093.2</ele></trkpt>
      <trkpt lat="43.028620" lon="-109.677101"><ele>3090.8</ele></trkpt>
      <trkpt lat="43.028730" lon="-109.677163"><ele>3086.2</ele></trkpt>
      <trkpt lat="43.028938" lon="-109.677431"><ele>3075.2</ele></trkpt>
      <trkpt lat="43.029101" lon="-109.677564"><ele>3068.0</ele></trkpt>
      <trkpt lat="43.029244" lon="-109.677356"><ele>3068.0</ele></trkpt>
      <trkpt lat="43.029260" lon="-109.677050"><ele>3072.2</ele></trkpt>
      <trkpt lat="43.029301" lon="-109.677007"><ele>3072.0</ele></trkpt>
      <trkpt lat="43.029465" lon="-109.677619"><ele>3061.8</ele></trkpt>
      <trkpt lat="43.029590" lon="-109.677518"><ele>3060.8</ele></trkpt>
      <trkpt lat="43.029875" lon="-109.677366"><ele>3058.0</ele></trkpt>
      <trkpt lat="43.030197" lon="-109.677363"><ele>3057.0</ele></trkpt>
      <trkpt lat="43.030597" lon="-109.677751"><ele>3060.8</ele></trkpt>
      <trkpt lat="43.031390" lon="-109.677849"><ele>3074.8</ele></trkpt>
      <trkpt lat="43.031844" lon="-109.677320"><ele>3076.5</ele></trkpt>
      <trkpt lat="43.032713" lon="-109.676771"><ele>3088.5</ele></trkpt>
      <trkpt lat="43.033176" lon="-109.676409"><ele>3093.2</ele></trkpt>
      <trkpt lat="43.033419" lon="-109.675931"><ele>3092.2</ele></trkpt>
      <trkpt lat="43.033583" lon="-109.675005"><ele>3087.8</ele></trkpt>
      <trkpt lat="43.033823" lon="-109.674467"><ele>3084.5</ele></trkpt>
      <trkpt lat="43.034353" lon="-109.674024"><ele>3080.2</ele></trkpt>
      <trkpt lat="43.034843" lon="-109.673971"><ele>3081.2</ele></trkpt>
      <trkpt lat="43.035219" lon="-109.673809"><ele>3079.8</ele></trkpt>
      <trkpt lat="43.035786" lon="-109.673914"><ele>3082.2</ele></trkpt>
      <trkpt lat="43.036426" lon="-109.673811"><ele>3084.8</ele></trkpt>
      <trkpt lat="43.037330" lon="-109.674144"><ele>3086.5</ele></trkpt>
      <trkpt lat="43.038316" lon="-109.674168"><ele>3079.0</ele></trkpt>
      <trkpt lat="43.038765" lon="-109.674063"><ele>3075.5</ele></trkpt>
      <trkpt lat="43.039101" lon="-109.673888"><ele>3074.8</ele></trkpt>
      <trkpt lat="43.039527" lon="-109.673861"><ele>3076.0</ele></trkpt>
      <trkpt lat="43.040077" lon="-109.673641"><ele>3078.0</ele></trkpt>
      <trkpt lat="43.040326" lon="-109.673735"><ele>3077.0</ele></trkpt>
      <trkpt lat="43.040593" lon="-109.673165"><ele>3076.8</ele></trkpt>
      <trkpt lat="43.041314" lon="-109.673080"><ele>3075.2</ele></trkpt>
      <trkpt lat="43.041673" lon="-109.672716"><ele>3079.0</ele></trkpt>
      <trkpt lat="43.042016" lon="-109.673041"><ele>3075.0</ele></trkpt>
      <trkpt lat="43.042236" lon="-109.673335"><ele>3070.2</ele></trkpt>
      <trkpt lat="43.042543" lon="-109.673169"><ele>3073.5</ele></trkpt>
      <trkpt lat="43.042718" lon="-109.672883"><ele>3080.2</ele></trkpt>
      <trkpt lat="43.042888" lon="-109.672905"><ele>3081.5</ele></trkpt>
      <trkpt lat="43.042920" lon="-109.673123"><ele>3079.2</ele></trkpt>
      <trkpt lat="43.043218" lon="-109.672812"><ele>3085.0</ele></trkpt>
      <trkpt lat="43.043321" lon="-109.673067"><ele>3084.8</ele></trkpt>
      <trkpt lat="43.043769" lon="-109.673257"><ele>3089.0</ele></trkpt>
      <trkpt lat="43.044583" lon="-109.673234"><ele>3094.8</ele></trkpt>
      <trkpt lat="43.045321" lon="-109.673075"><ele>3098.2</ele></trkpt>
      <trkpt lat="43.045588" lon="-109.672737"><ele>3101.2</ele></trkpt>
      <trkpt lat="43.045966" lon="-109.672597"><ele>3104.2</ele></trkpt>
      <trkpt lat="43.046299" lon="-109.672901"><ele>3106.5</ele></trkpt>
      <trkpt lat="43.046582" lon="-109.673249"><ele>3106.0</ele></trkpt>
      <trkpt lat="43.047160" lon="-109.673056"><ele>3098.8</ele></trkpt>
      <trkpt lat="43.047360" lon="-109.673095"><ele>3094.5</ele></trkpt>
      <trkpt lat="43.047538" lon="-109.673182"><ele>3090.0</ele></trkpt>
      <trkpt lat="43.048085" lon="-109.673028"><ele>3077.2</ele></trkpt>
      <trkpt lat="43.048571" lon="-109.673121"><ele>3069.8</ele></trkpt>
      <trkpt lat="43.049043" lon="-109.673102"><ele>3067.0</ele></trkpt>
      <trkpt lat="43.049508" lon="-109.673091"><ele>3066.0</ele></trkpt>
      <trkpt lat="43.049982" lon="-109.673153"><ele>3065.2</ele></trkpt>
      <trkpt lat="43.050337" lon="-109.673166"><ele>3062.0</ele></trkpt>
      <trkpt lat="43.051016" lon="-109.673079"><ele>3055.0</ele></trkpt>
      <trkpt lat="43.051167" lon="-109.672928"><ele>3054.2</ele></trkpt>
      <trkpt lat="43.051589" lon="-109.672217"><ele>3054.0</ele></trkpt>
      <trkpt lat="43.051729" lon="-109.671565"><ele>3063.8</ele></trkpt>
      <trkpt lat="43.051857" lon="-109.671085"><ele>3073.2</ele></trkpt>
      <trkpt lat="43.052062" lon="-109.670701"><ele>3078.5</ele></trkpt>
      <trkpt lat="43.052205" lon="-109.670709"><ele>3076.5</ele></trkpt>
      <trkpt lat="43.052466" lon="-109.669856"><ele>3078.5</ele></trkpt>
      <trkpt lat="43.052520" lon="-109.669249"><ele>3085.0</ele></trkpt>
      <trkpt lat="43.052869" lon="-109.669231"><ele>3086.5</ele></trkpt>
      <trkpt lat="43.053135" lon="-109.669099"><ele>3089.0</ele></trkpt>
      <trkpt lat="43.053355" lon="-109.668871"><ele>3092.0</ele></trkpt>
      <trkpt lat="43.053304" lon="-109.668490"><ele>3096.2</ele></trkpt>
      <trkpt lat="43.053162" lon="-109.668150"><ele>3102.8</ele></trkpt>
      <trkpt lat="43.052817" lon="-109.667567"><ele>3113.8</ele></trkpt>
      <trkpt lat="43.052748" lon="-109.667338"><ele>3118.2</ele></trkpt>
      <trkpt lat="43.052856" lon="-109.667201"><ele>3123.2</ele></trkpt>
      <trkpt lat="43.052738" lon="-109.667049"><ele>3125.5</ele></trkpt>
      <trkpt lat="43.052883" lon="-109.667040"><ele>3127.8</ele></trkpt>
      <trkpt lat="43.052830" lon="-109.666914"><ele>3130.2</ele></trkpt>
      <trkpt lat="43.052856" lon="-109.666670"><ele>3137.0</ele></trkpt>
      <trkpt lat="43.053026" lon="-109.666018"><ele>3145.0</ele></trkpt>
      <trkpt lat="43.052983" lon="-109.665090"><ele>3153.5</ele></trkpt>
      <trkpt lat="43.053175" lon="-109.664602"><ele>3152.2</ele></trkpt>
      <trkpt lat="43.053402" lon="-109.664217"><ele>3152.5</ele></trkpt>
      <trkpt lat="43.053779" lon="-109.664042"><ele>3159.0</ele></trkpt>
      <trkpt lat="43.053926" lon="-109.663732"><ele>3161.5</ele></trkpt>
      <trkpt lat="43.054024" lon="-109.663255"><ele>3162.2</ele></trkpt>
      <trkpt lat="43.054192" lon="-109.662901"><ele>3161.2</ele></trkpt>
      <trkpt lat="43.054057" lon="-109.662875"><ele>3161.0</ele></trkpt>
      <trkpt lat="43.053882" lon="-109.663129"><ele>3162.2</ele></trkpt>
      <trkpt lat="43.053828" lon="-109.663035"><ele>3162.0</ele></trkpt>
      <trkpt lat="43.054022" lon="-109.662612"><ele>3160.2</ele></trkpt>
      <trkpt lat="43.054295" lon="-109.662450"><ele>3159.8</ele></trkpt>
      <trkpt lat="43.055087" lon="-109.662295"><ele>3161.8</ele></trkpt>
      <trkpt lat="43.055367" lon="-109.662136"><ele>3162.5</ele></trkpt>
      <trkpt lat="43.055979" lon="-109.661484"><ele>3154.2</ele></trkpt>
      <trkpt lat="43.056642" lon="-109.661091"><ele>3151.2</ele></trkpt>
      <trkpt lat="43.057105" lon="-109.661037"><ele>3148.0</ele></trkpt>
      <trkpt lat="43.057673" lon="-109.661038"><ele>3145.2</ele></trkpt>
      <trkpt lat="43.058459" lon="-109.661496"><ele>3151.8</ele></trkpt>
      <trkpt lat="43.058708" lon="-109.661496"><ele>3149.8</ele></trkpt>
      <trkpt lat="43.059033" lon="-109.661518"><ele>3147.2</ele></trkpt>
      <trkpt lat="43.059259" lon="-109.661709"><ele>3150.5</ele></trkpt>
      <trkpt lat="43.060021" lon="-109.661611"><ele>3143.2</ele></trkpt>
      <trkpt lat="43.060354" lon="-109.661522"><ele>3144.0</ele></trkpt>
      <trkpt lat="43.060650" lon="-109.661231"><ele>3142.5</ele></trkpt>
      <trkpt lat="43.060948" lon="-109.661269"><ele>3144.8</ele></trkpt>
      <trkpt lat="43.061202" lon="-109.661155"><ele>3144.5</ele></trkpt>
      <trkpt lat="43.061200" lon="-109.660959"><ele>3142.0</ele></trkpt>
      <trkpt lat="43.061248" lon="-109.660749"><ele>3139.8</ele></trkpt>
      <trkpt lat="43.061469" lon="-109.660895"><ele>3141.5</ele></trkpt>
      <trkpt lat="43.061583" lon="-109.660898"><ele>3141.8</ele></trkpt>
      <trkpt lat="43.061629" lon="-109.660789"><ele>3140.2</ele></trkpt>
      <trkpt lat="43.061655" lon="-109.660690"><ele>3139.2</ele></trkpt>
      <trkpt lat="43.061839" lon="-109.660576"><ele>3138.2</ele></trkpt>
      <trkpt lat="43.061956" lon="-109.660475"><ele>3137.5</ele></trkpt>
      <trkpt lat="43.062492" lon="-109.659884"><ele>3138.0</ele></trkpt>
      <trkpt lat="43.063217" lon="-109.659547"><ele>3147.2</ele></trkpt>
      <trkpt lat="43.063581" lon="-109.659050"><ele>3150.5</ele></trkpt>
      <trkpt lat="43.063915" lon="-109.657798"><ele>3149.2</ele></trkpt>
      <trkpt lat="43.064009" lon="-109.657656"><ele>3149.0</ele></trkpt>
      <trkpt lat="43.064395" lon="-109.657457"><ele>3153.0</ele></trkpt>
      <trkpt lat="43.064677" lon="-109.657251"><ele>3157.2</ele></trkpt>
      <trkpt lat="43.064837" lon="-109.656847"><ele>3157.8</ele></trkpt>
      <trkpt lat="43.064830" lon="-109.656647"><ele>3156.5</ele></trkpt>
      <trkpt lat="43.064605" lon="-109.656168"><ele>3155.0</ele></trkpt>
      <trkpt lat="43.064580" lon="-109.655683"><ele>3155.5</ele></trkpt>
      <trkpt lat="43.064694" lon="-109.655394"><ele>3156.8</ele></trkpt>
      <trkpt lat="43.064783" lon="-109.654963"><ele>3157.0</ele></trkpt>
      <trkpt lat="43.064857" lon="-109.654499"><ele>3159.0</ele></trkpt>
      <trkpt lat="43.064857" lon="-109.654329"><ele>3159.2</ele></trkpt>
      <trkpt lat="43.064936" lon="-109.654266"><ele>3159.8</ele></trkpt>
      <trkpt lat="43.065086" lon="-109.654009"><ele>3161.5</ele></trkpt>
      <trkpt lat="43.065149" lon="-109.653861"><ele>3162.2</ele></trkpt>
      <trkpt lat="43.065268" lon="-109.653779"><ele>3163.5</ele></trkpt>
      <trkpt lat="43.065503" lon="-109.653813"><ele>3166.5</ele></trkpt>
      <trkpt lat="43.065763" lon="-109.653653"><ele>3167.0</ele></trkpt>
      <trkpt lat="43.065941" lon="-109.653562"><ele>3166.5</ele></trkpt>
      <trkpt lat="43.066216" lon="-109.653633"><ele>3169.0</ele></trkpt>
      <trkpt lat="43.066343" lon="-109.653715"><ele>3171.2</ele></trkpt>
      <trkpt lat="43.066401" lon="-109.653687"><ele>3170.8</ele></trkpt>
      <trkpt lat="43.066513" lon="-109.653563"><ele>3169.0</ele></trkpt>
      <trkpt lat="43.066713" lon="-109.653529"><ele>3169.2</ele></trkpt>
      <trkpt lat="43.066993" lon="-109.653349"><ele>3168.8</ele></trkpt>
      <trkpt lat="43.067167" lon="-109.653290"><ele>3169.8</ele></trkpt>
      <trkpt lat="43.067359" lon="-109.653181"><ele>3169.8</ele></trkpt>
      <trkpt lat="43.067576" lon="-109.653115"><ele>3170.8</ele></trkpt>
      <trkpt lat="43.067861" lon="-109.652937"><ele>3170.2</ele></trkpt>
      <trkpt lat="43.068070" lon="-109.652759"><ele>3169.2</ele></trkpt>
      <trkpt lat="43.068207" lon="-109.652655"><ele>3169.0</ele></trkpt>
      <trkpt lat="43.068323" lon="-109.652649"><ele>3170.0</ele></trkpt>
      <trkpt lat="43.068483" lon="-109.652421"><ele>3173.2</ele></trkpt>
      <trkpt lat="43.068521" lon="-109.652284"><ele>3175.8</ele></trkpt>
      <trkpt lat="43.068461" lon="-109.652037"><ele>3176.5</ele></trkpt>
      <trkpt lat="43.068056" lon="-109.651363"><ele>3176.8</ele></trkpt>
      <trkpt lat="43.067657" lon="-109.650882"><ele>3177.0</ele></trkpt>
      <trkpt lat="43.067206" lon="-109.650464"><ele>3177.2</ele></trkpt>
      <trkpt lat="43.066991" lon="-109.649989"><ele>3180.5</ele></trkpt>
      <trkpt lat="43.066915" lon="-109.649464"><ele>3179.2</ele></trkpt>
      <trkpt lat="43.066976" lon="-109.648999"><ele>3180.5</ele></trkpt>
      <trkpt lat="43.067426" lon="-109.648401"><ele>3187.0</ele></trkpt>
      <trkpt lat="43.067809" lon="-109.647981"><ele>3194.8</ele></trkpt>
      <trkpt lat="43.068178" lon="-109.647634"><ele>3203.8</ele></trkpt>
      <trkpt lat="43.068368" lon="-109.647496"><ele>3209.0</ele></trkpt>
      <trkpt lat="43.068425" lon="-109.647595"><ele>3211.0</ele></trkpt>
      <trkpt lat="43.068765" lon="-109.647587"><ele>3220.5</ele></trkpt>
      <trkpt lat="43.068760" lon="-109.647973"><ele>3223.0</ele></trkpt>
      <trkpt lat="43.068917" lon="-109.648145"><ele>3229.0</ele></trkpt>
      <trkpt lat="43.069040" lon="-109.648130"><ele>3232.5</ele></trkpt>
      <trkpt lat="43.069253" lon="-109.647851"><ele>3236.0</ele></trkpt>
      <trkpt lat="43.069401" lon="-109.647568"><ele>3236.8</ele></trkpt>
      <trkpt lat="43.069528" lon="-109.647284"><ele>3242.5</ele></trkpt>
      <trkpt lat="43.069644" lon="-109.647052"><ele>3246.2</ele></trkpt>
      <trkpt lat="43.069826" lon="-109.646959"><ele>3246.0</ele></trkpt>
      <trkpt lat="43.070103" lon="-109.646605"><ele>3243.5</ele></trkpt>
      <trkpt lat="43.070218" lon="-109.646575"><ele>3243.2</ele></trkpt>
      <trkpt lat="43.070339" lon="-109.646392"><ele>3243.2</ele></trkpt>
      <trkpt lat="43.070518" lon="-109.646301"><ele>3240.5</ele></trkpt>
      <trkpt lat="43.070672" lon="-109.646153"><ele>3236.8</ele></trkpt>
      <trkpt lat="43.070783" lon="-109.646099"><ele>3233.5</ele></trkpt>
      <trkpt lat="43.070948" lon="-109.645873"><ele>3227.0</ele></trkpt>
      <trkpt lat="43.071114" lon="-109.645426"><ele>3221.0</ele></trkpt>
      <trkpt lat="43.071392" lon="-109.644976"><ele>3213.8</ele></trkpt>
      <trkpt lat="43.071905" lon="-109.644561"><ele>3206.2</ele></trkpt>
      <trkpt lat="43.072154" lon="-109.644217"><ele>3203.5</ele></trkpt>
      <trkpt lat="43.072284" lon="-109.643746"><ele>3203.2</ele></trkpt>
      <trkpt lat="43.072797" lon="-109.643047"><ele>3206.0</ele></trkpt>
      <trkpt lat="43.073429" lon="-109.641813"><ele>3219.0</ele></trkpt>
      <trkpt lat="43.074082" lon="-109.640881"><ele>3224.5</ele></trkpt>
      <trkpt lat="43.074679" lon="-109.640096"><ele>3238.5</ele></trkpt>
      <trkpt lat="43.075182" lon="-109.639740"><ele>3243.2</ele></trkpt>
      <trkpt lat="43.075638" lon="-109.638871"><ele>3251.0</ele></trkpt>
      <trkpt lat="43.076163" lon="-109.637859"><ele>3252.5</ele></trkpt>
      <trkpt lat="43.076712" lon="-109.637259"><ele>3251.0</ele></trkpt>
      <trkpt lat="43.077101" lon="-109.636893"><ele>3252.8</ele></trkpt>
      <trkpt lat="43.077424" lon="-109.636367"><ele>3249.5</ele></trkpt>
      <trkpt lat="43.078199" lon="-109.635489"><ele>3238.2</ele></trkpt>
      <trkpt lat="43.078659" lon="-109.635124"><ele>3218.5</ele></trkpt>
      <trkpt lat="43.078782" lon="-109.635167"><ele>3216.0</ele></trkpt>
      <trkpt lat="43.078792" lon="-109.634837"><ele>3212.0</ele></trkpt>
      <trkpt lat="43.079509" lon="-109.634103"><ele>3190.5</ele></trkpt>
      <trkpt lat="43.079836" lon="-109.633426"><ele>3184.8</ele></trkpt>
      <trkpt lat="43.080393" lon="-109.632882"><ele>3179.5</ele></trkpt>
      <trkpt lat="43.080774" lon="-109.632243"><ele>3175.2</ele></trkpt>
      <trkpt lat="43.081212" lon="-109.632069"><ele>3166.8</ele></trkpt>
      <trkpt lat="43.081440" lon="-109.631534"><ele>3164.0</ele></trkpt>
      <trkpt lat="43.081772" lon="-109.630393"><ele>3169.5</ele></trkpt>
      <trkpt lat="43.082259" lon="-109.629574"><ele>3168.5</ele></trkpt>
      <trkpt lat="43.082736" lon="-109.629040"><ele>3166.5</ele></trkpt>
      <trkpt lat="43.083012" lon="-109.628866"><ele>3166.5</ele></trkpt>
      <trkpt lat="43.084655" lon="-109.628543"><ele>3173.8</ele></trkpt>
      <trkpt lat="43.085123" lon="-109.629099"><ele>3170.0</ele></trkpt>
      <trkpt lat="43.086051" lon="-109.630458"><ele>3174.0</ele></trkpt>
      <trkpt lat="43.086503" lon="-109.631454"><ele>3174.2</ele></trkpt>
      <trkpt lat="43.086795" lon="-109.632235"><ele>3175.2</ele></trkpt>
      <trkpt lat="43.086853" lon="-109.632337"><ele>3175.5</ele></trkpt>
      <trkpt lat="43.086769" lon="-109.633094"><ele>3172.5</ele></trkpt>
      <trkpt lat="43.086559" lon="-109.633456"><ele>3170.2</ele></trkpt>
      <trkpt lat="43.086528" lon="-109.634089"><ele>3166.8</ele></trkpt>
      <trkpt lat="43.086550" lon="-109.634475"><ele>3166.8</ele></trkpt>
      <trkpt lat="43.087122" lon="-109.635090"><ele>3178.0</ele></trkpt>
      <trkpt lat="43.087460" lon="-109.635626"><ele>3174.8</ele></trkpt>
      <trkpt lat="43.087703" lon="-109.636331"><ele>3171.5</ele></trkpt>
      <trkpt lat="43.087876" lon="-109.636694"><ele>3170.0</ele></trkpt>
      <trkpt lat="43.088068" lon="-109.637410"><ele>3162.5</ele></trkpt>
    </trkseg>
    <!-- Sat: day pack into Titcomb Basin to the middle lake and back (6.9 mi, 664 ft up) -->
    <trkseg>
      <trkpt lat="43.088068" lon="-109.637410"><ele>3162.5</ele></trkpt>
      <trkpt lat="43.088226" lon="-109.637353"><ele>3164.5</ele></trkpt>
      <trkpt lat="43.088273" lon="-109.636991"><ele>3170.8</ele></trkpt>
      <trkpt lat="43.088420" lon="-109.636761"><ele>3176.5</ele></trkpt>
      <trkpt lat="43.088624" lon="-109.636476"><ele>3184.2</ele></trkpt>
      <trkpt lat="43.088920" lon="-109.636479"><ele>3187.5</ele></trkpt>
      <trkpt lat="43.089094" lon="-109.636179"><ele>3193.2</ele></trkpt>
      <trkpt lat="43.089265" lon="-109.635833"><ele>3197.2</ele></trkpt>
      <trkpt lat="43.089445" lon="-109.635470"><ele>3199.2</ele></trkpt>
      <trkpt lat="43.089607" lon="-109.634848"><ele>3202.0</ele></trkpt>
      <trkpt lat="43.089948" lon="-109.634459"><ele>3201.0</ele></trkpt>
      <trkpt lat="43.090095" lon="-109.634293"><ele>3201.2</ele></trkpt>
      <trkpt lat="43.090234" lon="-109.634022"><ele>3202.0</ele></trkpt>
      <trkpt lat="43.090352" lon="-109.633748"><ele>3202.5</ele></trkpt>
      <trkpt lat="43.090618" lon="-109.633089"><ele>3201.5</ele></trkpt>
      <trkpt lat="43.090828" lon="-109.632778"><ele>3199.2</ele></trkpt>
      <trkpt lat="43.091088" lon="-109.632515"><ele>3200.0</ele></trkpt>
      <trkpt lat="43.091390" lon="-109.631917"><ele>3200.8</ele></trkpt>
      <trkpt lat="43.091474" lon="-109.631396"><ele>3202.5</ele></trkpt>
      <trkpt lat="43.091635" lon="-109.631147"><ele>3202.0</ele></trkpt>
      <trkpt lat="43.091889" lon="-109.630841"><ele>3202.2</ele></trkpt>
      <trkpt lat="43.092068" lon="-109.630357"><ele>3209.0</ele></trkpt>
      <trkpt lat="43.092322" lon="-109.630195"><ele>3211.2</ele></trkpt>
      <trkpt lat="43.092989" lon="-109.630289"><ele>3207.8</ele></trkpt>
      <trkpt lat="43.093245" lon="-109.629988"><ele>3211.5</ele></trkpt>
      <trkpt lat="43.093426" lon="-109.629291"><ele>3223.0</ele></trkpt>
      <trkpt lat="43.093543" lon="-109.628971"><ele>3226.2</ele></trkpt>
      <trkpt lat="43.093732" lon="-109.628842"><ele>3225.8</ele></trkpt>
      <trkpt lat="43.093936" lon="-109.628635"><ele>3226.0</ele></trkpt>
      <trkpt lat="43.093982" lon="-109.628296"><ele>3229.2</ele></trkpt>
      <trkpt lat="43.093956" lon="-109.628064"><ele>3232.0</ele></trkpt>
      <trkpt lat="43.094085" lon="-109.628114"><ele>3230.0</ele></trkpt>
      <trkpt lat="43.094331" lon="-109.627957"><ele>3232.5</ele></trkpt>
      <trkpt lat="43.094353" lon="-109.628210"><ele>3230.0</ele></trkpt>
      <trkpt lat="43.094353" lon="-109.628465"><ele>3227.2</ele></trkpt>
      <trkpt lat="43.094275" lon="-109.628636"><ele>3224.8</ele></trkpt>
      <trkpt lat="43.094261" lon="-109.628980"><ele>3220.8</ele></trkpt>
      <trkpt lat="43.094440" lon="-109.629468"><ele>3218.8</ele></trkpt>
      <trkpt lat="43.094410" lon="-109.629651"><ele>3217.2</ele></trkpt>
      <trkpt lat="43.094959" lon="-109.630157"><ele>3222.2</ele></trkpt>
      <trkpt lat="43.095491" lon="-109.630029"><ele>3223.5</ele></trkpt>
      <trkpt lat="43.095741" lon="-109.629994"><ele>3224.0</ele></trkpt>
      <trkpt lat="43.096046" lon="-109.629977"><ele>3226.0</ele></trkpt>
      <trkpt lat="43.096534" lon="-109.630048"><ele>3229.0</ele></trkpt>
      <trkpt lat="43.096623" lon="-109.630584"><ele>3229.8</ele></trkpt>
      <trkpt lat="43.096910" lon="-109.630764"><ele>3231.5</ele></trkpt>
      <trkpt lat="43.097632" lon="-109.631438"><ele>3230.0</ele></trkpt>
      <trkpt lat="43.098138" lon="-109.631729"><ele>3227.5</ele></trkpt>
      <trkpt lat="43.098435" lon="-109.631638"><ele>3228.5</ele></trkpt>
      <trkpt lat="43.098716" lon="-109.631584"><ele>3230.0</ele></trkpt>
      <trkpt lat="43.099313" lon="-109.631622"><ele>3229.0</ele></trkpt>
      <trkpt lat="43.099771" lon="-109.631656"><ele>3225.5</ele></trkpt>
      <trkpt lat="43.100318" lon="-109.631584"><ele>3224.8</ele></trkpt>
      <trkpt lat="43.100965" lon="-109.631435"><ele>3225.0</ele></trkpt>
      <trkpt lat="43.101149" lon="-109.631163"><ele>3227.2</ele></trkpt>
      <trkpt lat="43.101811" lon="-109.631291"><ele>3223.2</ele></trkpt>
      <trkpt lat="43.102298" lon="-109.631207"><ele>3225.8</ele></trkpt>
      <trkpt lat="43.103131" lon="-109.631344"><ele>3230.0</ele></trkpt>
      <trkpt lat="43.103781" lon="-109.631522"><ele>3227.8</ele></trkpt>
      <trkpt lat="43.104636" lon="-109.631569"><ele>3225.0</ele></trkpt>
      <trkpt lat="43.105893" lon="-109.632173"><ele>3224.0</ele></trkpt>
      <trkpt lat="43.106228" lon="-109.632873"><ele>3227.2</ele></trkpt>
      <trkpt lat="43.106316" lon="-109.633113"><ele>3229.0</ele></trkpt>
      <trkpt lat="43.106155" lon="-109.633376"><ele>3228.2</ele></trkpt>
      <trkpt lat="43.106622" lon="-109.633683"><ele>3235.0</ele></trkpt>
      <trkpt lat="43.106958" lon="-109.633979"><ele>3240.5</ele></trkpt>
      <trkpt lat="43.106826" lon="-109.634431"><ele>3241.5</ele></trkpt>
      <trkpt lat="43.106748" lon="-109.634791"><ele>3243.0</ele></trkpt>
      <trkpt lat="43.107527" lon="-109.635410"><ele>3243.0</ele></trkpt>
      <trkpt lat="43.108257" lon="-109.635727"><ele>3240.0</ele></trkpt>
      <trkpt lat="43.109335" lon="-109.635776"><ele>3236.5</ele></trkpt>
      <trkpt lat="43.109864" lon="-109.635845"><ele>3235.8</ele></trkpt>
      <trkpt lat="43.110487" lon="-109.635904"><ele>3236.5</ele></trkpt>
      <trkpt lat="43.111070" lon="-109.635696"><ele>3238.8</ele></trkpt>
      <trkpt lat="43.111626" lon="-109.635942"><ele>3235.0</ele></trkpt>
      <trkpt lat="43.112831" lon="-109.635514"><ele>3233.5</ele></trkpt>
      <trkpt lat="43.114656" lon="-109.635420"><ele>3233.0</ele></trkpt>
      <trkpt lat="43.115068" lon="-109.635306"><ele>3234.2</ele></trkpt>
      <trkpt lat="43.115796" lon="-109.635312"><ele>3233.5</ele></trkpt>
      <trkpt lat="43.116582" lon="-109.635235"><ele>3233.0</ele></trkpt>
      <trkpt lat="43.117555" lon="-109.635426"><ele>3234.2</ele></trkpt>
      <trkpt lat="43.119279" lon="-109.635949"><ele>3235.2</ele></trkpt>
      <trkpt lat="43.120299" lon="-109.636045"><ele>3236.2</ele></trkpt>
      <trkpt lat="43.120975" lon="-109.636679"><ele>3234.0</ele></trkpt>
      <trkpt lat="43.121278" lon="-109.636817"><ele>3236.2</ele></trkpt>
      <trkpt lat="43.121433" lon="-109.636951"><ele>3236.8</ele></trkpt>
      <trkpt lat="43.121718" lon="-109.637042"><ele>3237.2</ele></trkpt>
      <trkpt lat="43.122417" lon="-109.637311"><ele>3235.8</ele></trkpt>
      <trkpt lat="43.122808" lon="-109.637734"><ele>3234.8</ele></trkpt>
      <trkpt lat="43.123339" lon="-109.637503"><ele>3234.0</ele></trkpt>
      <trkpt lat="43.123683" lon="-109.637108"><ele>3240.0</ele></trkpt>
      <trkpt lat="43.124226" lon="-109.636954"><ele>3242.8</ele></trkpt>
      <trkpt lat="43.124395" lon="-109.636918"><ele>3243.8</ele></trkpt>
      <trkpt lat="43.124598" lon="-109.637032"><ele>3243.2</ele></trkpt>
      <trkpt lat="43.125058" lon="-109.637088"><ele>3243.8</ele></trkpt>
      <trkpt lat="43.125478" lon="-109.636991"><ele>3245.5</ele></trkpt>
      <trkpt lat="43.125813" lon="-109.637030"><ele>3245.0</ele></trkpt>
      <trkpt lat="43.126250" lon="-109.636869"><ele>3246.2</ele></trkpt>
      <trkpt lat="43.127304" lon="-109.637023"><ele>3244.2</ele></trkpt>
      <trkpt lat="43.127608" lon="-109.637111"><ele>3243.5</ele></trkpt>
      <trkpt lat="43.128292" lon="-109.637274"><ele>3241.8</ele></trkpt>
      <trkpt lat="43.127608" lon="-109.637111"><ele>3243.5</ele></trkpt>
      <trkpt lat="43.127304" lon="-109.637023"><ele>3244.2</ele></trkpt>
      <trkpt lat="43.126250" lon="-109.636869"><ele>3246.2</ele></trkpt>
      <trkpt lat="43.125813" lon="-109.637030"><ele>3245.0</ele></trkpt>
      <trkpt lat="43.125478" lon="-109.636991"><ele>3245.5</ele></trkpt>
      <trkpt lat="43.125058" lon="-109.637088"><ele>3243.8</ele></trkpt>
      <trkpt lat="43.124598" lon="-109.637032"><ele>3243.2</ele></trkpt>
      <trkpt lat="43.124395" lon="-109.636918"><ele>3243.8</ele></trkpt>
      <trkpt lat="43.124226" lon="-109.636954"><ele>3242.8</ele></trkpt>
      <trkpt lat="43.123683" lon="-109.637108"><ele>3240.0</ele></trkpt>
      <trkpt lat="43.123339" lon="-109.637503"><ele>3234.0</ele></trkpt>
      <trkpt lat="43.122808" lon="-109.637734"><ele>3234.8</ele></trkpt>
      <trkpt lat="43.122417" lon="-109.637311"><ele>3235.8</ele></trkpt>
      <trkpt lat="43.121718" lon="-109.637042"><ele>3237.2</ele></trkpt>
      <trkpt lat="43.121433" lon="-109.636951"><ele>3236.8</ele></trkpt>
      <trkpt lat="43.121278" lon="-109.636817"><ele>3236.2</ele></trkpt>
      <trkpt lat="43.120975" lon="-109.636679"><ele>3234.0</ele></trkpt>
      <trkpt lat="43.120299" lon="-109.636045"><ele>3236.2</ele></trkpt>
      <trkpt lat="43.119279" lon="-109.635949"><ele>3235.2</ele></trkpt>
      <trkpt lat="43.117555" lon="-109.635426"><ele>3234.2</ele></trkpt>
      <trkpt lat="43.116582" lon="-109.635235"><ele>3233.0</ele></trkpt>
      <trkpt lat="43.115796" lon="-109.635312"><ele>3233.5</ele></trkpt>
      <trkpt lat="43.115068" lon="-109.635306"><ele>3234.2</ele></trkpt>
      <trkpt lat="43.114656" lon="-109.635420"><ele>3237.2</ele></trkpt>
      <trkpt lat="43.112831" lon="-109.635514"><ele>3233.5</ele></trkpt>
      <trkpt lat="43.111626" lon="-109.635942"><ele>3235.0</ele></trkpt>
      <trkpt lat="43.111070" lon="-109.635696"><ele>3238.8</ele></trkpt>
      <trkpt lat="43.110487" lon="-109.635904"><ele>3236.5</ele></trkpt>
      <trkpt lat="43.109864" lon="-109.635845"><ele>3235.8</ele></trkpt>
      <trkpt lat="43.109335" lon="-109.635776"><ele>3236.5</ele></trkpt>
      <trkpt lat="43.108257" lon="-109.635727"><ele>3240.0</ele></trkpt>
      <trkpt lat="43.107527" lon="-109.635410"><ele>3243.0</ele></trkpt>
      <trkpt lat="43.106748" lon="-109.634791"><ele>3243.0</ele></trkpt>
      <trkpt lat="43.106826" lon="-109.634431"><ele>3241.5</ele></trkpt>
      <trkpt lat="43.106958" lon="-109.633979"><ele>3240.5</ele></trkpt>
      <trkpt lat="43.106622" lon="-109.633683"><ele>3235.0</ele></trkpt>
      <trkpt lat="43.106155" lon="-109.633376"><ele>3228.2</ele></trkpt>
      <trkpt lat="43.106316" lon="-109.633113"><ele>3229.0</ele></trkpt>
      <trkpt lat="43.106228" lon="-109.632873"><ele>3227.2</ele></trkpt>
      <trkpt lat="43.105893" lon="-109.632173"><ele>3224.0</ele></trkpt>
      <trkpt lat="43.104636" lon="-109.631569"><ele>3225.0</ele></trkpt>
      <trkpt lat="43.103781" lon="-109.631522"><ele>3227.8</ele></trkpt>
      <trkpt lat="43.103131" lon="-109.631344"><ele>3230.0</ele></trkpt>
      <trkpt lat="43.102298" lon="-109.631207"><ele>3225.8</ele></trkpt>
      <trkpt lat="43.101811" lon="-109.631291"><ele>3223.2</ele></trkpt>
      <trkpt lat="43.101149" lon="-109.631163"><ele>3227.2</ele></trkpt>
      <trkpt lat="43.100965" lon="-109.631435"><ele>3225.0</ele></trkpt>
      <trkpt lat="43.100318" lon="-109.631584"><ele>3224.8</ele></trkpt>
      <trkpt lat="43.099771" lon="-109.631656"><ele>3225.5</ele></trkpt>
      <trkpt lat="43.099313" lon="-109.631622"><ele>3229.0</ele></trkpt>
      <trkpt lat="43.098716" lon="-109.631584"><ele>3230.0</ele></trkpt>
      <trkpt lat="43.098435" lon="-109.631638"><ele>3228.5</ele></trkpt>
      <trkpt lat="43.098138" lon="-109.631729"><ele>3227.5</ele></trkpt>
      <trkpt lat="43.097632" lon="-109.631438"><ele>3230.0</ele></trkpt>
      <trkpt lat="43.096910" lon="-109.630764"><ele>3231.5</ele></trkpt>
      <trkpt lat="43.096623" lon="-109.630584"><ele>3229.8</ele></trkpt>
      <trkpt lat="43.096534" lon="-109.630048"><ele>3229.0</ele></trkpt>
      <trkpt lat="43.096046" lon="-109.629977"><ele>3226.0</ele></trkpt>
      <trkpt lat="43.095741" lon="-109.629994"><ele>3224.0</ele></trkpt>
      <trkpt lat="43.095491" lon="-109.630029"><ele>3223.5</ele></trkpt>
      <trkpt lat="43.094959" lon="-109.630157"><ele>3222.2</ele></trkpt>
      <trkpt lat="43.094410" lon="-109.629651"><ele>3217.2</ele></trkpt>
      <trkpt lat="43.094440" lon="-109.629468"><ele>3218.8</ele></trkpt>
      <trkpt lat="43.094261" lon="-109.628980"><ele>3220.8</ele></trkpt>
      <trkpt lat="43.094275" lon="-109.628636"><ele>3224.8</ele></trkpt>
      <trkpt lat="43.094353" lon="-109.628465"><ele>3227.2</ele></trkpt>
      <trkpt lat="43.094353" lon="-109.628210"><ele>3230.0</ele></trkpt>
      <trkpt lat="43.094331" lon="-109.627957"><ele>3232.5</ele></trkpt>
      <trkpt lat="43.094085" lon="-109.628114"><ele>3230.0</ele></trkpt>
      <trkpt lat="43.093956" lon="-109.628064"><ele>3232.0</ele></trkpt>
      <trkpt lat="43.093982" lon="-109.628296"><ele>3229.2</ele></trkpt>
      <trkpt lat="43.093936" lon="-109.628635"><ele>3226.0</ele></trkpt>
      <trkpt lat="43.093732" lon="-109.628842"><ele>3225.8</ele></trkpt>
      <trkpt lat="43.093543" lon="-109.628971"><ele>3226.2</ele></trkpt>
      <trkpt lat="43.093426" lon="-109.629291"><ele>3223.0</ele></trkpt>
      <trkpt lat="43.093245" lon="-109.629988"><ele>3211.5</ele></trkpt>
      <trkpt lat="43.092989" lon="-109.630289"><ele>3207.8</ele></trkpt>
      <trkpt lat="43.092322" lon="-109.630195"><ele>3211.2</ele></trkpt>
      <trkpt lat="43.092068" lon="-109.630357"><ele>3209.0</ele></trkpt>
      <trkpt lat="43.091889" lon="-109.630841"><ele>3202.2</ele></trkpt>
      <trkpt lat="43.091635" lon="-109.631147"><ele>3202.0</ele></trkpt>
      <trkpt lat="43.091474" lon="-109.631396"><ele>3202.5</ele></trkpt>
      <trkpt lat="43.091390" lon="-109.631917"><ele>3200.8</ele></trkpt>
      <trkpt lat="43.091088" lon="-109.632515"><ele>3200.0</ele></trkpt>
      <trkpt lat="43.090828" lon="-109.632778"><ele>3199.2</ele></trkpt>
      <trkpt lat="43.090618" lon="-109.633089"><ele>3201.5</ele></trkpt>
      <trkpt lat="43.090352" lon="-109.633748"><ele>3202.5</ele></trkpt>
      <trkpt lat="43.090234" lon="-109.634022"><ele>3202.0</ele></trkpt>
      <trkpt lat="43.090095" lon="-109.634293"><ele>3201.2</ele></trkpt>
      <trkpt lat="43.089948" lon="-109.634459"><ele>3201.0</ele></trkpt>
      <trkpt lat="43.089607" lon="-109.634848"><ele>3202.0</ele></trkpt>
      <trkpt lat="43.089445" lon="-109.635470"><ele>3199.2</ele></trkpt>
      <trkpt lat="43.089265" lon="-109.635833"><ele>3197.2</ele></trkpt>
      <trkpt lat="43.089094" lon="-109.636179"><ele>3193.2</ele></trkpt>
      <trkpt lat="43.088920" lon="-109.636479"><ele>3187.5</ele></trkpt>
      <trkpt lat="43.088624" lon="-109.636476"><ele>3184.2</ele></trkpt>
      <trkpt lat="43.088420" lon="-109.636761"><ele>3176.5</ele></trkpt>
      <trkpt lat="43.088273" lon="-109.636991"><ele>3170.8</ele></trkpt>
      <trkpt lat="43.088226" lon="-109.637353"><ele>3164.5</ele></trkpt>
      <trkpt lat="43.088068" lon="-109.637410"><ele>3162.5</ele></trkpt>
    </trkseg>
    <!-- Sun: back to Seneca / Hobbs Lake (5.8 mi, 959 ft up) -->
    <trkseg>
      <trkpt lat="43.088068" lon="-109.637410"><ele>3162.5</ele></trkpt>
      <trkpt lat="43.087876" lon="-109.636694"><ele>3170.0</ele></trkpt>
      <trkpt lat="43.087703" lon="-109.636331"><ele>3171.5</ele></trkpt>
      <trkpt lat="43.087460" lon="-109.635626"><ele>3174.8</ele></trkpt>
      <trkpt lat="43.087122" lon="-109.635090"><ele>3178.0</ele></trkpt>
      <trkpt lat="43.086550" lon="-109.634475"><ele>3166.8</ele></trkpt>
      <trkpt lat="43.086528" lon="-109.634089"><ele>3166.8</ele></trkpt>
      <trkpt lat="43.086559" lon="-109.633456"><ele>3170.2</ele></trkpt>
      <trkpt lat="43.086769" lon="-109.633094"><ele>3172.5</ele></trkpt>
      <trkpt lat="43.086853" lon="-109.632337"><ele>3175.5</ele></trkpt>
      <trkpt lat="43.086795" lon="-109.632235"><ele>3175.2</ele></trkpt>
      <trkpt lat="43.086503" lon="-109.631454"><ele>3174.2</ele></trkpt>
      <trkpt lat="43.086051" lon="-109.630458"><ele>3174.0</ele></trkpt>
      <trkpt lat="43.085123" lon="-109.629099"><ele>3170.0</ele></trkpt>
      <trkpt lat="43.084655" lon="-109.628543"><ele>3173.8</ele></trkpt>
      <trkpt lat="43.083012" lon="-109.628866"><ele>3166.5</ele></trkpt>
      <trkpt lat="43.082736" lon="-109.629040"><ele>3166.5</ele></trkpt>
      <trkpt lat="43.082259" lon="-109.629574"><ele>3168.5</ele></trkpt>
      <trkpt lat="43.081772" lon="-109.630393"><ele>3169.5</ele></trkpt>
      <trkpt lat="43.081440" lon="-109.631534"><ele>3164.0</ele></trkpt>
      <trkpt lat="43.081212" lon="-109.632069"><ele>3166.8</ele></trkpt>
      <trkpt lat="43.080774" lon="-109.632243"><ele>3175.2</ele></trkpt>
      <trkpt lat="43.080393" lon="-109.632882"><ele>3179.5</ele></trkpt>
      <trkpt lat="43.079836" lon="-109.633426"><ele>3184.8</ele></trkpt>
      <trkpt lat="43.079509" lon="-109.634103"><ele>3190.5</ele></trkpt>
      <trkpt lat="43.078792" lon="-109.634837"><ele>3212.0</ele></trkpt>
      <trkpt lat="43.078782" lon="-109.635167"><ele>3216.0</ele></trkpt>
      <trkpt lat="43.078659" lon="-109.635124"><ele>3218.5</ele></trkpt>
      <trkpt lat="43.078199" lon="-109.635489"><ele>3238.2</ele></trkpt>
      <trkpt lat="43.077424" lon="-109.636367"><ele>3249.5</ele></trkpt>
      <trkpt lat="43.077101" lon="-109.636893"><ele>3252.8</ele></trkpt>
      <trkpt lat="43.076712" lon="-109.637259"><ele>3251.0</ele></trkpt>
      <trkpt lat="43.076163" lon="-109.637859"><ele>3252.5</ele></trkpt>
      <trkpt lat="43.075638" lon="-109.638871"><ele>3251.0</ele></trkpt>
      <trkpt lat="43.075182" lon="-109.639740"><ele>3243.2</ele></trkpt>
      <trkpt lat="43.074679" lon="-109.640096"><ele>3238.5</ele></trkpt>
      <trkpt lat="43.074082" lon="-109.640881"><ele>3224.5</ele></trkpt>
      <trkpt lat="43.073429" lon="-109.641813"><ele>3219.0</ele></trkpt>
      <trkpt lat="43.072797" lon="-109.643047"><ele>3206.0</ele></trkpt>
      <trkpt lat="43.072284" lon="-109.643746"><ele>3203.2</ele></trkpt>
      <trkpt lat="43.072154" lon="-109.644217"><ele>3203.5</ele></trkpt>
      <trkpt lat="43.071905" lon="-109.644561"><ele>3206.2</ele></trkpt>
      <trkpt lat="43.071392" lon="-109.644976"><ele>3213.8</ele></trkpt>
      <trkpt lat="43.071114" lon="-109.645426"><ele>3221.0</ele></trkpt>
      <trkpt lat="43.070948" lon="-109.645873"><ele>3227.0</ele></trkpt>
      <trkpt lat="43.070783" lon="-109.646099"><ele>3233.5</ele></trkpt>
      <trkpt lat="43.070672" lon="-109.646153"><ele>3236.8</ele></trkpt>
      <trkpt lat="43.070518" lon="-109.646301"><ele>3240.5</ele></trkpt>
      <trkpt lat="43.070339" lon="-109.646392"><ele>3243.2</ele></trkpt>
      <trkpt lat="43.070218" lon="-109.646575"><ele>3243.2</ele></trkpt>
      <trkpt lat="43.070103" lon="-109.646605"><ele>3243.5</ele></trkpt>
      <trkpt lat="43.069826" lon="-109.646959"><ele>3246.0</ele></trkpt>
      <trkpt lat="43.069644" lon="-109.647052"><ele>3246.2</ele></trkpt>
      <trkpt lat="43.069528" lon="-109.647284"><ele>3242.5</ele></trkpt>
      <trkpt lat="43.069401" lon="-109.647568"><ele>3236.8</ele></trkpt>
      <trkpt lat="43.069253" lon="-109.647851"><ele>3236.0</ele></trkpt>
      <trkpt lat="43.069040" lon="-109.648130"><ele>3232.5</ele></trkpt>
      <trkpt lat="43.068917" lon="-109.648145"><ele>3229.0</ele></trkpt>
      <trkpt lat="43.068760" lon="-109.647973"><ele>3223.0</ele></trkpt>
      <trkpt lat="43.068765" lon="-109.647587"><ele>3220.5</ele></trkpt>
      <trkpt lat="43.068425" lon="-109.647595"><ele>3211.0</ele></trkpt>
      <trkpt lat="43.068368" lon="-109.647496"><ele>3209.0</ele></trkpt>
      <trkpt lat="43.068178" lon="-109.647634"><ele>3203.8</ele></trkpt>
      <trkpt lat="43.067809" lon="-109.647981"><ele>3194.8</ele></trkpt>
      <trkpt lat="43.067426" lon="-109.648401"><ele>3187.0</ele></trkpt>
      <trkpt lat="43.066976" lon="-109.648999"><ele>3180.5</ele></trkpt>
      <trkpt lat="43.066915" lon="-109.649464"><ele>3179.2</ele></trkpt>
      <trkpt lat="43.066991" lon="-109.649989"><ele>3180.5</ele></trkpt>
      <trkpt lat="43.067206" lon="-109.650464"><ele>3177.2</ele></trkpt>
      <trkpt lat="43.067657" lon="-109.650882"><ele>3177.0</ele></trkpt>
      <trkpt lat="43.068056" lon="-109.651363"><ele>3176.8</ele></trkpt>
      <trkpt lat="43.068461" lon="-109.652037"><ele>3176.5</ele></trkpt>
      <trkpt lat="43.068521" lon="-109.652284"><ele>3175.8</ele></trkpt>
      <trkpt lat="43.068483" lon="-109.652421"><ele>3173.2</ele></trkpt>
      <trkpt lat="43.068323" lon="-109.652649"><ele>3170.0</ele></trkpt>
      <trkpt lat="43.068207" lon="-109.652655"><ele>3169.0</ele></trkpt>
      <trkpt lat="43.068070" lon="-109.652759"><ele>3169.2</ele></trkpt>
      <trkpt lat="43.067861" lon="-109.652937"><ele>3170.2</ele></trkpt>
      <trkpt lat="43.067576" lon="-109.653115"><ele>3170.8</ele></trkpt>
      <trkpt lat="43.067359" lon="-109.653181"><ele>3169.8</ele></trkpt>
      <trkpt lat="43.067167" lon="-109.653290"><ele>3169.8</ele></trkpt>
      <trkpt lat="43.066993" lon="-109.653349"><ele>3168.8</ele></trkpt>
      <trkpt lat="43.066713" lon="-109.653529"><ele>3169.2</ele></trkpt>
      <trkpt lat="43.066513" lon="-109.653563"><ele>3169.0</ele></trkpt>
      <trkpt lat="43.066401" lon="-109.653687"><ele>3170.8</ele></trkpt>
      <trkpt lat="43.066343" lon="-109.653715"><ele>3171.2</ele></trkpt>
      <trkpt lat="43.066216" lon="-109.653633"><ele>3169.0</ele></trkpt>
      <trkpt lat="43.065941" lon="-109.653562"><ele>3166.5</ele></trkpt>
      <trkpt lat="43.065763" lon="-109.653653"><ele>3167.0</ele></trkpt>
      <trkpt lat="43.065503" lon="-109.653813"><ele>3166.5</ele></trkpt>
      <trkpt lat="43.065268" lon="-109.653779"><ele>3163.5</ele></trkpt>
      <trkpt lat="43.065149" lon="-109.653861"><ele>3162.2</ele></trkpt>
      <trkpt lat="43.065086" lon="-109.654009"><ele>3161.5</ele></trkpt>
      <trkpt lat="43.064936" lon="-109.654266"><ele>3159.8</ele></trkpt>
      <trkpt lat="43.064857" lon="-109.654329"><ele>3159.2</ele></trkpt>
      <trkpt lat="43.064857" lon="-109.654499"><ele>3159.0</ele></trkpt>
      <trkpt lat="43.064783" lon="-109.654963"><ele>3157.0</ele></trkpt>
      <trkpt lat="43.064694" lon="-109.655394"><ele>3156.8</ele></trkpt>
      <trkpt lat="43.064580" lon="-109.655683"><ele>3155.5</ele></trkpt>
      <trkpt lat="43.064605" lon="-109.656168"><ele>3155.0</ele></trkpt>
      <trkpt lat="43.064830" lon="-109.656647"><ele>3156.5</ele></trkpt>
      <trkpt lat="43.064837" lon="-109.656847"><ele>3157.8</ele></trkpt>
      <trkpt lat="43.064677" lon="-109.657251"><ele>3157.2</ele></trkpt>
      <trkpt lat="43.064395" lon="-109.657457"><ele>3153.0</ele></trkpt>
      <trkpt lat="43.064009" lon="-109.657656"><ele>3149.0</ele></trkpt>
      <trkpt lat="43.063915" lon="-109.657798"><ele>3149.2</ele></trkpt>
      <trkpt lat="43.063581" lon="-109.659050"><ele>3150.5</ele></trkpt>
      <trkpt lat="43.063217" lon="-109.659547"><ele>3147.2</ele></trkpt>
      <trkpt lat="43.062492" lon="-109.659884"><ele>3138.0</ele></trkpt>
      <trkpt lat="43.061956" lon="-109.660475"><ele>3137.5</ele></trkpt>
      <trkpt lat="43.061839" lon="-109.660576"><ele>3138.2</ele></trkpt>
      <trkpt lat="43.061655" lon="-109.660690"><ele>3139.2</ele></trkpt>
      <trkpt lat="43.061629" lon="-109.660789"><ele>3140.2</ele></trkpt>
      <trkpt lat="43.061583" lon="-109.660898"><ele>3141.8</ele></trkpt>
      <trkpt lat="43.061469" lon="-109.660895"><ele>3141.5</ele></trkpt>
      <trkpt lat="43.061248" lon="-109.660749"><ele>3139.8</ele></trkpt>
      <trkpt lat="43.061200" lon="-109.660959"><ele>3142.0</ele></trkpt>
      <trkpt lat="43.061202" lon="-109.661155"><ele>3144.5</ele></trkpt>
      <trkpt lat="43.060948" lon="-109.661269"><ele>3144.8</ele></trkpt>
      <trkpt lat="43.060650" lon="-109.661231"><ele>3142.5</ele></trkpt>
      <trkpt lat="43.060354" lon="-109.661522"><ele>3144.0</ele></trkpt>
      <trkpt lat="43.060021" lon="-109.661611"><ele>3143.2</ele></trkpt>
      <trkpt lat="43.059259" lon="-109.661709"><ele>3150.5</ele></trkpt>
      <trkpt lat="43.059033" lon="-109.661518"><ele>3147.2</ele></trkpt>
      <trkpt lat="43.058708" lon="-109.661496"><ele>3149.8</ele></trkpt>
      <trkpt lat="43.058459" lon="-109.661496"><ele>3151.8</ele></trkpt>
      <trkpt lat="43.057673" lon="-109.661038"><ele>3145.2</ele></trkpt>
      <trkpt lat="43.057105" lon="-109.661037"><ele>3148.0</ele></trkpt>
      <trkpt lat="43.056642" lon="-109.661091"><ele>3151.2</ele></trkpt>
      <trkpt lat="43.055979" lon="-109.661484"><ele>3154.2</ele></trkpt>
      <trkpt lat="43.055367" lon="-109.662136"><ele>3162.5</ele></trkpt>
      <trkpt lat="43.055087" lon="-109.662295"><ele>3161.8</ele></trkpt>
      <trkpt lat="43.054295" lon="-109.662450"><ele>3159.8</ele></trkpt>
      <trkpt lat="43.054022" lon="-109.662612"><ele>3160.2</ele></trkpt>
      <trkpt lat="43.053828" lon="-109.663035"><ele>3162.0</ele></trkpt>
      <trkpt lat="43.053882" lon="-109.663129"><ele>3162.2</ele></trkpt>
      <trkpt lat="43.054057" lon="-109.662875"><ele>3161.0</ele></trkpt>
      <trkpt lat="43.054192" lon="-109.662901"><ele>3161.2</ele></trkpt>
      <trkpt lat="43.054024" lon="-109.663255"><ele>3162.2</ele></trkpt>
      <trkpt lat="43.053926" lon="-109.663732"><ele>3161.5</ele></trkpt>
      <trkpt lat="43.053779" lon="-109.664042"><ele>3159.0</ele></trkpt>
      <trkpt lat="43.053402" lon="-109.664217"><ele>3152.5</ele></trkpt>
      <trkpt lat="43.053175" lon="-109.664602"><ele>3152.2</ele></trkpt>
      <trkpt lat="43.052983" lon="-109.665090"><ele>3153.5</ele></trkpt>
      <trkpt lat="43.053026" lon="-109.666018"><ele>3145.0</ele></trkpt>
      <trkpt lat="43.052856" lon="-109.666670"><ele>3137.0</ele></trkpt>
      <trkpt lat="43.052830" lon="-109.666914"><ele>3130.2</ele></trkpt>
      <trkpt lat="43.052883" lon="-109.667040"><ele>3127.8</ele></trkpt>
      <trkpt lat="43.052738" lon="-109.667049"><ele>3125.5</ele></trkpt>
      <trkpt lat="43.052856" lon="-109.667201"><ele>3123.2</ele></trkpt>
      <trkpt lat="43.052748" lon="-109.667338"><ele>3118.2</ele></trkpt>
      <trkpt lat="43.052817" lon="-109.667567"><ele>3113.8</ele></trkpt>
      <trkpt lat="43.053162" lon="-109.668150"><ele>3102.8</ele></trkpt>
      <trkpt lat="43.053304" lon="-109.668490"><ele>3096.2</ele></trkpt>
      <trkpt lat="43.053355" lon="-109.668871"><ele>3092.0</ele></trkpt>
      <trkpt lat="43.053135" lon="-109.669099"><ele>3089.0</ele></trkpt>
      <trkpt lat="43.052869" lon="-109.669231"><ele>3086.5</ele></trkpt>
      <trkpt lat="43.052520" lon="-109.669249"><ele>3085.0</ele></trkpt>
      <trkpt lat="43.052466" lon="-109.669856"><ele>3078.5</ele></trkpt>
      <trkpt lat="43.052205" lon="-109.670709"><ele>3076.5</ele></trkpt>
      <trkpt lat="43.052062" lon="-109.670701"><ele>3078.5</ele></trkpt>
      <trkpt lat="43.051857" lon="-109.671085"><ele>3073.2</ele></trkpt>
      <trkpt lat="43.051729" lon="-109.671565"><ele>3063.8</ele></trkpt>
      <trkpt lat="43.051589" lon="-109.672217"><ele>3054.0</ele></trkpt>
      <trkpt lat="43.051167" lon="-109.672928"><ele>3054.2</ele></trkpt>
      <trkpt lat="43.051016" lon="-109.673079"><ele>3055.0</ele></trkpt>
      <trkpt lat="43.050337" lon="-109.673166"><ele>3062.0</ele></trkpt>
      <trkpt lat="43.049982" lon="-109.673153"><ele>3065.2</ele></trkpt>
      <trkpt lat="43.049508" lon="-109.673091"><ele>3066.0</ele></trkpt>
      <trkpt lat="43.049043" lon="-109.673102"><ele>3067.0</ele></trkpt>
      <trkpt lat="43.048571" lon="-109.673121"><ele>3069.8</ele></trkpt>
      <trkpt lat="43.048085" lon="-109.673028"><ele>3077.2</ele></trkpt>
      <trkpt lat="43.047538" lon="-109.673182"><ele>3090.0</ele></trkpt>
      <trkpt lat="43.047360" lon="-109.673095"><ele>3094.5</ele></trkpt>
      <trkpt lat="43.047160" lon="-109.673056"><ele>3098.8</ele></trkpt>
      <trkpt lat="43.046582" lon="-109.673249"><ele>3106.0</ele></trkpt>
      <trkpt lat="43.046299" lon="-109.672901"><ele>3106.5</ele></trkpt>
      <trkpt lat="43.045966" lon="-109.672597"><ele>3104.2</ele></trkpt>
      <trkpt lat="43.045588" lon="-109.672737"><ele>3101.2</ele></trkpt>
      <trkpt lat="43.045321" lon="-109.673075"><ele>3098.2</ele></trkpt>
      <trkpt lat="43.044583" lon="-109.673234"><ele>3094.8</ele></trkpt>
      <trkpt lat="43.043769" lon="-109.673257"><ele>3089.0</ele></trkpt>
      <trkpt lat="43.043321" lon="-109.673067"><ele>3084.8</ele></trkpt>
      <trkpt lat="43.043218" lon="-109.672812"><ele>3085.0</ele></trkpt>
      <trkpt lat="43.042920" lon="-109.673123"><ele>3079.2</ele></trkpt>
      <trkpt lat="43.042888" lon="-109.672905"><ele>3081.5</ele></trkpt>
      <trkpt lat="43.042718" lon="-109.672883"><ele>3080.2</ele></trkpt>
      <trkpt lat="43.042543" lon="-109.673169"><ele>3073.5</ele></trkpt>
      <trkpt lat="43.042236" lon="-109.673335"><ele>3070.2</ele></trkpt>
      <trkpt lat="43.042016" lon="-109.673041"><ele>3075.0</ele></trkpt>
      <trkpt lat="43.041673" lon="-109.672716"><ele>3079.0</ele></trkpt>
      <trkpt lat="43.041314" lon="-109.673080"><ele>3075.2</ele></trkpt>
      <trkpt lat="43.040593" lon="-109.673165"><ele>3076.8</ele></trkpt>
      <trkpt lat="43.040326" lon="-109.673735"><ele>3077.0</ele></trkpt>
      <trkpt lat="43.040077" lon="-109.673641"><ele>3078.0</ele></trkpt>
      <trkpt lat="43.039527" lon="-109.673861"><ele>3076.0</ele></trkpt>
      <trkpt lat="43.039101" lon="-109.673888"><ele>3074.8</ele></trkpt>
      <trkpt lat="43.038765" lon="-109.674063"><ele>3075.5</ele></trkpt>
      <trkpt lat="43.038316" lon="-109.674168"><ele>3079.0</ele></trkpt>
      <trkpt lat="43.037330" lon="-109.674144"><ele>3086.5</ele></trkpt>
      <trkpt lat="43.036426" lon="-109.673811"><ele>3084.8</ele></trkpt>
      <trkpt lat="43.035786" lon="-109.673914"><ele>3082.2</ele></trkpt>
      <trkpt lat="43.035219" lon="-109.673809"><ele>3079.8</ele></trkpt>
    </trkseg>
    <!-- Mon: out to Elkhart Park (7.1 mi, 628 ft up) -->
    <trkseg>
      <trkpt lat="43.035219" lon="-109.673809"><ele>3079.8</ele></trkpt>
      <trkpt lat="43.034843" lon="-109.673971"><ele>3081.2</ele></trkpt>
      <trkpt lat="43.034353" lon="-109.674024"><ele>3080.2</ele></trkpt>
      <trkpt lat="43.033823" lon="-109.674467"><ele>3084.5</ele></trkpt>
      <trkpt lat="43.033583" lon="-109.675005"><ele>3087.8</ele></trkpt>
      <trkpt lat="43.033419" lon="-109.675931"><ele>3092.2</ele></trkpt>
      <trkpt lat="43.033176" lon="-109.676409"><ele>3093.2</ele></trkpt>
      <trkpt lat="43.032713" lon="-109.676771"><ele>3088.5</ele></trkpt>
      <trkpt lat="43.031844" lon="-109.677320"><ele>3076.5</ele></trkpt>
      <trkpt lat="43.031390" lon="-109.677849"><ele>3074.8</ele></trkpt>
      <trkpt lat="43.030597" lon="-109.677751"><ele>3060.8</ele></trkpt>
      <trkpt lat="43.030197" lon="-109.677363"><ele>3057.0</ele></trkpt>
      <trkpt lat="43.029875" lon="-109.677366"><ele>3058.0</ele></trkpt>
      <trkpt lat="43.029590" lon="-109.677518"><ele>3060.8</ele></trkpt>
      <trkpt lat="43.029465" lon="-109.677619"><ele>3061.8</ele></trkpt>
      <trkpt lat="43.029301" lon="-109.677007"><ele>3072.0</ele></trkpt>
      <trkpt lat="43.029260" lon="-109.677050"><ele>3072.2</ele></trkpt>
      <trkpt lat="43.029244" lon="-109.677356"><ele>3068.0</ele></trkpt>
      <trkpt lat="43.029101" lon="-109.677564"><ele>3068.0</ele></trkpt>
      <trkpt lat="43.028938" lon="-109.677431"><ele>3075.2</ele></trkpt>
      <trkpt lat="43.028730" lon="-109.677163"><ele>3086.2</ele></trkpt>
      <trkpt lat="43.028620" lon="-109.677101"><ele>3090.8</ele></trkpt>
      <trkpt lat="43.028493" lon="-109.677192"><ele>3093.2</ele></trkpt>
      <trkpt lat="43.028406" lon="-109.677549"><ele>3090.0</ele></trkpt>
      <trkpt lat="43.028212" lon="-109.677867"><ele>3093.5</ele></trkpt>
      <trkpt lat="43.028234" lon="-109.678241"><ele>3088.5</ele></trkpt>
      <trkpt lat="43.027900" lon="-109.678279"><ele>3100.2</ele></trkpt>
      <trkpt lat="43.027600" lon="-109.678600"><ele>3107.0</ele></trkpt>
      <trkpt lat="43.027336" lon="-109.679397"><ele>3105.2</ele></trkpt>
      <trkpt lat="43.027127" lon="-109.679460"><ele>3109.0</ele></trkpt>
      <trkpt lat="43.026273" lon="-109.679849"><ele>3120.2</ele></trkpt>
      <trkpt lat="43.025967" lon="-109.680384"><ele>3121.8</ele></trkpt>
      <trkpt lat="43.025831" lon="-109.680720"><ele>3122.8</ele></trkpt>
      <trkpt lat="43.025350" lon="-109.680866"><ele>3122.0</ele></trkpt>
      <trkpt lat="43.025039" lon="-109.681041"><ele>3122.5</ele></trkpt>
      <trkpt lat="43.024545" lon="-109.681696"><ele>3121.8</ele></trkpt>
      <trkpt lat="43.024468" lon="-109.681876"><ele>3120.5</ele></trkpt>
      <trkpt lat="43.024287" lon="-109.681888"><ele>3118.8</ele></trkpt>
      <trkpt lat="43.023677" lon="-109.681485"><ele>3129.2</ele></trkpt>
      <trkpt lat="43.023377" lon="-109.681158"><ele>3131.8</ele></trkpt>
      <trkpt lat="43.022770" lon="-109.680537"><ele>3137.2</ele></trkpt>
      <trkpt lat="43.022389" lon="-109.680211"><ele>3138.8</ele></trkpt>
      <trkpt lat="43.021769" lon="-109.679759"><ele>3143.5</ele></trkpt>
      <trkpt lat="43.021467" lon="-109.679828"><ele>3145.8</ele></trkpt>
      <trkpt lat="43.021357" lon="-109.681032"><ele>3155.0</ele></trkpt>
      <trkpt lat="43.021250" lon="-109.681821"><ele>3154.2</ele></trkpt>
      <trkpt lat="43.021111" lon="-109.682171"><ele>3152.8</ele></trkpt>
      <trkpt lat="43.020631" lon="-109.682711"><ele>3150.5</ele></trkpt>
      <trkpt lat="43.020583" lon="-109.683163"><ele>3149.2</ele></trkpt>
      <trkpt lat="43.020401" lon="-109.683814"><ele>3147.0</ele></trkpt>
      <trkpt lat="43.020085" lon="-109.684464"><ele>3143.5</ele></trkpt>
      <trkpt lat="43.019966" lon="-109.684934"><ele>3141.2</ele></trkpt>
      <trkpt lat="43.019970" lon="-109.685622"><ele>3143.0</ele></trkpt>
      <trkpt lat="43.020315" lon="-109.686685"><ele>3149.0</ele></trkpt>
      <trkpt lat="43.020726" lon="-109.688074"><ele>3148.2</ele></trkpt>
      <trkpt lat="43.020744" lon="-109.688437"><ele>3148.2</ele></trkpt>
      <trkpt lat="43.020635" lon="-109.688777"><ele>3147.8</ele></trkpt>
      <trkpt lat="43.020742" lon="-109.689001"><ele>3145.5</ele></trkpt>
      <trkpt lat="43.020851" lon="-109.689279"><ele>3143.0</ele></trkpt>
      <trkpt lat="43.020908" lon="-109.689605"><ele>3140.5</ele></trkpt>
      <trkpt lat="43.020788" lon="-109.689810"><ele>3139.8</ele></trkpt>
      <trkpt lat="43.020497" lon="-109.690064"><ele>3140.5</ele></trkpt>
      <trkpt lat="43.020261" lon="-109.690535"><ele>3141.0</ele></trkpt>
      <trkpt lat="43.020003" lon="-109.690946"><ele>3143.2</ele></trkpt>
      <trkpt lat="43.019612" lon="-109.691581"><ele>3149.0</ele></trkpt>
      <trkpt lat="43.019564" lon="-109.691761"><ele>3149.8</ele></trkpt>
      <trkpt lat="43.019692" lon="-109.692223"><ele>3150.8</ele></trkpt>
      <trkpt lat="43.019741" lon="-109.692988"><ele>3154.5</ele></trkpt>
      <trkpt lat="43.019846" lon="-109.693280"><ele>3156.0</ele></trkpt>
      <trkpt lat="43.020092" lon="-109.693617"><ele>3158.5</ele></trkpt>
      <trkpt lat="43.020786" lon="-109.694099"><ele>3161.2</ele></trkpt>
      <trkpt lat="43.021090" lon="-109.694418"><ele>3158.0</ele></trkpt>
      <trkpt lat="43.021441" lon="-109.695072"><ele>3153.0</ele></trkpt>
      <trkpt lat="43.021547" lon="-109.695299"><ele>3150.8</ele></trkpt>
      <trkpt lat="43.021468" lon="-109.695438"><ele>3151.0</ele></trkpt>
      <trkpt lat="43.021720" lon="-109.695655"><ele>3147.8</ele></trkpt>
      <trkpt lat="43.021896" lon="-109.695682"><ele>3143.5</ele></trkpt>
      <trkpt lat="43.022108" lon="-109.695799"><ele>3138.8</ele></trkpt>
      <trkpt lat="43.022108" lon="-109.695799"><ele>3138.8</ele></trkpt>
      <trkpt lat="43.021896" lon="-109.695682"><ele>3143.5</ele></trkpt>
      <trkpt lat="43.021720" lon="-109.695655"><ele>3147.8</ele></trkpt>
      <trkpt lat="43.021468" lon="-109.695438"><ele>3151.0</ele></trkpt>
      <trkpt lat="43.021320" lon="-109.695538"><ele>3151.8</ele></trkpt>
      <trkpt lat="43.021125" lon="-109.695469"><ele>3153.8</ele></trkpt>
      <trkpt lat="43.020450" lon="-109.695201"><ele>3160.0</ele></trkpt>
      <trkpt lat="43.020257" lon="-109.695220"><ele>3159.8</ele></trkpt>
      <trkpt lat="43.019900" lon="-109.695533"><ele>3154.5</ele></trkpt>
      <trkpt lat="43.019649" lon="-109.695552"><ele>3152.5</ele></trkpt>
      <trkpt lat="43.019323" lon="-109.695459"><ele>3151.0</ele></trkpt>
      <trkpt lat="43.019332" lon="-109.695588"><ele>3149.8</ele></trkpt>
      <trkpt lat="43.019296" lon="-109.695706"><ele>3148.0</ele></trkpt>
      <trkpt lat="43.019159" lon="-109.695598"><ele>3148.2</ele></trkpt>
      <trkpt lat="43.019176" lon="-109.695750"><ele>3146.8</ele></trkpt>
      <trkpt lat="43.019199" lon="-109.696151"><ele>3143.2</ele></trkpt>
      <trkpt lat="43.018956" lon="-109.696334"><ele>3141.5</ele></trkpt>
      <trkpt lat="43.018427" lon="-109.696589"><ele>3140.0</ele></trkpt>
      <trkpt lat="43.018180" lon="-109.696750"><ele>3140.8</ele></trkpt>
      <trkpt lat="43.017881" lon="-109.696908"><ele>3142.0</ele></trkpt>
      <trkpt lat="43.017571" lon="-109.696831"><ele>3143.2</ele></trkpt>
      <trkpt lat="43.016541" lon="-109.696222"><ele>3139.5</ele></trkpt>
      <trkpt lat="43.016321" lon="-109.696198"><ele>3136.0</ele></trkpt>
      <trkpt lat="43.016124" lon="-109.696356"><ele>3133.8</ele></trkpt>
      <trkpt lat="43.015334" lon="-109.697441"><ele>3124.0</ele></trkpt>
      <trkpt lat="43.015246" lon="-109.697681"><ele>3122.5</ele></trkpt>
      <trkpt lat="43.015369" lon="-109.698558"><ele>3124.0</ele></trkpt>
      <trkpt lat="43.015297" lon="-109.699217"><ele>3120.2</ele></trkpt>
      <trkpt lat="43.015169" lon="-109.699873"><ele>3116.2</ele></trkpt>
      <trkpt lat="43.015240" lon="-109.701067"><ele>3114.8</ele></trkpt>
      <trkpt lat="43.015003" lon="-109.702046"><ele>3114.2</ele></trkpt>
      <trkpt lat="43.014177" lon="-109.704893"><ele>3107.5</ele></trkpt>
      <trkpt lat="43.013152" lon="-109.706245"><ele>3102.8</ele></trkpt>
      <trkpt lat="43.012950" lon="-109.706368"><ele>3101.0</ele></trkpt>
      <trkpt lat="43.012324" lon="-109.706330"><ele>3097.2</ele></trkpt>
      <trkpt lat="43.012041" lon="-109.706343"><ele>3095.8</ele></trkpt>
      <trkpt lat="43.011543" lon="-109.706817"><ele>3091.8</ele></trkpt>
      <trkpt lat="43.010729" lon="-109.707654"><ele>3083.2</ele></trkpt>
      <trkpt lat="43.010485" lon="-109.707698"><ele>3082.2</ele></trkpt>
      <trkpt lat="43.010120" lon="-109.707499"><ele>3082.2</ele></trkpt>
      <trkpt lat="43.009974" lon="-109.707571"><ele>3081.8</ele></trkpt>
      <trkpt lat="43.009832" lon="-109.708712"><ele>3079.0</ele></trkpt>
      <trkpt lat="43.009717" lon="-109.709619"><ele>3080.2</ele></trkpt>
      <trkpt lat="43.009638" lon="-109.710377"><ele>3081.2</ele></trkpt>
      <trkpt lat="43.009321" lon="-109.712163"><ele>3081.5</ele></trkpt>
      <trkpt lat="43.008920" lon="-109.714078"><ele>3084.8</ele></trkpt>
      <trkpt lat="43.008636" lon="-109.715273"><ele>3085.0</ele></trkpt>
      <trkpt lat="43.008157" lon="-109.716516"><ele>3085.8</ele></trkpt>
      <trkpt lat="43.007850" lon="-109.716814"><ele>3085.5</ele></trkpt>
      <trkpt lat="43.007478" lon="-109.717248"><ele>3085.0</ele></trkpt>
      <trkpt lat="43.007060" lon="-109.717927"><ele>3078.5</ele></trkpt>
      <trkpt lat="43.006722" lon="-109.718493"><ele>3073.0</ele></trkpt>
      <trkpt lat="43.006648" lon="-109.718796"><ele>3071.5</ele></trkpt>
      <trkpt lat="43.006503" lon="-109.719118"><ele>3069.0</ele></trkpt>
      <trkpt lat="43.006081" lon="-109.719711"><ele>3063.0</ele></trkpt>
      <trkpt lat="43.005720" lon="-109.719966"><ele>3058.5</ele></trkpt>
      <trkpt lat="43.005078" lon="-109.720336"><ele>3056.5</ele></trkpt>
      <trkpt lat="43.004588" lon="-109.720729"><ele>3055.8</ele></trkpt>
      <trkpt lat="43.004211" lon="-109.720807"><ele>3055.0</ele></trkpt>
      <trkpt lat="43.003370" lon="-109.720872"><ele>3053.0</ele></trkpt>
      <trkpt lat="43.002542" lon="-109.720733"><ele>3052.5</ele></trkpt>
      <trkpt lat="43.002127" lon="-109.720647"><ele>3051.5</ele></trkpt>
      <trkpt lat="43.001630" lon="-109.720803"><ele>3050.8</ele></trkpt>
      <trkpt lat="43.001232" lon="-109.720703"><ele>3050.8</ele></trkpt>
      <trkpt lat="43.000904" lon="-109.720696"><ele>3050.5</ele></trkpt>
      <trkpt lat="42.999974" lon="-109.721058"><ele>3050.5</ele></trkpt>
      <trkpt lat="42.999258" lon="-109.721617"><ele>3046.2</ele></trkpt>
      <trkpt lat="42.998542" lon="-109.722225"><ele>3041.5</ele></trkpt>
      <trkpt lat="42.998307" lon="-109.722420"><ele>3040.0</ele></trkpt>
      <trkpt lat="42.997753" lon="-109.722872"><ele>3035.2</ele></trkpt>
      <trkpt lat="42.997512" lon="-109.723220"><ele>3032.2</ele></trkpt>
      <trkpt lat="42.996637" lon="-109.724112"><ele>3025.8</ele></trkpt>
      <trkpt lat="42.995847" lon="-109.724665"><ele>3019.5</ele></trkpt>
      <trkpt lat="42.995464" lon="-109.725013"><ele>3016.2</ele></trkpt>
      <trkpt lat="42.994986" lon="-109.725857"><ele>3009.5</ele></trkpt>
      <trkpt lat="42.994862" lon="-109.726484"><ele>3006.0</ele></trkpt>
      <trkpt lat="42.994924" lon="-109.727402"><ele>3001.5</ele></trkpt>
      <trkpt lat="42.995121" lon="-109.728118"><ele>2994.8</ele></trkpt>
      <trkpt lat="42.995537" lon="-109.729094"><ele>2989.5</ele></trkpt>
      <trkpt lat="42.995928" lon="-109.729887"><ele>2984.0</ele></trkpt>
      <trkpt lat="42.996227" lon="-109.730459"><ele>2983.2</ele></trkpt>
      <trkpt lat="42.996371" lon="-109.730846"><ele>2980.8</ele></trkpt>
      <trkpt lat="42.996590" lon="-109.731918"><ele>2973.5</ele></trkpt>
      <trkpt lat="42.996723" lon="-109.732578"><ele>2970.2</ele></trkpt>
      <trkpt lat="42.997038" lon="-109.733268"><ele>2964.5</ele></trkpt>
      <trkpt lat="42.997790" lon="-109.734520"><ele>2951.0</ele></trkpt>
      <trkpt lat="42.998150" lon="-109.735264"><ele>2944.2</ele></trkpt>
      <trkpt lat="42.998593" lon="-109.735706"><ele>2941.5</ele></trkpt>
      <trkpt lat="42.999164" lon="-109.736418"><ele>2939.5</ele></trkpt>
      <trkpt lat="42.999687" lon="-109.737188"><ele>2935.8</ele></trkpt>
      <trkpt lat="43.000386" lon="-109.738166"><ele>2922.8</ele></trkpt>
      <trkpt lat="43.000472" lon="-109.738455"><ele>2920.0</ele></trkpt>
      <trkpt lat="43.000688" lon="-109.740059"><ele>2912.8</ele></trkpt>
      <trkpt lat="43.000772" lon="-109.740696"><ele>2912.8</ele></trkpt>
      <trkpt lat="43.001025" lon="-109.741363"><ele>2910.0</ele></trkpt>
      <trkpt lat="43.001948" lon="-109.742619"><ele>2901.8</ele></trkpt>
      <trkpt lat="43.002807" lon="-109.743805"><ele>2891.2</ele></trkpt>
      <trkpt lat="43.003519" lon="-109.745336"><ele>2880.2</ele></trkpt>
      <trkpt lat="43.003849" lon="-109.746238"><ele>2876.0</ele></trkpt>
      <trkpt lat="43.004229" lon="-109.746914"><ele>2870.2</ele></trkpt>
      <trkpt lat="43.004550" lon="-109.747660"><ele>2867.5</ele></trkpt>
      <trkpt lat="43.004751" lon="-109.748440"><ele>2867.0</ele></trkpt>
      <trkpt lat="43.005057" lon="-109.749016"><ele>2869.8</ele></trkpt>
      <trkpt lat="43.005740" lon="-109.749972"><ele>2868.8</ele></trkpt>
      <trkpt lat="43.005924" lon="-109.750354"><ele>2868.0</ele></trkpt>
      <trkpt lat="43.005999" lon="-109.750827"><ele>2869.8</ele></trkpt>
      <trkpt lat="43.005770" lon="-109.751491"><ele>2866.8</ele></trkpt>
      <trkpt lat="43.005563" lon="-109.751710"><ele>2864.2</ele></trkpt>
      <trkpt lat="43.005367" lon="-109.751790"><ele>2863.2</ele></trkpt>
      <trkpt lat="43.005049" lon="-109.751795"><ele>2863.0</ele></trkpt>
      <trkpt lat="43.004500" lon="-109.751455"><ele>2863.0</ele></trkpt>
      <trkpt lat="43.004135" lon="-109.751703"><ele>2856.5</ele></trkpt>
      <trkpt lat="43.003897" lon="-109.751684"><ele>2857.0</ele></trkpt>
      <trkpt lat="43.003405" lon="-109.751758"><ele>2856.8</ele></trkpt>
      <trkpt lat="43.003126" lon="-109.751930"><ele>2855.2</ele></trkpt>
      <trkpt lat="43.003071" lon="-109.752112"><ele>2853.5</ele></trkpt>
      <trkpt lat="43.003078" lon="-109.752254"><ele>2852.2</ele></trkpt>
      <trkpt lat="43.002915" lon="-109.752554"><ele>2850.2</ele></trkpt>
      <trkpt lat="43.002725" lon="-109.752879"><ele>2851.0</ele></trkpt>
      <trkpt lat="43.002626" lon="-109.753390"><ele>2852.5</ele></trkpt>
      <trkpt lat="43.002116" lon="-109.753322"><ele>2858.2</ele></trkpt>
    </trkseg>
  </trk>
</gpx>
