<?xml version="1.0" encoding="UTF-8"?>
<gpx version="1.1" creator="pathbeaters26" xmlns="http://www.topografix.com/GPX/1/1" xmlns:xsi="http://www.w3.org/2001/XMLSchema-instance" xsi:schemaLocation="http://www.topografix.com/GPX/1/1 http://www.topografix.com/GPX/1/1/gpx.xsd">
  <metadata><name>Tushar Skyline: Delano, Belknap, Baldy</name></metadata>
  <wpt lat="38.359150" lon="-112.393210"><name>Big John Flat / Skyline NRT TH</name><sym>Trailhead</sym></wpt>
  <wpt lat="38.369140" lon="-112.371320"><name>Delano Peak (12,169 ft)</name><sym>Waypoint</sym></wpt>
  <wpt lat="38.379640" lon="-112.402140"><name>Mud Lake</name><sym>Waypoint</sym></wpt>
  <wpt lat="38.397730" lon="-112.419030"><name>Blue Lake</name><sym>Waypoint</sym></wpt>
  <wpt lat="38.419140" lon="-112.412710"><name>Mount Belknap (12,139 ft)</name><sym>Waypoint</sym></wpt>
  <wpt lat="38.401920" lon="-112.436320"><name>Mount Baldy (12,090 ft)</name><sym>Waypoint</sym></wpt>
  <wpt lat="38.403490" lon="-112.397010"><name>Bullion Pasture</name><sym>Waypoint</sym></wpt>
  <wpt lat="38.379640" lon="-112.402140"><name>Fri camp · Mud Lake</name><sym>Campground</sym></wpt>
  <wpt lat="38.379640" lon="-112.402140"><name>Sat camp · Mud Lake</name><sym>Campground</sym></wpt>
  <wpt lat="38.403490" lon="-112.397010"><name>Sun camp · Bullion Pasture</name><sym>Campground</sym></wpt>
  <trk><name>Tushar Skyline Trail</name>
    <!-- Fri -->
    <trkseg>
      <trkpt lat="38.359150" lon="-112.393210"><ele>3184.5</ele></trkpt>
      <trkpt lat="38.359264" lon="-112.393175"><ele>3186.2</ele></trkpt>
      <trkpt lat="38.359427" lon="-112.393081"><ele>3189.2</ele></trkpt>
      <trkpt lat="38.359647" lon="-112.392886"><ele>3194.0</ele></trkpt>
      <trkpt lat="38.359791" lon="-112.392814"><ele>3196.8</ele></trkpt>
      <trkpt lat="38.360115" lon="-112.392732"><ele>3200.2</ele></trkpt>
      <trkpt lat="38.360436" lon="-112.392787"><ele>3198.2</ele></trkpt>
      <trkpt lat="38.360715" lon="-112.392938"><ele>3195.0</ele></trkpt>
      <trkpt lat="38.360796" lon="-112.393300"><ele>3189.5</ele></trkpt>
      <trkpt lat="38.361000" lon="-112.393613"><ele>3187.8</ele></trkpt>
      <trkpt lat="38.361369" lon="-112.393983"><ele>3186.0</ele></trkpt>
      <trkpt lat="38.361502" lon="-112.393920"><ele>3187.0</ele></trkpt>
      <trkpt lat="38.361566" lon="-112.393979"><ele>3186.5</ele></trkpt>
      <trkpt lat="38.361688" lon="-112.394216"><ele>3184.8</ele></trkpt>
      <trkpt lat="38.361827" lon="-112.394183"><ele>3185.8</ele></trkpt>
      <trkpt lat="38.361952" lon="-112.394093"><ele>3187.5</ele></trkpt>
      <trkpt lat="38.362114" lon="-112.394236"><ele>3186.8</ele></trkpt>
      <trkpt lat="38.362203" lon="-112.394540"><ele>3183.5</ele></trkpt>
      <trkpt lat="38.362482" lon="-112.394995"><ele>3177.0</ele></trkpt>
      <trkpt lat="38.362717" lon="-112.395409"><ele>3177.5</ele></trkpt>
      <trkpt lat="38.362876" lon="-112.395890"><ele>3174.0</ele></trkpt>
      <trkpt lat="38.363239" lon="-112.396342"><ele>3175.2</ele></trkpt>
      <trkpt lat="38.363474" lon="-112.396503"><ele>3175.0</ele></trkpt>
      <trkpt lat="38.363751" lon="-112.396522"><ele>3176.8</ele></trkpt>
      <trkpt lat="38.364035" lon="-112.396397"><ele>3183.8</ele></trkpt>
      <trkpt lat="38.364429" lon="-112.396239"><ele>3192.0</ele></trkpt>
      <trkpt lat="38.364690" lon="-112.396087"><ele>3198.0</ele></trkpt>
      <trkpt lat="38.364838" lon="-112.396079"><ele>3198.2</ele></trkpt>
      <trkpt lat="38.364999" lon="-112.396224"><ele>3193.2</ele></trkpt>
      <trkpt lat="38.365303" lon="-112.396364"><ele>3190.0</ele></trkpt>
      <trkpt lat="38.365511" lon="-112.396317"><ele>3192.2</ele></trkpt>
      <trkpt lat="38.365936" lon="-112.396035"><ele>3201.2</ele></trkpt>
      <trkpt lat="38.366098" lon="-112.396083"><ele>3200.8</ele></trkpt>
      <trkpt lat="38.366370" lon="-112.396308"><ele>3195.8</ele></trkpt>
      <trkpt lat="38.366460" lon="-112.396329"><ele>3195.5</ele></trkpt>
      <trkpt lat="38.367032" lon="-112.395979"><ele>3207.8</ele></trkpt>
      <trkpt lat="38.367447" lon="-112.395759"><ele>3216.0</ele></trkpt>
      <trkpt lat="38.367534" lon="-112.395640"><ele>3218.0</ele></trkpt>
      <trkpt lat="38.366861" lon="-112.395122"><ele>3228.0</ele></trkpt>
      <trkpt lat="38.366605" lon="-112.395081"><ele>3228.8</ele></trkpt>
      <trkpt lat="38.366605" lon="-112.395062"><ele>3229.2</ele></trkpt>
      <trkpt lat="38.366793" lon="-112.394932"><ele>3232.5</ele></trkpt>
      <trkpt lat="38.366690" lon="-112.394937"><ele>3232.5</ele></trkpt>
      <trkpt lat="38.366482" lon="-112.394932"><ele>3232.2</ele></trkpt>
      <trkpt lat="38.366464" lon="-112.394909"><ele>3232.8</ele></trkpt>
      <trkpt lat="38.366582" lon="-112.394814"><ele>3235.2</ele></trkpt>
      <trkpt lat="38.366705" lon="-112.394727"><ele>3237.8</ele></trkpt>
      <trkpt lat="38.366716" lon="-112.394681"><ele>3238.8</ele></trkpt>
      <trkpt lat="38.366625" lon="-112.394663"><ele>3239.2</ele></trkpt>
      <trkpt lat="38.366553" lon="-112.394614"><ele>3240.0</ele></trkpt>
      <trkpt lat="38.366588" lon="-112.394576"><ele>3241.2</ele></trkpt>
      <trkpt lat="38.366798" lon="-112.394460"><ele>3244.2</ele></trkpt>
      <trkpt lat="38.366805" lon="-112.394434"><ele>3244.8</ele></trkpt>
      <trkpt lat="38.366671" lon="-112.394369"><ele>3246.8</ele></trkpt>
      <trkpt lat="38.366558" lon="-112.394199"><ele>3250.2</ele></trkpt>
      <trkpt lat="38.366564" lon="-112.394168"><ele>3251.0</ele></trkpt>
      <trkpt lat="38.366851" lon="-112.394085"><ele>3252.8</ele></trkpt>
      <trkpt lat="38.366853" lon="-112.394041"><ele>3253.8</ele></trkpt>
      <trkpt lat="38.366642" lon="-112.393822"><ele>3258.0</ele></trkpt>
      <trkpt lat="38.366760" lon="-112.393794"><ele>3258.8</ele></trkpt>
      <trkpt lat="38.366928" lon="-112.393686"><ele>3261.2</ele></trkpt>
      <trkpt lat="38.366747" lon="-112.393509"><ele>3264.0</ele></trkpt>
      <trkpt lat="38.366742" lon="-112.393472"><ele>3264.8</ele></trkpt>
      <trkpt lat="38.367029" lon="-112.393391"><ele>3268.2</ele></trkpt>
      <trkpt lat="38.367035" lon="-112.393356"><ele>3269.0</ele></trkpt>
      <trkpt lat="38.366840" lon="-112.393089"><ele>3273.8</ele></trkpt>
      <trkpt lat="38.366834" lon="-112.393059"><ele>3274.5</ele></trkpt>
      <trkpt lat="38.367134" lon="-112.393003"><ele>3278.8</ele></trkpt>
      <trkpt lat="38.367162" lon="-112.392963"><ele>3280.0</ele></trkpt>
      <trkpt lat="38.367009" lon="-112.392716"><ele>3284.5</ele></trkpt>
      <trkpt lat="38.366998" lon="-112.392636"><ele>3286.2</ele></trkpt>
      <trkpt lat="38.367030" lon="-112.392598"><ele>3287.8</ele></trkpt>
      <trkpt lat="38.367262" lon="-112.392619"><ele>3290.2</ele></trkpt>
      <trkpt lat="38.367294" lon="-112.392596"><ele>3291.2</ele></trkpt>
      <trkpt lat="38.367279" lon="-112.392538"><ele>3292.8</ele></trkpt>
      <trkpt lat="38.367093" lon="-112.392226"><ele>3297.5</ele></trkpt>
      <trkpt lat="38.367212" lon="-112.392192"><ele>3300.2</ele></trkpt>
      <trkpt lat="38.367364" lon="-112.392136"><ele>3304.0</ele></trkpt>
      <trkpt lat="38.367369" lon="-112.392072"><ele>3305.5</ele></trkpt>
      <trkpt lat="38.367206" lon="-112.391764"><ele>3310.5</ele></trkpt>
      <trkpt lat="38.367294" lon="-112.391743"><ele>3312.5</ele></trkpt>
      <trkpt lat="38.367498" lon="-112.391701"><ele>3317.0</ele></trkpt>
      <trkpt lat="38.367547" lon="-112.391663"><ele>3317.0</ele></trkpt>
      <trkpt lat="38.367421" lon="-112.391465"><ele>3322.0</ele></trkpt>
      <trkpt lat="38.367230" lon="-112.391261"><ele>3324.0</ele></trkpt>
      <trkpt lat="38.367230" lon="-112.391227"><ele>3325.0</ele></trkpt>
      <trkpt lat="38.367253" lon="-112.391208"><ele>3326.0</ele></trkpt>
      <trkpt lat="38.367671" lon="-112.391064"><ele>3332.0</ele></trkpt>
      <trkpt lat="38.367695" lon="-112.391034"><ele>3332.8</ele></trkpt>
      <trkpt lat="38.367502" lon="-112.390677"><ele>3344.2</ele></trkpt>
      <trkpt lat="38.367409" lon="-112.390506"><ele>3346.0</ele></trkpt>
      <trkpt lat="38.367776" lon="-112.390396"><ele>3348.2</ele></trkpt>
      <trkpt lat="38.367805" lon="-112.390365"><ele>3348.8</ele></trkpt>
      <trkpt lat="38.367792" lon="-112.390306"><ele>3350.2</ele></trkpt>
      <trkpt lat="38.367486" lon="-112.390060"><ele>3357.2</ele></trkpt>
      <trkpt lat="38.367287" lon="-112.389896"><ele>3355.8</ele></trkpt>
      <trkpt lat="38.367299" lon="-112.389870"><ele>3356.5</ele></trkpt>
      <trkpt lat="38.367796" lon="-112.389869"><ele>3359.8</ele></trkpt>
      <trkpt lat="38.367822" lon="-112.389839"><ele>3360.2</ele></trkpt>
      <trkpt lat="38.367167" lon="-112.389090"><ele>3368.5</ele></trkpt>
      <trkpt lat="38.367159" lon="-112.389056"><ele>3369.0</ele></trkpt>
      <trkpt lat="38.367184" lon="-112.389008"><ele>3370.5</ele></trkpt>
      <trkpt lat="38.367349" lon="-112.388995"><ele>3373.8</ele></trkpt>
      <trkpt lat="38.367398" lon="-112.388697"><ele>3380.8</ele></trkpt>
      <trkpt lat="38.367469" lon="-112.388356"><ele>3389.0</ele></trkpt>
      <trkpt lat="38.367543" lon="-112.387986"><ele>3397.8</ele></trkpt>
      <trkpt lat="38.367746" lon="-112.387616"><ele>3403.8</ele></trkpt>
      <trkpt lat="38.368025" lon="-112.386951"><ele>3411.8</ele></trkpt>
      <trkpt lat="38.368021" lon="-112.386867"><ele>3413.2</ele></trkpt>
      <trkpt lat="38.367885" lon="-112.386367"><ele>3425.5</ele></trkpt>
      <trkpt lat="38.367917" lon="-112.386191"><ele>3429.0</ele></trkpt>
      <trkpt lat="38.367820" lon="-112.385953"><ele>3436.0</ele></trkpt>
      <trkpt lat="38.367590" lon="-112.385547"><ele>3449.5</ele></trkpt>
      <trkpt lat="38.367532" lon="-112.385507"><ele>3451.5</ele></trkpt>
      <trkpt lat="38.367526" lon="-112.385476"><ele>3452.2</ele></trkpt>
      <trkpt lat="38.367731" lon="-112.385227"><ele>3455.0</ele></trkpt>
      <trkpt lat="38.367813" lon="-112.385106"><ele>3456.8</ele></trkpt>
      <trkpt lat="38.367814" lon="-112.384838"><ele>3462.5</ele></trkpt>
      <trkpt lat="38.367953" lon="-112.384086"><ele>3477.0</ele></trkpt>
      <trkpt lat="38.367997" lon="-112.383735"><ele>3484.5</ele></trkpt>
      <trkpt lat="38.368218" lon="-112.383143"><ele>3495.8</ele></trkpt>
      <trkpt lat="38.368294" lon="-112.382975"><ele>3498.2</ele></trkpt>
      <trkpt lat="38.368397" lon="-112.382646"><ele>3500.5</ele></trkpt>
      <trkpt lat="38.368372" lon="-112.382242"><ele>3504.8</ele></trkpt>
      <trkpt lat="38.368313" lon="-112.382094"><ele>3506.5</ele></trkpt>
      <trkpt lat="38.368066" lon="-112.381768"><ele>3510.2</ele></trkpt>
      <trkpt lat="38.367861" lon="-112.381294"><ele>3520.8</ele></trkpt>
      <trkpt lat="38.367760" lon="-112.380911"><ele>3529.0</ele></trkpt>
      <trkpt lat="38.367735" lon="-112.380609"><ele>3533.8</ele></trkpt>
      <trkpt lat="38.367778" lon="-112.380462"><ele>3536.0</ele></trkpt>
      <trkpt lat="38.368057" lon="-112.379772"><ele>3549.5</ele></trkpt>
      <trkpt lat="38.368188" lon="-112.379597"><ele>3554.5</ele></trkpt>
      <trkpt lat="38.368281" lon="-112.379397"><ele>3560.0</ele></trkpt>
      <trkpt lat="38.368459" lon="-112.379110"><ele>3564.2</ele></trkpt>
      <trkpt lat="38.368530" lon="-112.378905"><ele>3568.0</ele></trkpt>
      <trkpt lat="38.368552" lon="-112.378705"><ele>3572.8</ele></trkpt>
      <trkpt lat="38.368630" lon="-112.378469"><ele>3577.5</ele></trkpt>
      <trkpt lat="38.368782" lon="-112.378254"><ele>3579.5</ele></trkpt>
      <trkpt lat="38.368913" lon="-112.378002"><ele>3581.2</ele></trkpt>
      <trkpt lat="38.368943" lon="-112.377788"><ele>3584.2</ele></trkpt>
      <trkpt lat="38.368782" lon="-112.377549"><ele>3589.5</ele></trkpt>
      <trkpt lat="38.368645" lon="-112.377383"><ele>3594.2</ele></trkpt>
      <trkpt lat="38.368614" lon="-112.377250"><ele>3598.0</ele></trkpt>
      <trkpt lat="38.368650" lon="-112.377110"><ele>3601.8</ele></trkpt>
      <trkpt lat="38.368784" lon="-112.376891"><ele>3607.5</ele></trkpt>
      <trkpt lat="38.369096" lon="-112.376478"><ele>3619.5</ele></trkpt>
      <trkpt lat="38.369404" lon="-112.376195"><ele>3629.5</ele></trkpt>
      <trkpt lat="38.369846" lon="-112.375897"><ele>3640.5</ele></trkpt>
      <trkpt lat="38.369948" lon="-112.375645"><ele>3648.2</ele></trkpt>
      <trkpt lat="38.370058" lon="-112.375056"><ele>3663.8</ele></trkpt>
      <trkpt lat="38.370036" lon="-112.374466"><ele>3672.8</ele></trkpt>
      <trkpt lat="38.369830" lon="-112.374021"><ele>3677.5</ele></trkpt>
      <trkpt lat="38.369674" lon="-112.373474"><ele>3679.8</ele></trkpt>
      <trkpt lat="38.369573" lon="-112.372653"><ele>3685.0</ele></trkpt>
      <trkpt lat="38.369400" lon="-112.372272"><ele>3690.2</ele></trkpt>
      <trkpt lat="38.369400" lon="-112.372272"><ele>3690.2</ele></trkpt>
      <trkpt lat="38.369573" lon="-112.372653"><ele>3685.0</ele></trkpt>
      <trkpt lat="38.369674" lon="-112.373474"><ele>3679.8</ele></trkpt>
      <trkpt lat="38.369830" lon="-112.374021"><ele>3677.5</ele></trkpt>
      <trkpt lat="38.370036" lon="-112.374466"><ele>3672.8</ele></trkpt>
      <trkpt lat="38.370058" lon="-112.375056"><ele>3663.8</ele></trkpt>
      <trkpt lat="38.369948" lon="-112.375645"><ele>3648.2</ele></trkpt>
      <trkpt lat="38.369846" lon="-112.375897"><ele>3640.5</ele></trkpt>
      <trkpt lat="38.369404" lon="-112.376195"><ele>3629.5</ele></trkpt>
      <trkpt lat="38.369096" lon="-112.376478"><ele>3619.5</ele></trkpt>
      <trkpt lat="38.368784" lon="-112.376891"><ele>3607.5</ele></trkpt>
      <trkpt lat="38.368650" lon="-112.377110"><ele>3601.8</ele></trkpt>
      <trkpt lat="38.368614" lon="-112.377250"><ele>3598.0</ele></trkpt>
      <trkpt lat="38.368645" lon="-112.377383"><ele>3594.2</ele></trkpt>
      <trkpt lat="38.368782" lon="-112.377549"><ele>3589.5</ele></trkpt>
      <trkpt lat="38.368943" lon="-112.377788"><ele>3584.2</ele></trkpt>
      <trkpt lat="38.368913" lon="-112.378002"><ele>3581.2</ele></trkpt>
      <trkpt lat="38.368782" lon="-112.378254"><ele>3579.5</ele></trkpt>
      <trkpt lat="38.368630" lon="-112.378469"><ele>3577.5</ele></trkpt>
      <trkpt lat="38.368552" lon="-112.378705"><ele>3572.8</ele></trkpt>
      <trkpt lat="38.368530" lon="-112.378905"><ele>3568.0</ele></trkpt>
      <trkpt lat="38.368459" lon="-112.379110"><ele>3564.2</ele></trkpt>
      <trkpt lat="38.368281" lon="-112.379397"><ele>3560.0</ele></trkpt>
      <trkpt lat="38.368188" lon="-112.379597"><ele>3554.5</ele></trkpt>
      <trkpt lat="38.368057" lon="-112.379772"><ele>3549.5</ele></trkpt>
      <trkpt lat="38.367778" lon="-112.380462"><ele>3536.0</ele></trkpt>
      <trkpt lat="38.367735" lon="-112.380609"><ele>3533.8</ele></trkpt>
      <trkpt lat="38.367760" lon="-112.380911"><ele>3529.0</ele></trkpt>
      <trkpt lat="38.367861" lon="-112.381294"><ele>3520.8</ele></trkpt>
      <trkpt lat="38.368066" lon="-112.381768"><ele>3510.2</ele></trkpt>
      <trkpt lat="38.368313" lon="-112.382094"><ele>3506.5</ele></trkpt>
      <trkpt lat="38.368372" lon="-112.382242"><ele>3504.8</ele></trkpt>
      <trkpt lat="38.368397" lon="-112.382646"><ele>3500.5</ele></trkpt>
      <trkpt lat="38.368294" lon="-112.382975"><ele>3498.2</ele></trkpt>
      <trkpt lat="38.368218" lon="-112.383143"><ele>3495.8</ele></trkpt>
      <trkpt lat="38.367997" lon="-112.383735"><ele>3484.5</ele></trkpt>
      <trkpt lat="38.367953" lon="-112.384086"><ele>3477.0</ele></trkpt>
      <trkpt lat="38.367814" lon="-112.384838"><ele>3462.5</ele></trkpt>
      <trkpt lat="38.367813" lon="-112.385106"><ele>3456.8</ele></trkpt>
      <trkpt lat="38.367731" lon="-112.385227"><ele>3455.0</ele></trkpt>
      <trkpt lat="38.367526" lon="-112.385476"><ele>3452.2</ele></trkpt>
      <trkpt lat="38.367532" lon="-112.385507"><ele>3451.5</ele></trkpt>
      <trkpt lat="38.367590" lon="-112.385547"><ele>3449.5</ele></trkpt>
      <trkpt lat="38.367820" lon="-112.385953"><ele>3436.0</ele></trkpt>
      <trkpt lat="38.367917" lon="-112.386191"><ele>3429.0</ele></trkpt>
      <trkpt lat="38.367885" lon="-112.386367"><ele>3425.5</ele></trkpt>
      <trkpt lat="38.368021" lon="-112.386867"><ele>3413.2</ele></trkpt>
      <trkpt lat="38.368025" lon="-112.386951"><ele>3411.8</ele></trkpt>
      <trkpt lat="38.367746" lon="-112.387616"><ele>3403.8</ele></trkpt>
      <trkpt lat="38.367543" lon="-112.387986"><ele>3397.8</ele></trkpt>
      <trkpt lat="38.367469" lon="-112.388356"><ele>3389.0</ele></trkpt>
      <trkpt lat="38.367398" lon="-112.388697"><ele>3380.8</ele></trkpt>
      <trkpt lat="38.367349" lon="-112.388995"><ele>3373.8</ele></trkpt>
      <trkpt lat="38.367184" lon="-112.389008"><ele>3370.5</ele></trkpt>
      <trkpt lat="38.367159" lon="-112.389056"><ele>3369.0</ele></trkpt>
      <trkpt lat="38.367167" lon="-112.389090"><ele>3368.5</ele></trkpt>
      <trkpt lat="38.367822" lon="-112.389839"><ele>3360.2</ele></trkpt>
      <trkpt lat="38.367796" lon="-112.389869"><ele>3359.8</ele></trkpt>
      <trkpt lat="38.367299" lon="-112.389870"><ele>3356.5</ele></trkpt>
      <trkpt lat="38.367287" lon="-112.389896"><ele>3355.8</ele></trkpt>
      <trkpt lat="38.367486" lon="-112.390060"><ele>3357.2</ele></trkpt>
      <trkpt lat="38.367792" lon="-112.390306"><ele>3350.2</ele></trkpt>
      <trkpt lat="38.367805" lon="-112.390365"><ele>3348.8</ele></trkpt>
      <trkpt lat="38.367776" lon="-112.390396"><ele>3348.2</ele></trkpt>
      <trkpt lat="38.367409" lon="-112.390506"><ele>3346.0</ele></trkpt>
      <trkpt lat="38.367502" lon="-112.390677"><ele>3344.2</ele></trkpt>
      <trkpt lat="38.367695" lon="-112.391034"><ele>3332.8</ele></trkpt>
      <trkpt lat="38.367671" lon="-112.391064"><ele>3332.0</ele></trkpt>
      <trkpt lat="38.367253" lon="-112.391208"><ele>3326.0</ele></trkpt>
      <trkpt lat="38.367230" lon="-112.391227"><ele>3325.0</ele></trkpt>
      <trkpt lat="38.367230" lon="-112.391261"><ele>3324.0</ele></trkpt>
      <trkpt lat="38.367421" lon="-112.391465"><ele>3322.0</ele></trkpt>
      <trkpt lat="38.367547" lon="-112.391663"><ele>3317.0</ele></trkpt>
      <trkpt lat="38.367498" lon="-112.391701"><ele>3317.0</ele></trkpt>
      <trkpt lat="38.367294" lon="-112.391743"><ele>3312.5</ele></trkpt>
      <trkpt lat="38.367206" lon="-112.391764"><ele>3310.5</ele></trkpt>
      <trkpt lat="38.367369" lon="-112.392072"><ele>3305.5</ele></trkpt>
      <trkpt lat="38.367364" lon="-112.392136"><ele>3304.0</ele></trkpt>
      <trkpt lat="38.367212" lon="-112.392192"><ele>3300.2</ele></trkpt>
      <trkpt lat="38.367093" lon="-112.392226"><ele>3297.5</ele></trkpt>
      <trkpt lat="38.367279" lon="-112.392538"><ele>3292.8</ele></trkpt>
      <trkpt lat="38.367294" lon="-112.392596"><ele>3291.2</ele></trkpt>
      <trkpt lat="38.367262" lon="-112.392619"><ele>3290.2</ele></trkpt>
      <trkpt lat="38.367030" lon="-112.392598"><ele>3287.8</ele></trkpt>
      <trkpt lat="38.366998" lon="-112.392636"><ele>3286.2</ele></trkpt>
      <trkpt lat="38.367009" lon="-112.392716"><ele>3284.5</ele></trkpt>
      <trkpt lat="38.367162" lon="-112.392963"><ele>3280.0</ele></trkpt>
      <trkpt lat="38.367134" lon="-112.393003"><ele>3278.8</ele></trkpt>
      <trkpt lat="38.366834" lon="-112.393059"><ele>3274.5</ele></trkpt>
      <trkpt lat="38.366840" lon="-112.393089"><ele>3273.8</ele></trkpt>
      <trkpt lat="38.367035" lon="-112.393356"><ele>3269.0</ele></trkpt>
      <trkpt lat="38.367029" lon="-112.393391"><ele>3268.2</ele></trkpt>
      <trkpt lat="38.366742" lon="-112.393472"><ele>3264.8</ele></trkpt>
      <trkpt lat="38.366747" lon="-112.393509"><ele>3264.0</ele></trkpt>
      <trkpt lat="38.366928" lon="-112.393686"><ele>3261.2</ele></trkpt>
      <trkpt lat="38.366760" lon="-112.393794"><ele>3258.8</ele></trkpt>
      <trkpt lat="38.366642" lon="-112.393822"><ele>3258.0</ele></trkpt>
      <trkpt lat="38.366853" lon="-112.394041"><ele>3253.8</ele></trkpt>
      <trkpt lat="38.366851" lon="-112.394085"><ele>3252.8</ele></trkpt>
      <trkpt lat="38.366564" lon="-112.394168"><ele>3251.0</ele></trkpt>
      <trkpt lat="38.366558" lon="-112.394199"><ele>3250.2</ele></trkpt>
      <trkpt lat="38.366671" lon="-112.394369"><ele>3246.8</ele></trkpt>
      <trkpt lat="38.366805" lon="-112.394434"><ele>3244.8</ele></trkpt>
      <trkpt lat="38.366798" lon="-112.394460"><ele>3244.2</ele></trkpt>
      <trkpt lat="38.366588" lon="-112.394576"><ele>3241.2</ele></trkpt>
      <trkpt lat="38.366553" lon="-112.394614"><ele>3240.0</ele></trkpt>
      <trkpt lat="38.366625" lon="-112.394663"><ele>3239.2</ele></trkpt>
      <trkpt lat="38.366716" lon="-112.394681"><ele>3238.8</ele></trkpt>
      <trkpt lat="38.366705" lon="-112.394727"><ele>3237.8</ele></trkpt>
      <trkpt lat="38.366582" lon="-112.394814"><ele>3235.2</ele></trkpt>
      <trkpt lat="38.366464" lon="-112.394909"><ele>3232.8</ele></trkpt>
      <trkpt lat="38.366482" lon="-112.394932"><ele>3232.2</ele></trkpt>
      <trkpt lat="38.366690" lon="-112.394937"><ele>3232.5</ele></trkpt>
      <trkpt lat="38.366793" lon="-112.394932"><ele>3232.5</ele></trkpt>
      <trkpt lat="38.366605" lon="-112.395062"><ele>3229.2</ele></trkpt>
      <trkpt lat="38.366605" lon="-112.395081"><ele>3228.8</ele></trkpt>
      <trkpt lat="38.366861" lon="-112.395122"><ele>3228.0</ele></trkpt>
      <trkpt lat="38.367534" lon="-112.395640"><ele>3218.0</ele></trkpt>
      <trkpt lat="38.367671" lon="-112.395322"><ele>3222.0</ele></trkpt>
      <trkpt lat="38.367833" lon="-112.394677"><ele>3232.2</ele></trkpt>
      <trkpt lat="38.367892" lon="-112.394121"><ele>3241.5</ele></trkpt>
      <trkpt lat="38.368015" lon="-112.393940"><ele>3242.8</ele></trkpt>
      <trkpt lat="38.368350" lon="-112.393806"><ele>3237.2</ele></trkpt>
      <trkpt lat="38.368721" lon="-112.393569"><ele>3237.0</ele></trkpt>
      <trkpt lat="38.369005" lon="-112.393233"><ele>3241.5</ele></trkpt>
      <trkpt lat="38.369435" lon="-112.392966"><ele>3246.0</ele></trkpt>
      <trkpt lat="38.369665" lon="-112.392805"><ele>3248.8</ele></trkpt>
      <trkpt lat="38.369845" lon="-112.392430"><ele>3256.5</ele></trkpt>
      <trkpt lat="38.370265" lon="-112.391707"><ele>3263.2</ele></trkpt>
      <trkpt lat="38.370532" lon="-112.391528"><ele>3259.5</ele></trkpt>
      <trkpt lat="38.370745" lon="-112.391069"><ele>3260.2</ele></trkpt>
      <trkpt lat="38.370794" lon="-112.390745"><ele>3263.5</ele></trkpt>
      <trkpt lat="38.370880" lon="-112.390711"><ele>3263.5</ele></trkpt>
      <trkpt lat="38.370979" lon="-112.390892"><ele>3262.2</ele></trkpt>
      <trkpt lat="38.371032" lon="-112.391282"><ele>3258.5</ele></trkpt>
      <trkpt lat="38.371138" lon="-112.391814"><ele>3254.8</ele></trkpt>
      <trkpt lat="38.371409" lon="-112.392370"><ele>3254.0</ele></trkpt>
      <trkpt lat="38.371584" lon="-112.392539"><ele>3256.2</ele></trkpt>
      <trkpt lat="38.371823" lon="-112.392584"><ele>3260.8</ele></trkpt>
      <trkpt lat="38.372052" lon="-112.392698"><ele>3264.0</ele></trkpt>
      <trkpt lat="38.372191" lon="-112.392741"><ele>3265.8</ele></trkpt>
      <trkpt lat="38.372239" lon="-112.392584"><ele>3268.0</ele></trkpt>
      <trkpt lat="38.372005" lon="-112.391978"><ele>3270.8</ele></trkpt>
      <trkpt lat="38.371974" lon="-112.391626"><ele>3274.0</ele></trkpt>
      <trkpt lat="38.371886" lon="-112.391232"><ele>3274.5</ele></trkpt>
      <trkpt lat="38.371835" lon="-112.390915"><ele>3275.5</ele></trkpt>
      <trkpt lat="38.371933" lon="-112.390760"><ele>3279.2</ele></trkpt>
      <trkpt lat="38.372239" lon="-112.390807"><ele>3286.8</ele></trkpt>
      <trkpt lat="38.372662" lon="-112.390790"><ele>3299.5</ele></trkpt>
      <trkpt lat="38.372777" lon="-112.390979"><ele>3301.5</ele></trkpt>
      <trkpt lat="38.372868" lon="-112.391519"><ele>3299.0</ele></trkpt>
      <trkpt lat="38.373030" lon="-112.391916"><ele>3298.8</ele></trkpt>
      <trkpt lat="38.373034" lon="-112.392297"><ele>3293.8</ele></trkpt>
      <trkpt lat="38.373059" lon="-112.392497"><ele>3292.0</ele></trkpt>
      <trkpt lat="38.373218" lon="-112.392773"><ele>3294.0</ele></trkpt>
      <trkpt lat="38.373282" lon="-112.393137"><ele>3292.2</ele></trkpt>
      <trkpt lat="38.373255" lon="-112.393592"><ele>3286.5</ele></trkpt>
      <trkpt lat="38.373331" lon="-112.393925"><ele>3285.5</ele></trkpt>
      <trkpt lat="38.373574" lon="-112.394211"><ele>3291.8</ele></trkpt>
      <trkpt lat="38.373842" lon="-112.394490"><ele>3297.2</ele></trkpt>
      <trkpt lat="38.374047" lon="-112.394837"><ele>3298.5</ele></trkpt>
      <trkpt lat="38.374145" lon="-112.395191"><ele>3296.0</ele></trkpt>
      <trkpt lat="38.374289" lon="-112.395347"><ele>3298.0</ele></trkpt>
      <trkpt lat="38.374426" lon="-112.395566"><ele>3298.0</ele></trkpt>
      <trkpt lat="38.374515" lon="-112.396052"><ele>3291.0</ele></trkpt>
      <trkpt lat="38.374664" lon="-112.396315"><ele>3289.8</ele></trkpt>
      <trkpt lat="38.374971" lon="-112.396739"><ele>3289.8</ele></trkpt>
      <trkpt lat="38.375276" lon="-112.397097"><ele>3290.8</ele></trkpt>
      <trkpt lat="38.375350" lon="-112.397231"><ele>3290.5</ele></trkpt>
      <trkpt lat="38.375360" lon="-112.397348"><ele>3288.8</ele></trkpt>
      <trkpt lat="38.375332" lon="-112.397530"><ele>3285.5</ele></trkpt>
      <trkpt lat="38.375273" lon="-112.398009"><ele>3283.8</ele></trkpt>
      <trkpt lat="38.375329" lon="-112.398237"><ele>3284.8</ele></trkpt>
      <trkpt lat="38.375647" lon="-112.398618"><ele>3290.8</ele></trkpt>
      <trkpt lat="38.375833" lon="-112.398960"><ele>3294.8</ele></trkpt>
      <trkpt lat="38.375902" lon="-112.399198"><ele>3296.2</ele></trkpt>
      <trkpt lat="38.375942" lon="-112.399459"><ele>3297.2</ele></trkpt>
      <trkpt lat="38.376055" lon="-112.399484"><ele>3299.8</ele></trkpt>
      <trkpt lat="38.376256" lon="-112.399300"><ele>3303.5</ele></trkpt>
      <trkpt lat="38.376551" lon="-112.399152"><ele>3308.5</ele></trkpt>
      <trkpt lat="38.376754" lon="-112.399076"><ele>3312.5</ele></trkpt>
      <trkpt lat="38.376807" lon="-112.398913"><ele>3313.0</ele></trkpt>
      <trkpt lat="38.376911" lon="-112.398747"><ele>3314.5</ele></trkpt>
      <trkpt lat="38.377111" lon="-112.398634"><ele>3317.8</ele></trkpt>
      <trkpt lat="38.377313" lon="-112.398626"><ele>3321.2</ele></trkpt>
      <trkpt lat="38.377911" lon="-112.398819"><ele>3332.2</ele></trkpt>
      <trkpt lat="38.378089" lon="-112.398942"><ele>3335.8</ele></trkpt>
      <trkpt lat="38.378208" lon="-112.399270"><ele>3339.8</ele></trkpt>
      <trkpt lat="38.378506" lon="-112.399480"><ele>3346.5</ele></trkpt>
      <trkpt lat="38.378722" lon="-112.399452"><ele>3349.5</ele></trkpt>
      <trkpt lat="38.378802" lon="-112.399546"><ele>3351.2</ele></trkpt>
      <trkpt lat="38.378834" lon="-112.399842"><ele>3353.8</ele></trkpt>
      <trkpt lat="38.378980" lon="-112.400096"><ele>3356.8</ele></trkpt>
      <trkpt lat="38.378913" lon="-112.401338"><ele>3358.2</ele></trkpt>
      <trkpt lat="38.378893" lon="-112.401766"><ele>3359.0</ele></trkpt>
      <trkpt lat="38.378965" lon="-112.401926"><ele>3360.0</ele></trkpt>
      <trkpt lat="38.379489" lon="-112.402390"><ele>3362.2</ele></trkpt>
    </trkseg>
    <!-- Sat -->
    <trkseg>
      <trkpt lat="38.379489" lon="-112.402390"><ele>3362.2</ele></trkpt>
      <trkpt lat="38.378965" lon="-112.401926"><ele>3360.0</ele></trkpt>
      <trkpt lat="38.378893" lon="-112.401766"><ele>3359.0</ele></trkpt>
      <trkpt lat="38.378913" lon="-112.401338"><ele>3358.2</ele></trkpt>
      <trkpt lat="38.379282" lon="-112.400466"><ele>3359.8</ele></trkpt>
      <trkpt lat="38.379537" lon="-112.400735"><ele>3361.0</ele></trkpt>
      <trkpt lat="38.379724" lon="-112.400684"><ele>3363.0</ele></trkpt>
      <trkpt lat="38.379904" lon="-112.400395"><ele>3367.5</ele></trkpt>
      <trkpt lat="38.379961" lon="-112.399820"><ele>3372.5</ele></trkpt>
      <trkpt lat="38.380032" lon="-112.399238"><ele>3375.0</ele></trkpt>
      <trkpt lat="38.380086" lon="-112.399068"><ele>3375.8</ele></trkpt>
      <trkpt lat="38.380172" lon="-112.398960"><ele>3376.5</ele></trkpt>
      <trkpt lat="38.380380" lon="-112.398773"><ele>3378.8</ele></trkpt>
      <trkpt lat="38.380546" lon="-112.398534"><ele>3380.8</ele></trkpt>
      <trkpt lat="38.380667" lon="-112.398275"><ele>3382.5</ele></trkpt>
      <trkpt lat="38.380785" lon="-112.398082"><ele>3384.2</ele></trkpt>
      <trkpt lat="38.381249" lon="-112.397665"><ele>3391.0</ele></trkpt>
      <trkpt lat="38.381695" lon="-112.397483"><ele>3397.5</ele></trkpt>
      <trkpt lat="38.381928" lon="-112.397502"><ele>3400.2</ele></trkpt>
      <trkpt lat="38.382164" lon="-112.397605"><ele>3402.5</ele></trkpt>
      <trkpt lat="38.382262" lon="-112.397734"><ele>3402.8</ele></trkpt>
      <trkpt lat="38.382333" lon="-112.398038"><ele>3401.0</ele></trkpt>
      <trkpt lat="38.382386" lon="-112.398167"><ele>3400.2</ele></trkpt>
      <trkpt lat="38.382503" lon="-112.398243"><ele>3400.8</ele></trkpt>
      <trkpt lat="38.382644" lon="-112.398247"><ele>3403.8</ele></trkpt>
      <trkpt lat="38.382840" lon="-112.398127"><ele>3409.0</ele></trkpt>
      <trkpt lat="38.382861" lon="-112.398008"><ele>3410.5</ele></trkpt>
      <trkpt lat="38.382762" lon="-112.397674"><ele>3411.5</ele></trkpt>
      <trkpt lat="38.382699" lon="-112.397569"><ele>3411.2</ele></trkpt>
      <trkpt lat="38.382588" lon="-112.397440"><ele>3410.5</ele></trkpt>
      <trkpt lat="38.382614" lon="-112.397380"><ele>3412.0</ele></trkpt>
      <trkpt lat="38.382961" lon="-112.397398"><ele>3418.5</ele></trkpt>
      <trkpt lat="38.383153" lon="-112.397555"><ele>3420.8</ele></trkpt>
      <trkpt lat="38.383250" lon="-112.397560"><ele>3422.8</ele></trkpt>
      <trkpt lat="38.383316" lon="-112.397481"><ele>3424.8</ele></trkpt>
      <trkpt lat="38.383327" lon="-112.397355"><ele>3426.2</ele></trkpt>
      <trkpt lat="38.383269" lon="-112.397160"><ele>3427.0</ele></trkpt>
      <trkpt lat="38.383197" lon="-112.397037"><ele>3427.0</ele></trkpt>
      <trkpt lat="38.383079" lon="-112.396937"><ele>3426.0</ele></trkpt>
      <trkpt lat="38.383065" lon="-112.396851"><ele>3427.0</ele></trkpt>
      <trkpt lat="38.383090" lon="-112.396819"><ele>3427.8</ele></trkpt>
      <trkpt lat="38.383155" lon="-112.396822"><ele>3428.5</ele></trkpt>
      <trkpt lat="38.383382" lon="-112.397124"><ele>3430.0</ele></trkpt>
      <trkpt lat="38.383589" lon="-112.397202"><ele>3435.2</ele></trkpt>
      <trkpt lat="38.383647" lon="-112.397295"><ele>3436.2</ele></trkpt>
      <trkpt lat="38.383723" lon="-112.397795"><ele>3434.5</ele></trkpt>
      <trkpt lat="38.383936" lon="-112.398002"><ele>3440.0</ele></trkpt>
      <trkpt lat="38.384012" lon="-112.398138"><ele>3441.8</ele></trkpt>
      <trkpt lat="38.384136" lon="-112.398534"><ele>3444.8</ele></trkpt>
      <trkpt lat="38.384209" lon="-112.398570"><ele>3447.2</ele></trkpt>
      <trkpt lat="38.384291" lon="-112.398553"><ele>3450.0</ele></trkpt>
      <trkpt lat="38.384505" lon="-112.398228"><ele>3457.8</ele></trkpt>
      <trkpt lat="38.384534" lon="-112.398112"><ele>3459.5</ele></trkpt>
      <trkpt lat="38.384634" lon="-112.398081"><ele>3463.0</ele></trkpt>
      <trkpt lat="38.384722" lon="-112.398164"><ele>3465.5</ele></trkpt>
      <trkpt lat="38.384762" lon="-112.398307"><ele>3466.0</ele></trkpt>
      <trkpt lat="38.384639" lon="-112.398676"><ele>3462.0</ele></trkpt>
      <trkpt lat="38.384645" lon="-112.398834"><ele>3462.2</ele></trkpt>
      <trkpt lat="38.384718" lon="-112.398857"><ele>3464.8</ele></trkpt>
      <trkpt lat="38.384890" lon="-112.398510"><ele>3470.2</ele></trkpt>
      <trkpt lat="38.384937" lon="-112.398281"><ele>3472.0</ele></trkpt>
      <trkpt lat="38.384672" lon="-112.397075"><ele>3470.5</ele></trkpt>
      <trkpt lat="38.384662" lon="-112.396617"><ele>3472.5</ele></trkpt>
      <trkpt lat="38.384735" lon="-112.396626"><ele>3474.8</ele></trkpt>
      <trkpt lat="38.385776" lon="-112.397861"><ele>3495.5</ele></trkpt>
      <trkpt lat="38.385861" lon="-112.397999"><ele>3496.5</ele></trkpt>
      <trkpt lat="38.385981" lon="-112.398076"><ele>3495.0</ele></trkpt>
      <trkpt lat="38.386134" lon="-112.398036"><ele>3493.0</ele></trkpt>
      <trkpt lat="38.386443" lon="-112.397833"><ele>3487.2</ele></trkpt>
      <trkpt lat="38.387049" lon="-112.397926"><ele>3485.2</ele></trkpt>
      <trkpt lat="38.387229" lon="-112.397875"><ele>3484.2</ele></trkpt>
      <trkpt lat="38.387576" lon="-112.397696"><ele>3478.2</ele></trkpt>
      <trkpt lat="38.387786" lon="-112.397684"><ele>3475.2</ele></trkpt>
      <trkpt lat="38.388153" lon="-112.397997"><ele>3476.8</ele></trkpt>
      <trkpt lat="38.388570" lon="-112.398692"><ele>3478.8</ele></trkpt>
      <trkpt lat="38.388761" lon="-112.399270"><ele>3477.2</ele></trkpt>
      <trkpt lat="38.388739" lon="-112.399440"><ele>3473.2</ele></trkpt>
      <trkpt lat="38.388634" lon="-112.399505"><ele>3472.0</ele></trkpt>
      <trkpt lat="38.388484" lon="-112.399562"><ele>3471.5</ele></trkpt>
      <trkpt lat="38.388424" lon="-112.399692"><ele>3469.0</ele></trkpt>
      <trkpt lat="38.388472" lon="-112.399823"><ele>3465.8</ele></trkpt>
      <trkpt lat="38.388934" lon="-112.400046"><ele>3456.5</ele></trkpt>
      <trkpt lat="38.389523" lon="-112.399932"><ele>3449.5</ele></trkpt>
      <trkpt lat="38.389874" lon="-112.399798"><ele>3443.0</ele></trkpt>
      <trkpt lat="38.390068" lon="-112.399640"><ele>3438.5</ele></trkpt>
      <trkpt lat="38.390396" lon="-112.399221"><ele>3424.0</ele></trkpt>
      <trkpt lat="38.390505" lon="-112.399192"><ele>3418.0</ele></trkpt>
      <trkpt lat="38.390581" lon="-112.399262"><ele>3414.8</ele></trkpt>
      <trkpt lat="38.390683" lon="-112.399623"><ele>3416.2</ele></trkpt>
      <trkpt lat="38.390846" lon="-112.399749"><ele>3414.0</ele></trkpt>
      <trkpt lat="38.392321" lon="-112.400034"><ele>3424.2</ele></trkpt>
      <trkpt lat="38.392640" lon="-112.400186"><ele>3425.5</ele></trkpt>
      <trkpt lat="38.393089" lon="-112.400298"><ele>3426.0</ele></trkpt>
      <trkpt lat="38.393634" lon="-112.400668"><ele>3426.5</ele></trkpt>
      <trkpt lat="38.393742" lon="-112.400823"><ele>3426.8</ele></trkpt>
      <trkpt lat="38.393780" lon="-112.401014"><ele>3427.8</ele></trkpt>
      <trkpt lat="38.393783" lon="-112.401201"><ele>3429.0</ele></trkpt>
      <trkpt lat="38.395584" lon="-112.403404"><ele>3408.8</ele></trkpt>
      <trkpt lat="38.395698" lon="-112.403465"><ele>3405.8</ele></trkpt>
      <trkpt lat="38.395982" lon="-112.403339"><ele>3401.8</ele></trkpt>
      <trkpt lat="38.396546" lon="-112.403257"><ele>3396.5</ele></trkpt>
      <trkpt lat="38.397329" lon="-112.402826"><ele>3391.2</ele></trkpt>
      <trkpt lat="38.399483" lon="-112.401061"><ele>3369.5</ele></trkpt>
      <trkpt lat="38.399764" lon="-112.400671"><ele>3363.2</ele></trkpt>
      <trkpt lat="38.400541" lon="-112.399874"><ele>3355.5</ele></trkpt>
      <trkpt lat="38.401006" lon="-112.399573"><ele>3354.8</ele></trkpt>
      <trkpt lat="38.402013" lon="-112.398788"><ele>3344.2</ele></trkpt>
      <trkpt lat="38.402702" lon="-112.398556"><ele>3345.2</ele></trkpt>
      <trkpt lat="38.403112" lon="-112.398520"><ele>3347.8</ele></trkpt>
      <trkpt lat="38.403288" lon="-112.398612"><ele>3349.5</ele></trkpt>
      <trkpt lat="38.403590" lon="-112.398927"><ele>3349.5</ele></trkpt>
      <trkpt lat="38.403989" lon="-112.399079"><ele>3344.0</ele></trkpt>
      <trkpt lat="38.404175" lon="-112.399184"><ele>3339.8</ele></trkpt>
      <trkpt lat="38.404311" lon="-112.399471"><ele>3338.2</ele></trkpt>
      <trkpt lat="38.404375" lon="-112.399761"><ele>3334.5</ele></trkpt>
      <trkpt lat="38.404389" lon="-112.399903"><ele>3332.2</ele></trkpt>
      <trkpt lat="38.404322" lon="-112.400039"><ele>3330.2</ele></trkpt>
      <trkpt lat="38.404356" lon="-112.400233"><ele>3328.8</ele></trkpt>
      <trkpt lat="38.404424" lon="-112.400872"><ele>3322.2</ele></trkpt>
      <trkpt lat="38.404732" lon="-112.401823"><ele>3299.2</ele></trkpt>
      <trkpt lat="38.404805" lon="-112.402264"><ele>3286.5</ele></trkpt>
      <trkpt lat="38.404753" lon="-112.403520"><ele>3268.5</ele></trkpt>
      <trkpt lat="38.404744" lon="-112.404209"><ele>3256.8</ele></trkpt>
      <trkpt lat="38.404665" lon="-112.404482"><ele>3253.0</ele></trkpt>
      <trkpt lat="38.404563" lon="-112.404697"><ele>3250.2</ele></trkpt>
      <trkpt lat="38.404391" lon="-112.404818"><ele>3250.8</ele></trkpt>
      <trkpt lat="38.404039" lon="-112.404884"><ele>3256.8</ele></trkpt>
      <trkpt lat="38.403875" lon="-112.404949"><ele>3259.2</ele></trkpt>
      <trkpt lat="38.403739" lon="-112.405180"><ele>3259.0</ele></trkpt>
      <trkpt lat="38.403699" lon="-112.405411"><ele>3257.2</ele></trkpt>
      <trkpt lat="38.403728" lon="-112.405596"><ele>3253.5</ele></trkpt>
      <trkpt lat="38.403888" lon="-112.406142"><ele>3242.2</ele></trkpt>
      <trkpt lat="38.403904" lon="-112.406738"><ele>3242.5</ele></trkpt>
      <trkpt lat="38.404070" lon="-112.407193"><ele>3241.8</ele></trkpt>
      <trkpt lat="38.404173" lon="-112.407291"><ele>3238.5</ele></trkpt>
      <trkpt lat="38.404762" lon="-112.407557"><ele>3223.5</ele></trkpt>
      <trkpt lat="38.405004" lon="-112.407763"><ele>3218.5</ele></trkpt>
      <trkpt lat="38.405071" lon="-112.408043"><ele>3219.5</ele></trkpt>
      <trkpt lat="38.405104" lon="-112.408342"><ele>3222.2</ele></trkpt>
      <trkpt lat="38.405060" lon="-112.408839"><ele>3221.5</ele></trkpt>
      <trkpt lat="38.405007" lon="-112.409610"><ele>3225.5</ele></trkpt>
      <trkpt lat="38.405035" lon="-112.409698"><ele>3225.2</ele></trkpt>
      <trkpt lat="38.405110" lon="-112.409759"><ele>3223.5</ele></trkpt>
      <trkpt lat="38.405510" lon="-112.409906"><ele>3213.2</ele></trkpt>
      <trkpt lat="38.406244" lon="-112.410345"><ele>3193.8</ele></trkpt>
      <trkpt lat="38.406442" lon="-112.410712"><ele>3191.8</ele></trkpt>
      <trkpt lat="38.406537" lon="-112.411022"><ele>3187.8</ele></trkpt>
      <trkpt lat="38.406499" lon="-112.411457"><ele>3185.2</ele></trkpt>
      <trkpt lat="38.406376" lon="-112.411669"><ele>3188.8</ele></trkpt>
      <trkpt lat="38.406200" lon="-112.412152"><ele>3179.2</ele></trkpt>
      <trkpt lat="38.406019" lon="-112.412414"><ele>3178.8</ele></trkpt>
      <trkpt lat="38.405384" lon="-112.413516"><ele>3160.0</ele></trkpt>
      <trkpt lat="38.405185" lon="-112.413775"><ele>3153.0</ele></trkpt>
      <trkpt lat="38.405086" lon="-112.413817"><ele>3153.8</ele></trkpt>
      <trkpt lat="38.404810" lon="-112.413780"><ele>3156.2</ele></trkpt>
      <trkpt lat="38.404680" lon="-112.413799"><ele>3154.0</ele></trkpt>
      <trkpt lat="38.404510" lon="-112.413892"><ele>3147.5</ele></trkpt>
      <trkpt lat="38.403860" lon="-112.413911"><ele>3134.2</ele></trkpt>
      <trkpt lat="38.403403" lon="-112.413712"><ele>3129.5</ele></trkpt>
      <trkpt lat="38.403309" lon="-112.413705"><ele>3127.0</ele></trkpt>
      <trkpt lat="38.403258" lon="-112.413764"><ele>3123.0</ele></trkpt>
      <trkpt lat="38.403242" lon="-112.413892"><ele>3117.2</ele></trkpt>
      <trkpt lat="38.403338" lon="-112.414060"><ele>3112.5</ele></trkpt>
      <trkpt lat="38.403445" lon="-112.414135"><ele>3112.2</ele></trkpt>
      <trkpt lat="38.404010" lon="-112.414350"><ele>3113.8</ele></trkpt>
      <trkpt lat="38.404321" lon="-112.414459"><ele>3111.0</ele></trkpt>
      <trkpt lat="38.404757" lon="-112.414413"><ele>3118.2</ele></trkpt>
      <trkpt lat="38.405474" lon="-112.414394"><ele>3106.5</ele></trkpt>
      <trkpt lat="38.405633" lon="-112.414387"><ele>3101.8</ele></trkpt>
      <trkpt lat="38.406027" lon="-112.414205"><ele>3101.2</ele></trkpt>
      <trkpt lat="38.406475" lon="-112.413890"><ele>3095.0</ele></trkpt>
      <trkpt lat="38.406815" lon="-112.413444"><ele>3093.5</ele></trkpt>
      <trkpt lat="38.407304" lon="-112.413028"><ele>3085.0</ele></trkpt>
      <trkpt lat="38.407898" lon="-112.412344"><ele>3078.5</ele></trkpt>
      <trkpt lat="38.408253" lon="-112.412068"><ele>3064.8</ele></trkpt>
      <trkpt lat="38.408400" lon="-112.412026"><ele>3061.2</ele></trkpt>
      <trkpt lat="38.408488" lon="-112.412089"><ele>3060.5</ele></trkpt>
      <trkpt lat="38.408510" lon="-112.412183"><ele>3059.2</ele></trkpt>
      <trkpt lat="38.408475" lon="-112.412258"><ele>3058.0</ele></trkpt>
      <trkpt lat="38.408266" lon="-112.412353"><ele>3059.0</ele></trkpt>
      <trkpt lat="38.408153" lon="-112.412447"><ele>3063.0</ele></trkpt>
      <trkpt lat="38.408076" lon="-112.412697"><ele>3060.5</ele></trkpt>
      <trkpt lat="38.407997" lon="-112.413026"><ele>3055.0</ele></trkpt>
      <trkpt lat="38.407915" lon="-112.413546"><ele>3044.5</ele></trkpt>
      <trkpt lat="38.407849" lon="-112.413787"><ele>3040.8</ele></trkpt>
      <trkpt lat="38.407748" lon="-112.413941"><ele>3038.5</ele></trkpt>
      <trkpt lat="38.407701" lon="-112.414065"><ele>3035.8</ele></trkpt>
      <trkpt lat="38.407633" lon="-112.414343"><ele>3030.5</ele></trkpt>
      <trkpt lat="38.407565" lon="-112.414427"><ele>3028.8</ele></trkpt>
      <trkpt lat="38.407218" lon="-112.414681"><ele>3030.0</ele></trkpt>
      <trkpt lat="38.407152" lon="-112.414761"><ele>3028.5</ele></trkpt>
      <trkpt lat="38.407075" lon="-112.414910"><ele>3023.8</ele></trkpt>
      <trkpt lat="38.406998" lon="-112.415069"><ele>3019.5</ele></trkpt>
      <trkpt lat="38.406821" lon="-112.415256"><ele>3016.2</ele></trkpt>
      <trkpt lat="38.406559" lon="-112.415709"><ele>3005.0</ele></trkpt>
      <trkpt lat="38.406402" lon="-112.415835"><ele>3003.8</ele></trkpt>
      <trkpt lat="38.405725" lon="-112.416278"><ele>3003.5</ele></trkpt>
      <trkpt lat="38.405179" lon="-112.416535"><ele>2994.2</ele></trkpt>
      <trkpt lat="38.404832" lon="-112.416575"><ele>2991.0</ele></trkpt>
      <trkpt lat="38.404634" lon="-112.416715"><ele>2987.8</ele></trkpt>
      <trkpt lat="38.404481" lon="-112.416935"><ele>2991.2</ele></trkpt>
      <trkpt lat="38.404381" lon="-112.417057"><ele>2992.5</ele></trkpt>
      <trkpt lat="38.404120" lon="-112.417128"><ele>2991.5</ele></trkpt>
      <trkpt lat="38.403630" lon="-112.417254"><ele>2987.2</ele></trkpt>
      <trkpt lat="38.403217" lon="-112.417356"><ele>2983.5</ele></trkpt>
      <trkpt lat="38.402389" lon="-112.417547"><ele>2976.2</ele></trkpt>
      <trkpt lat="38.401416" lon="-112.417872"><ele>2967.8</ele></trkpt>
      <trkpt lat="38.400612" lon="-112.418595"><ele>2965.2</ele></trkpt>
      <trkpt lat="38.400501" lon="-112.418977"><ele>2969.0</ele></trkpt>
      <trkpt lat="38.400213" lon="-112.419331"><ele>2970.2</ele></trkpt>
      <trkpt lat="38.398898" lon="-112.419713"><ele>2964.0</ele></trkpt>
      <trkpt lat="38.397653" lon="-112.420173"><ele>2962.5</ele></trkpt>
      <trkpt lat="38.396565" lon="-112.420113"><ele>2962.5</ele></trkpt>
      <trkpt lat="38.396374" lon="-112.420177"><ele>2963.8</ele></trkpt>
      <trkpt lat="38.396396" lon="-112.420283"><ele>2964.0</ele></trkpt>
      <trkpt lat="38.396565" lon="-112.420478"><ele>2964.8</ele></trkpt>
      <trkpt lat="38.396554" lon="-112.420587"><ele>2965.5</ele></trkpt>
      <trkpt lat="38.396471" lon="-112.420665"><ele>2965.8</ele></trkpt>
      <trkpt lat="38.396355" lon="-112.420612"><ele>2965.2</ele></trkpt>
      <trkpt lat="38.396013" lon="-112.420754"><ele>2964.0</ele></trkpt>
      <trkpt lat="38.394729" lon="-112.421886"><ele>2957.0</ele></trkpt>
      <trkpt lat="38.394574" lon="-112.422031"><ele>2955.0</ele></trkpt>
      <trkpt lat="38.394230" lon="-112.421911"><ele>2948.5</ele></trkpt>
      <trkpt lat="38.394147" lon="-112.421936"><ele>2947.2</ele></trkpt>
      <trkpt lat="38.394041" lon="-112.422127"><ele>2947.0</ele></trkpt>
      <trkpt lat="38.393717" lon="-112.422159"><ele>2943.0</ele></trkpt>
      <trkpt lat="38.393653" lon="-112.422233"><ele>2942.2</ele></trkpt>
      <trkpt lat="38.393706" lon="-112.422413"><ele>2943.5</ele></trkpt>
      <trkpt lat="38.393517" lon="-112.422891"><ele>2941.8</ele></trkpt>
      <trkpt lat="38.393269" lon="-112.423186"><ele>2935.8</ele></trkpt>
      <trkpt lat="38.393210" lon="-112.423577"><ele>2934.8</ele></trkpt>
      <trkpt lat="38.393062" lon="-112.423899"><ele>2931.0</ele></trkpt>
      <trkpt lat="38.392718" lon="-112.424092"><ele>2920.8</ele></trkpt>
      <trkpt lat="38.392285" lon="-112.424098"><ele>2911.8</ele></trkpt>
      <trkpt lat="38.392087" lon="-112.423996"><ele>2910.0</ele></trkpt>
      <trkpt lat="38.391864" lon="-112.424098"><ele>2906.0</ele></trkpt>
      <trkpt lat="38.391726" lon="-112.425101"><ele>2895.5</ele></trkpt>
      <trkpt lat="38.391847" lon="-112.425471"><ele>2895.8</ele></trkpt>
      <trkpt lat="38.391776" lon="-112.425648"><ele>2892.0</ele></trkpt>
      <trkpt lat="38.391847" lon="-112.425471"><ele>2895.8</ele></trkpt>
      <trkpt lat="38.391726" lon="-112.425101"><ele>2895.5</ele></trkpt>
      <trkpt lat="38.391864" lon="-112.424098"><ele>2906.0</ele></trkpt>
      <trkpt lat="38.392087" lon="-112.423996"><ele>2910.0</ele></trkpt>
      <trkpt lat="38.392285" lon="-112.424098"><ele>2911.8</ele></trkpt>
      <trkpt lat="38.392718" lon="-112.424092"><ele>2920.8</ele></trkpt>
      <trkpt lat="38.393062" lon="-112.423899"><ele>2931.0</ele></trkpt>
      <trkpt lat="38.393210" lon="-112.423577"><ele>2934.8</ele></trkpt>
      <trkpt lat="38.393269" lon="-112.423186"><ele>2935.8</ele></trkpt>
      <trkpt lat="38.393517" lon="-112.422891"><ele>2941.8</ele></trkpt>
      <trkpt lat="38.393706" lon="-112.422413"><ele>2943.5</ele></trkpt>
      <trkpt lat="38.393653" lon="-112.422233"><ele>2942.2</ele></trkpt>
      <trkpt lat="38.393717" lon="-112.422159"><ele>2943.0</ele></trkpt>
      <trkpt lat="38.394041" lon="-112.422127"><ele>2947.0</ele></trkpt>
      <trkpt lat="38.394147" lon="-112.421936"><ele>2947.2</ele></trkpt>
      <trkpt lat="38.394230" lon="-112.421911"><ele>2948.5</ele></trkpt>
      <trkpt lat="38.394574" lon="-112.422031"><ele>2955.0</ele></trkpt>
      <trkpt lat="38.394729" lon="-112.421886"><ele>2957.0</ele></trkpt>
      <trkpt lat="38.396013" lon="-112.420754"><ele>2964.0</ele></trkpt>
      <trkpt lat="38.396355" lon="-112.420612"><ele>2965.2</ele></trkpt>
      <trkpt lat="38.396471" lon="-112.420665"><ele>2965.8</ele></trkpt>
      <trkpt lat="38.396554" lon="-112.420587"><ele>2965.5</ele></trkpt>
      <trkpt lat="38.396565" lon="-112.420478"><ele>2964.8</ele></trkpt>
      <trkpt lat="38.396396" lon="-112.420283"><ele>2964.0</ele></trkpt>
      <trkpt lat="38.396374" lon="-112.420177"><ele>2963.8</ele></trkpt>
      <trkpt lat="38.396565" lon="-112.420113"><ele>2962.5</ele></trkpt>
      <trkpt lat="38.397653" lon="-112.420173"><ele>2962.5</ele></trkpt>
      <trkpt lat="38.398898" lon="-112.419713"><ele>2964.0</ele></trkpt>
      <trkpt lat="38.400213" lon="-112.419331"><ele>2970.2</ele></trkpt>
      <trkpt lat="38.400501" lon="-112.418977"><ele>2969.0</ele></trkpt>
      <trkpt lat="38.400612" lon="-112.418595"><ele>2965.2</ele></trkpt>
      <trkpt lat="38.400568" lon="-112.418567"><ele>2964.2</ele></trkpt>
      <trkpt lat="38.400578" lon="-112.418381"><ele>2961.8</ele></trkpt>
      <trkpt lat="38.400567" lon="-112.418150"><ele>2962.8</ele></trkpt>
      <trkpt lat="38.400205" lon="-112.418015"><ele>2963.8</ele></trkpt>
      <trkpt lat="38.399671" lon="-112.417842"><ele>2968.2</ele></trkpt>
      <trkpt lat="38.399320" lon="-112.417557"><ele>2977.0</ele></trkpt>
      <trkpt lat="38.398679" lon="-112.417534"><ele>2987.5</ele></trkpt>
      <trkpt lat="38.397848" lon="-112.417632"><ele>2986.2</ele></trkpt>
      <trkpt lat="38.396999" lon="-112.417566"><ele>2983.2</ele></trkpt>
      <trkpt lat="38.396699" lon="-112.417482"><ele>2984.0</ele></trkpt>
      <trkpt lat="38.396524" lon="-112.417623"><ele>2982.0</ele></trkpt>
      <trkpt lat="38.396399" lon="-112.417674"><ele>2982.2</ele></trkpt>
      <trkpt lat="38.395876" lon="-112.417244"><ele>3000.2</ele></trkpt>
      <trkpt lat="38.395656" lon="-112.417230"><ele>3005.2</ele></trkpt>
      <trkpt lat="38.394975" lon="-112.417791"><ele>3003.0</ele></trkpt>
      <trkpt lat="38.394485" lon="-112.418005"><ele>3006.2</ele></trkpt>
      <trkpt lat="38.394258" lon="-112.417931"><ele>3012.2</ele></trkpt>
      <trkpt lat="38.394232" lon="-112.417819"><ele>3015.8</ele></trkpt>
      <trkpt lat="38.394386" lon="-112.417637"><ele>3018.0</ele></trkpt>
      <trkpt lat="38.394360" lon="-112.417566"><ele>3020.5</ele></trkpt>
      <trkpt lat="38.393548" lon="-112.417870"><ele>3028.5</ele></trkpt>
      <trkpt lat="38.392981" lon="-112.417936"><ele>3035.0</ele></trkpt>
      <trkpt lat="38.392912" lon="-112.417993"><ele>3034.0</ele></trkpt>
      <trkpt lat="38.392844" lon="-112.417928"><ele>3036.5</ele></trkpt>
      <trkpt lat="38.392907" lon="-112.417807"><ele>3039.5</ele></trkpt>
      <trkpt lat="38.393029" lon="-112.417480"><ele>3047.2</ele></trkpt>
      <trkpt lat="38.392996" lon="-112.417314"><ele>3052.2</ele></trkpt>
      <trkpt lat="38.392922" lon="-112.417392"><ele>3051.2</ele></trkpt>
      <trkpt lat="38.392781" lon="-112.417526"><ele>3049.8</ele></trkpt>
      <trkpt lat="38.392470" lon="-112.417467"><ele>3056.5</ele></trkpt>
      <trkpt lat="38.392386" lon="-112.417292"><ele>3063.0</ele></trkpt>
      <trkpt lat="38.392346" lon="-112.417086"><ele>3069.5</ele></trkpt>
      <trkpt lat="38.392428" lon="-112.416853"><ele>3074.2</ele></trkpt>
      <trkpt lat="38.392430" lon="-112.416761"><ele>3076.8</ele></trkpt>
      <trkpt lat="38.392327" lon="-112.416702"><ele>3080.5</ele></trkpt>
      <trkpt lat="38.392018" lon="-112.416700"><ele>3086.8</ele></trkpt>
      <trkpt lat="38.391541" lon="-112.417032"><ele>3090.0</ele></trkpt>
      <trkpt lat="38.391030" lon="-112.417550"><ele>3094.8</ele></trkpt>
      <trkpt lat="38.390891" lon="-112.417606"><ele>3098.0</ele></trkpt>
      <trkpt lat="38.390620" lon="-112.417719"><ele>3093.8</ele></trkpt>
      <trkpt lat="38.390473" lon="-112.417837"><ele>3088.2</ele></trkpt>
      <trkpt lat="38.390286" lon="-112.417888"><ele>3084.2</ele></trkpt>
      <trkpt lat="38.390101" lon="-112.417826"><ele>3084.0</ele></trkpt>
      <trkpt lat="38.390069" lon="-112.417558"><ele>3092.0</ele></trkpt>
      <trkpt lat="38.390048" lon="-112.417022"><ele>3103.0</ele></trkpt>
      <trkpt lat="38.389725" lon="-112.416118"><ele>3115.8</ele></trkpt>
      <trkpt lat="38.389491" lon="-112.415439"><ele>3125.5</ele></trkpt>
      <trkpt lat="38.389157" lon="-112.414919"><ele>3125.0</ele></trkpt>
      <trkpt lat="38.388947" lon="-112.414200"><ele>3143.5</ele></trkpt>
      <trkpt lat="38.388936" lon="-112.413830"><ele>3150.5</ele></trkpt>
      <trkpt lat="38.388822" lon="-112.413604"><ele>3155.8</ele></trkpt>
      <trkpt lat="38.388741" lon="-112.413529"><ele>3158.0</ele></trkpt>
      <trkpt lat="38.388537" lon="-112.413642"><ele>3158.0</ele></trkpt>
      <trkpt lat="38.388322" lon="-112.413881"><ele>3156.2</ele></trkpt>
      <trkpt lat="38.388234" lon="-112.414232"><ele>3152.0</ele></trkpt>
      <trkpt lat="38.388047" lon="-112.415093"><ele>3140.8</ele></trkpt>
      <trkpt lat="38.387847" lon="-112.415935"><ele>3135.0</ele></trkpt>
      <trkpt lat="38.387692" lon="-112.416269"><ele>3131.0</ele></trkpt>
      <trkpt lat="38.387475" lon="-112.416482"><ele>3132.5</ele></trkpt>
      <trkpt lat="38.387335" lon="-112.416626"><ele>3136.8</ele></trkpt>
      <trkpt lat="38.387318" lon="-112.416808"><ele>3134.2</ele></trkpt>
      <trkpt lat="38.387366" lon="-112.417224"><ele>3124.2</ele></trkpt>
      <trkpt lat="38.387354" lon="-112.417831"><ele>3115.2</ele></trkpt>
      <trkpt lat="38.387192" lon="-112.418176"><ele>3119.0</ele></trkpt>
      <trkpt lat="38.387197" lon="-112.418484"><ele>3114.5</ele></trkpt>
      <trkpt lat="38.387071" lon="-112.418691"><ele>3116.8</ele></trkpt>
      <trkpt lat="38.386987" lon="-112.418863"><ele>3116.2</ele></trkpt>
      <trkpt lat="38.386857" lon="-112.419060"><ele>3115.5</ele></trkpt>
      <trkpt lat="38.386163" lon="-112.419338"><ele>3131.0</ele></trkpt>
      <trkpt lat="38.386009" lon="-112.419590"><ele>3130.2</ele></trkpt>
      <trkpt lat="38.385881" lon="-112.419698"><ele>3130.8</ele></trkpt>
      <trkpt lat="38.385608" lon="-112.419664"><ele>3133.8</ele></trkpt>
      <trkpt lat="38.384772" lon="-112.419547"><ele>3147.8</ele></trkpt>
      <trkpt lat="38.384637" lon="-112.419587"><ele>3152.0</ele></trkpt>
      <trkpt lat="38.384205" lon="-112.419957"><ele>3161.2</ele></trkpt>
      <trkpt lat="38.384181" lon="-112.420194"><ele>3162.8</ele></trkpt>
      <trkpt lat="38.384210" lon="-112.420373"><ele>3162.8</ele></trkpt>
      <trkpt lat="38.384190" lon="-112.420629"><ele>3165.2</ele></trkpt>
      <trkpt lat="38.384268" lon="-112.420832"><ele>3163.2</ele></trkpt>
      <trkpt lat="38.384292" lon="-112.420955"><ele>3164.5</ele></trkpt>
      <trkpt lat="38.384210" lon="-112.420992"><ele>3169.2</ele></trkpt>
      <trkpt lat="38.384033" lon="-112.420844"><ele>3173.5</ele></trkpt>
      <trkpt lat="38.383826" lon="-112.420422"><ele>3179.8</ele></trkpt>
      <trkpt lat="38.383729" lon="-112.420179"><ele>3183.0</ele></trkpt>
      <trkpt lat="38.383756" lon="-112.419929"><ele>3182.0</ele></trkpt>
      <trkpt lat="38.383966" lon="-112.419603"><ele>3178.0</ele></trkpt>
      <trkpt lat="38.383958" lon="-112.419446"><ele>3181.0</ele></trkpt>
      <trkpt lat="38.383772" lon="-112.419516"><ele>3187.5</ele></trkpt>
      <trkpt lat="38.383415" lon="-112.419683"><ele>3200.5</ele></trkpt>
      <trkpt lat="38.383362" lon="-112.419489"><ele>3204.5</ele></trkpt>
      <trkpt lat="38.383355" lon="-112.419359"><ele>3206.2</ele></trkpt>
      <trkpt lat="38.383210" lon="-112.419215"><ele>3211.5</ele></trkpt>
      <trkpt lat="38.383142" lon="-112.419276"><ele>3212.5</ele></trkpt>
      <trkpt lat="38.383029" lon="-112.419535"><ele>3212.8</ele></trkpt>
      <trkpt lat="38.382874" lon="-112.419621"><ele>3215.8</ele></trkpt>
      <trkpt lat="38.382683" lon="-112.419637"><ele>3220.2</ele></trkpt>
      <trkpt lat="38.382538" lon="-112.419902"><ele>3221.0</ele></trkpt>
      <trkpt lat="38.382355" lon="-112.420099"><ele>3226.0</ele></trkpt>
      <trkpt lat="38.382335" lon="-112.420213"><ele>3227.2</ele></trkpt>
      <trkpt lat="38.382698" lon="-112.420456"><ele>3218.2</ele></trkpt>
      <trkpt lat="38.382879" lon="-112.420752"><ele>3214.8</ele></trkpt>
      <trkpt lat="38.382792" lon="-112.421322"><ele>3221.8</ele></trkpt>
      <trkpt lat="38.382785" lon="-112.421602"><ele>3224.2</ele></trkpt>
      <trkpt lat="38.382927" lon="-112.422215"><ele>3230.5</ele></trkpt>
      <trkpt lat="38.383029" lon="-112.422594"><ele>3232.5</ele></trkpt>
      <trkpt lat="38.383519" lon="-112.423248"><ele>3220.5</ele></trkpt>
      <trkpt lat="38.383613" lon="-112.423439"><ele>3217.0</ele></trkpt>
      <trkpt lat="38.383579" lon="-112.423556"><ele>3215.5</ele></trkpt>
      <trkpt lat="38.383193" lon="-112.423500"><ele>3227.5</ele></trkpt>
      <trkpt lat="38.382695" lon="-112.423303"><ele>3251.0</ele></trkpt>
      <trkpt lat="38.382422" lon="-112.422662"><ele>3259.2</ele></trkpt>
      <trkpt lat="38.382130" lon="-112.422095"><ele>3261.5</ele></trkpt>
      <trkpt lat="38.381142" lon="-112.421282"><ele>3276.5</ele></trkpt>
      <trkpt lat="38.380978" lon="-112.420980"><ele>3275.5</ele></trkpt>
      <trkpt lat="38.380891" lon="-112.420438"><ele>3272.8</ele></trkpt>
      <trkpt lat="38.380826" lon="-112.420142"><ele>3272.2</ele></trkpt>
      <trkpt lat="38.380384" lon="-112.419630"><ele>3278.0</ele></trkpt>
      <trkpt lat="38.380278" lon="-112.419430"><ele>3280.0</ele></trkpt>
      <trkpt lat="38.380200" lon="-112.419181"><ele>3282.0</ele></trkpt>
      <trkpt lat="38.380039" lon="-112.419079"><ele>3284.8</ele></trkpt>
      <trkpt lat="38.379956" lon="-112.418956"><ele>3286.8</ele></trkpt>
      <trkpt lat="38.379848" lon="-112.418586"><ele>3290.5</ele></trkpt>
      <trkpt lat="38.379732" lon="-112.418561"><ele>3292.5</ele></trkpt>
      <trkpt lat="38.379645" lon="-112.418648"><ele>3293.8</ele></trkpt>
      <trkpt lat="38.379285" lon="-112.418694"><ele>3300.0</ele></trkpt>
      <trkpt lat="38.378898" lon="-112.418774"><ele>3308.8</ele></trkpt>
      <trkpt lat="38.378756" lon="-112.419134"><ele>3311.0</ele></trkpt>
      <trkpt lat="38.378725" lon="-112.419418"><ele>3311.2</ele></trkpt>
      <trkpt lat="38.378754" lon="-112.419649"><ele>3310.0</ele></trkpt>
      <trkpt lat="38.378643" lon="-112.419714"><ele>3313.5</ele></trkpt>
      <trkpt lat="38.378560" lon="-112.419553"><ele>3316.2</ele></trkpt>
      <trkpt lat="38.378512" lon="-112.418580"><ele>3320.0</ele></trkpt>
      <trkpt lat="38.378418" lon="-112.418062"><ele>3325.2</ele></trkpt>
      <trkpt lat="38.378362" lon="-112.417680"><ele>3329.0</ele></trkpt>
      <trkpt lat="38.378280" lon="-112.417421"><ele>3333.8</ele></trkpt>
      <trkpt lat="38.378304" lon="-112.417159"><ele>3333.2</ele></trkpt>
      <trkpt lat="38.378135" lon="-112.416919"><ele>3342.0</ele></trkpt>
      <trkpt lat="38.377928" lon="-112.416294"><ele>3353.0</ele></trkpt>
      <trkpt lat="38.377940" lon="-112.415767"><ele>3354.5</ele></trkpt>
      <trkpt lat="38.377959" lon="-112.415249"><ele>3359.0</ele></trkpt>
      <trkpt lat="38.378181" lon="-112.414713"><ele>3358.2</ele></trkpt>
      <trkpt lat="38.378423" lon="-112.414319"><ele>3359.5</ele></trkpt>
      <trkpt lat="38.378604" lon="-112.413847"><ele>3365.8</ele></trkpt>
      <trkpt lat="38.378621" lon="-112.413404"><ele>3375.0</ele></trkpt>
      <trkpt lat="38.378618" lon="-112.413213"><ele>3379.2</ele></trkpt>
      <trkpt lat="38.378872" lon="-112.412868"><ele>3378.2</ele></trkpt>
      <trkpt lat="38.379391" lon="-112.412113"><ele>3379.5</ele></trkpt>
      <trkpt lat="38.379435" lon="-112.411993"><ele>3381.0</ele></trkpt>
      <trkpt lat="38.379406" lon="-112.411802"><ele>3386.0</ele></trkpt>
      <trkpt lat="38.379490" lon="-112.411610"><ele>3387.8</ele></trkpt>
      <trkpt lat="38.379855" lon="-112.411139"><ele>3388.0</ele></trkpt>
      <trkpt lat="38.380017" lon="-112.410489"><ele>3396.8</ele></trkpt>
      <trkpt lat="38.380140" lon="-112.410119"><ele>3401.2</ele></trkpt>
      <trkpt lat="38.380369" lon="-112.409518"><ele>3401.5</ele></trkpt>
      <trkpt lat="38.380401" lon="-112.409315"><ele>3401.8</ele></trkpt>
      <trkpt lat="38.380340" lon="-112.409149"><ele>3401.0</ele></trkpt>
      <trkpt lat="38.380109" lon="-112.409047"><ele>3397.2</ele></trkpt>
      <trkpt lat="38.379780" lon="-112.408831"><ele>3392.2</ele></trkpt>
      <trkpt lat="38.379353" lon="-112.408908"><ele>3393.5</ele></trkpt>
      <trkpt lat="38.378959" lon="-112.408985"><ele>3394.2</ele></trkpt>
      <trkpt lat="38.378575" lon="-112.408868"><ele>3388.8</ele></trkpt>
      <trkpt lat="38.378274" lon="-112.408947"><ele>3388.0</ele></trkpt>
      <trkpt lat="38.378766" lon="-112.408663"><ele>3384.5</ele></trkpt>
      <trkpt lat="38.378943" lon="-112.408506"><ele>3381.5</ele></trkpt>
      <trkpt lat="38.379182" lon="-112.408118"><ele>3376.2</ele></trkpt>
      <trkpt lat="38.379321" lon="-112.407795"><ele>3372.8</ele></trkpt>
      <trkpt lat="38.379520" lon="-112.407317"><ele>3365.5</ele></trkpt>
      <trkpt lat="38.379649" lon="-112.407181"><ele>3363.8</ele></trkpt>
      <trkpt lat="38.379767" lon="-112.407112"><ele>3363.8</ele></trkpt>
      <trkpt lat="38.379845" lon="-112.406996"><ele>3362.8</ele></trkpt>
      <trkpt lat="38.379992" lon="-112.406658"><ele>3359.5</ele></trkpt>
      <trkpt lat="38.380157" lon="-112.406325"><ele>3355.8</ele></trkpt>
      <trkpt lat="38.380213" lon="-112.406268"><ele>3355.8</ele></trkpt>
      <trkpt lat="38.380122" lon="-112.406189"><ele>3352.2</ele></trkpt>
      <trkpt lat="38.380184" lon="-112.406107"><ele>3351.8</ele></trkpt>
      <trkpt lat="38.380384" lon="-112.406051"><ele>3355.2</ele></trkpt>
      <trkpt lat="38.380356" lon="-112.405998"><ele>3353.5</ele></trkpt>
      <trkpt lat="38.380208" lon="-112.405883"><ele>3347.8</ele></trkpt>
      <trkpt lat="38.379895" lon="-112.405727"><ele>3341.5</ele></trkpt>
      <trkpt lat="38.379767" lon="-112.405447"><ele>3343.0</ele></trkpt>
      <trkpt lat="38.379745" lon="-112.405224"><ele>3345.5</ele></trkpt>
      <trkpt lat="38.379595" lon="-112.405069"><ele>3347.0</ele></trkpt>
      <trkpt lat="38.379637" lon="-112.404775"><ele>3350.2</ele></trkpt>
      <trkpt lat="38.379562" lon="-112.404088"><ele>3356.0</ele></trkpt>
      <trkpt lat="38.379351" lon="-112.403575"><ele>3355.8</ele></trkpt>
      <trkpt lat="38.379393" lon="-112.403281"><ele>3358.0</ele></trkpt>
      <trkpt lat="38.379562" lon="-112.402941"><ele>3361.0</ele></trkpt>
      <trkpt lat="38.379626" lon="-112.402761"><ele>3361.5</ele></trkpt>
      <trkpt lat="38.379604" lon="-112.402584"><ele>3362.0</ele></trkpt>
      <trkpt lat="38.379548" lon="-112.402446"><ele>3362.2</ele></trkpt>
      <trkpt lat="38.379489" lon="-112.402390"><ele>3362.5</ele></trkpt>
    </trkseg>
    <!-- Sun -->
    <trkseg>
      <trkpt lat="38.379489" lon="-112.402390"><ele>3362.2</ele></trkpt>
      <trkpt lat="38.378965" lon="-112.401926"><ele>3360.0</ele></trkpt>
      <trkpt lat="38.378893" lon="-112.401766"><ele>3359.0</ele></trkpt>
      <trkpt lat="38.378913" lon="-112.401338"><ele>3358.2</ele></trkpt>
      <trkpt lat="38.379282" lon="-112.400466"><ele>3359.8</ele></trkpt>
      <trkpt lat="38.379537" lon="-112.400735"><ele>3361.0</ele></trkpt>
      <trkpt lat="38.379724" lon="-112.400684"><ele>3363.0</ele></trkpt>
      <trkpt lat="38.379904" lon="-112.400395"><ele>3367.5</ele></trkpt>
      <trkpt lat="38.379961" lon="-112.399820"><ele>3372.5</ele></trkpt>
      <trkpt lat="38.380032" lon="-112.399238"><ele>3375.0</ele></trkpt>
      <trkpt lat="38.380086" lon="-112.399068"><ele>3375.8</ele></trkpt>
      <trkpt lat="38.380172" lon="-112.398960"><ele>3376.5</ele></trkpt>
      <trkpt lat="38.380380" lon="-112.398773"><ele>3378.8</ele></trkpt>
      <trkpt lat="38.380546" lon="-112.398534"><ele>3380.8</ele></trkpt>
      <trkpt lat="38.380667" lon="-112.398275"><ele>3382.5</ele></trkpt>
      <trkpt lat="38.380785" lon="-112.398082"><ele>3384.2</ele></trkpt>
      <trkpt lat="38.381249" lon="-112.397665"><ele>3391.0</ele></trkpt>
      <trkpt lat="38.381695" lon="-112.397483"><ele>3397.5</ele></trkpt>
      <trkpt lat="38.381928" lon="-112.397502"><ele>3400.2</ele></trkpt>
      <trkpt lat="38.382164" lon="-112.397605"><ele>3402.5</ele></trkpt>
      <trkpt lat="38.382262" lon="-112.397734"><ele>3402.8</ele></trkpt>
      <trkpt lat="38.382333" lon="-112.398038"><ele>3401.0</ele></trkpt>
      <trkpt lat="38.382386" lon="-112.398167"><ele>3400.2</ele></trkpt>
      <trkpt lat="38.382503" lon="-112.398243"><ele>3400.8</ele></trkpt>
      <trkpt lat="38.382644" lon="-112.398247"><ele>3403.8</ele></trkpt>
      <trkpt lat="38.382840" lon="-112.398127"><ele>3409.0</ele></trkpt>
      <trkpt lat="38.382861" lon="-112.398008"><ele>3410.5</ele></trkpt>
      <trkpt lat="38.382762" lon="-112.397674"><ele>3411.5</ele></trkpt>
      <trkpt lat="38.382699" lon="-112.397569"><ele>3411.2</ele></trkpt>
      <trkpt lat="38.382588" lon="-112.397440"><ele>3410.5</ele></trkpt>
      <trkpt lat="38.382614" lon="-112.397380"><ele>3412.0</ele></trkpt>
      <trkpt lat="38.382961" lon="-112.397398"><ele>3418.5</ele></trkpt>
      <trkpt lat="38.383153" lon="-112.397555"><ele>3420.8</ele></trkpt>
      <trkpt lat="38.383250" lon="-112.397560"><ele>3422.8</ele></trkpt>
      <trkpt lat="38.383316" lon="-112.397481"><ele>3424.8</ele></trkpt>
      <trkpt lat="38.383327" lon="-112.397355"><ele>3426.2</ele></trkpt>
      <trkpt lat="38.383269" lon="-112.397160"><ele>3427.0</ele></trkpt>
      <trkpt lat="38.383197" lon="-112.397037"><ele>3427.0</ele></trkpt>
      <trkpt lat="38.383079" lon="-112.396937"><ele>3426.0</ele></trkpt>
      <trkpt lat="38.383065" lon="-112.396851"><ele>3427.0</ele></trkpt>
      <trkpt lat="38.383090" lon="-112.396819"><ele>3427.8</ele></trkpt>
      <trkpt lat="38.383155" lon="-112.396822"><ele>3428.5</ele></trkpt>
      <trkpt lat="38.383382" lon="-112.397124"><ele>3430.0</ele></trkpt>
      <trkpt lat="38.383589" lon="-112.397202"><ele>3435.2</ele></trkpt>
      <trkpt lat="38.383647" lon="-112.397295"><ele>3436.2</ele></trkpt>
      <trkpt lat="38.383723" lon="-112.397795"><ele>3434.5</ele></trkpt>
      <trkpt lat="38.383936" lon="-112.398002"><ele>3440.0</ele></trkpt>
      <trkpt lat="38.384012" lon="-112.398138"><ele>3441.8</ele></trkpt>
      <trkpt lat="38.384136" lon="-112.398534"><ele>3444.8</ele></trkpt>
      <trkpt lat="38.384209" lon="-112.398570"><ele>3447.2</ele></trkpt>
      <trkpt lat="38.384291" lon="-112.398553"><ele>3450.0</ele></trkpt>
      <trkpt lat="38.384505" lon="-112.398228"><ele>3457.8</ele></trkpt>
      <trkpt lat="38.384534" lon="-112.398112"><ele>3459.5</ele></trkpt>
      <trkpt lat="38.384634" lon="-112.398081"><ele>3463.0</ele></trkpt>
      <trkpt lat="38.384722" lon="-112.398164"><ele>3465.5</ele></trkpt>
      <trkpt lat="38.384762" lon="-112.398307"><ele>3466.0</ele></trkpt>
      <trkpt lat="38.384639" lon="-112.398676"><ele>3462.0</ele></trkpt>
      <trkpt lat="38.384645" lon="-112.398834"><ele>3462.2</ele></trkpt>
      <trkpt lat="38.384718" lon="-112.398857"><ele>3464.8</ele></trkpt>
      <trkpt lat="38.384890" lon="-112.398510"><ele>3470.2</ele></trkpt>
      <trkpt lat="38.384937" lon="-112.398281"><ele>3472.0</ele></trkpt>
      <trkpt lat="38.384672" lon="-112.397075"><ele>3470.5</ele></trkpt>
      <trkpt lat="38.384662" lon="-112.396617"><ele>3472.5</ele></trkpt>
      <trkpt lat="38.384735" lon="-112.396626"><ele>3474.8</ele></trkpt>
      <trkpt lat="38.385776" lon="-112.397861"><ele>3495.5</ele></trkpt>
      <trkpt lat="38.385861" lon="-112.397999"><ele>3496.5</ele></trkpt>
      <trkpt lat="38.385981" lon="-112.398076"><ele>3495.0</ele></trkpt>
      <trkpt lat="38.386134" lon="-112.398036"><ele>3493.0</ele></trkpt>
      <trkpt lat="38.386443" lon="-112.397833"><ele>3487.2</ele></trkpt>
      <trkpt lat="38.387049" lon="-112.397926"><ele>3485.2</ele></trkpt>
      <trkpt lat="38.387229" lon="-112.397875"><ele>3484.2</ele></trkpt>
      <trkpt lat="38.387576" lon="-112.397696"><ele>3478.2</ele></trkpt>
      <trkpt lat="38.387786" lon="-112.397684"><ele>3475.2</ele></trkpt>
      <trkpt lat="38.388153" lon="-112.397997"><ele>3476.8</ele></trkpt>
      <trkpt lat="38.388570" lon="-112.398692"><ele>3478.8</ele></trkpt>
      <trkpt lat="38.388761" lon="-112.399270"><ele>3477.2</ele></trkpt>
      <trkpt lat="38.388739" lon="-112.399440"><ele>3473.2</ele></trkpt>
      <trkpt lat="38.388634" lon="-112.399505"><ele>3472.0</ele></trkpt>
      <trkpt lat="38.388484" lon="-112.399562"><ele>3471.5</ele></trkpt>
      <trkpt lat="38.388424" lon="-112.399692"><ele>3469.0</ele></trkpt>
      <trkpt lat="38.388472" lon="-112.399823"><ele>3465.8</ele></trkpt>
      <trkpt lat="38.388934" lon="-112.400046"><ele>3456.5</ele></trkpt>
      <trkpt lat="38.389523" lon="-112.399932"><ele>3449.5</ele></trkpt>
      <trkpt lat="38.389874" lon="-112.399798"><ele>3443.0</ele></trkpt>
      <trkpt lat="38.390068" lon="-112.399640"><ele>3438.5</ele></trkpt>
      <trkpt lat="38.390396" lon="-112.399221"><ele>3424.0</ele></trkpt>
      <trkpt lat="38.390505" lon="-112.399192"><ele>3418.0</ele></trkpt>
      <trkpt lat="38.390581" lon="-112.399262"><ele>3414.8</ele></trkpt>
      <trkpt lat="38.390683" lon="-112.399623"><ele>3416.2</ele></trkpt>
      <trkpt lat="38.390846" lon="-112.399749"><ele>3414.0</ele></trkpt>
      <trkpt lat="38.392321" lon="-112.400034"><ele>3424.2</ele></trkpt>
      <trkpt lat="38.392640" lon="-112.400186"><ele>3425.5</ele></trkpt>
      <trkpt lat="38.393089" lon="-112.400298"><ele>3426.0</ele></trkpt>
      <trkpt lat="38.393634" lon="-112.400668"><ele>3426.5</ele></trkpt>
      <trkpt lat="38.393742" lon="-112.400823"><ele>3426.8</ele></trkpt>
      <trkpt lat="38.393780" lon="-112.401014"><ele>3427.8</ele></trkpt>
      <trkpt lat="38.393783" lon="-112.401201"><ele>3429.0</ele></trkpt>
      <trkpt lat="38.395584" lon="-112.403404"><ele>3408.8</ele></trkpt>
      <trkpt lat="38.395698" lon="-112.403465"><ele>3405.8</ele></trkpt>
      <trkpt lat="38.395982" lon="-112.403339"><ele>3401.8</ele></trkpt>
      <trkpt lat="38.396546" lon="-112.403257"><ele>3396.5</ele></trkpt>
      <trkpt lat="38.397329" lon="-112.402826"><ele>3391.2</ele></trkpt>
      <trkpt lat="38.399483" lon="-112.401061"><ele>3369.5</ele></trkpt>
      <trkpt lat="38.399764" lon="-112.400671"><ele>3363.2</ele></trkpt>
      <trkpt lat="38.400541" lon="-112.399874"><ele>3355.5</ele></trkpt>
      <trkpt lat="38.401006" lon="-112.399573"><ele>3354.8</ele></trkpt>
      <trkpt lat="38.402013" lon="-112.398788"><ele>3344.2</ele></trkpt>
      <trkpt lat="38.402702" lon="-112.398556"><ele>3345.2</ele></trkpt>
      <trkpt lat="38.403112" lon="-112.398520"><ele>3347.8</ele></trkpt>
      <trkpt lat="38.403217" lon="-112.398427"><ele>3348.0</ele></trkpt>
      <trkpt lat="38.403272" lon="-112.398266"><ele>3348.2</ele></trkpt>
      <trkpt lat="38.403380" lon="-112.397488"><ele>3352.0</ele></trkpt>
      <trkpt lat="38.403698" lon="-112.396918"><ele>3355.2</ele></trkpt>
      <trkpt lat="38.403699" lon="-112.396807"><ele>3354.8</ele></trkpt>
      <trkpt lat="38.403615" lon="-112.396827"><ele>3355.2</ele></trkpt>
      <trkpt lat="38.403460" lon="-112.396964"><ele>3353.2</ele></trkpt>
    </trkseg>
    <!-- Mon -->
    <trkseg>
      <trkpt lat="38.403460" lon="-112.396964"><ele>3355.0</ele></trkpt>
      <trkpt lat="38.403615" lon="-112.396827"><ele>3355.2</ele></trkpt>
      <trkpt lat="38.403699" lon="-112.396807"><ele>3354.8</ele></trkpt>
      <trkpt lat="38.403698" lon="-112.396918"><ele>3355.2</ele></trkpt>
      <trkpt lat="38.403380" lon="-112.397488"><ele>3352.0</ele></trkpt>
      <trkpt lat="38.403272" lon="-112.398266"><ele>3348.2</ele></trkpt>
      <trkpt lat="38.403217" lon="-112.398427"><ele>3348.0</ele></trkpt>
      <trkpt lat="38.403112" lon="-112.398520"><ele>3347.8</ele></trkpt>
      <trkpt lat="38.402702" lon="-112.398556"><ele>3345.2</ele></trkpt>
      <trkpt lat="38.402013" lon="-112.398788"><ele>3344.2</ele></trkpt>
      <trkpt lat="38.401006" lon="-112.399573"><ele>3354.8</ele></trkpt>
      <trkpt lat="38.400541" lon="-112.399874"><ele>3355.5</ele></trkpt>
      <trkpt lat="38.399764" lon="-112.400671"><ele>3363.2</ele></trkpt>
      <trkpt lat="38.399483" lon="-112.401061"><ele>3369.5</ele></trkpt>
      <trkpt lat="38.397329" lon="-112.402826"><ele>3391.2</ele></trkpt>
      <trkpt lat="38.396546" lon="-112.403257"><ele>3396.5</ele></trkpt>
      <trkpt lat="38.395982" lon="-112.403339"><ele>3401.8</ele></trkpt>
      <trkpt lat="38.395698" lon="-112.403465"><ele>3405.8</ele></trkpt>
      <trkpt lat="38.395584" lon="-112.403404"><ele>3408.8</ele></trkpt>
      <trkpt lat="38.393783" lon="-112.401201"><ele>3429.0</ele></trkpt>
      <trkpt lat="38.393780" lon="-112.401014"><ele>3427.8</ele></trkpt>
      <trkpt lat="38.393742" lon="-112.400823"><ele>3426.8</ele></trkpt>
      <trkpt lat="38.393634" lon="-112.400668"><ele>3426.5</ele></trkpt>
      <trkpt lat="38.393089" lon="-112.400298"><ele>3426.0</ele></trkpt>
      <trkpt lat="38.392640" lon="-112.400186"><ele>3425.5</ele></trkpt>
      <trkpt lat="38.392321" lon="-112.400034"><ele>3424.2</ele></trkpt>
      <trkpt lat="38.390846" lon="-112.399749"><ele>3414.0</ele></trkpt>
      <trkpt lat="38.390683" lon="-112.399623"><ele>3416.2</ele></trkpt>
      <trkpt lat="38.390581" lon="-112.399262"><ele>3414.8</ele></trkpt>
      <trkpt lat="38.390505" lon="-112.399192"><ele>3418.0</ele></trkpt>
      <trkpt lat="38.390396" lon="-112.399221"><ele>3424.0</ele></trkpt>
      <trkpt lat="38.390068" lon="-112.399640"><ele>3438.5</ele></trkpt>
      <trkpt lat="38.389874" lon="-112.399798"><ele>3443.0</ele></trkpt>
      <trkpt lat="38.389523" lon="-112.399932"><ele>3449.5</ele></trkpt>
      <trkpt lat="38.388934" lon="-112.400046"><ele>3456.5</ele></trkpt>
      <trkpt lat="38.388472" lon="-112.399823"><ele>3465.8</ele></trkpt>
      <trkpt lat="38.388424" lon="-112.399692"><ele>3469.0</ele></trkpt>
      <trkpt lat="38.388484" lon="-112.399562"><ele>3471.5</ele></trkpt>
      <trkpt lat="38.388634" lon="-112.399505"><ele>3472.0</ele></trkpt>
      <trkpt lat="38.388739" lon="-112.399440"><ele>3473.2</ele></trkpt>
      <trkpt lat="38.388761" lon="-112.399270"><ele>3477.2</ele></trkpt>
      <trkpt lat="38.388570" lon="-112.398692"><ele>3478.8</ele></trkpt>
      <trkpt lat="38.388153" lon="-112.397997"><ele>3476.8</ele></trkpt>
      <trkpt lat="38.387786" lon="-112.397684"><ele>3475.2</ele></trkpt>
      <trkpt lat="38.387576" lon="-112.397696"><ele>3478.2</ele></trkpt>
      <trkpt lat="38.387229" lon="-112.397875"><ele>3484.2</ele></trkpt>
      <trkpt lat="38.387049" lon="-112.397926"><ele>3485.2</ele></trkpt>
      <trkpt lat="38.386443" lon="-112.397833"><ele>3487.2</ele></trkpt>
      <trkpt lat="38.386134" lon="-112.398036"><ele>3493.0</ele></trkpt>
      <trkpt lat="38.385981" lon="-112.398076"><ele>3495.0</ele></trkpt>
      <trkpt lat="38.385861" lon="-112.397999"><ele>3496.5</ele></trkpt>
      <trkpt lat="38.385776" lon="-112.397861"><ele>3495.5</ele></trkpt>
      <trkpt lat="38.384735" lon="-112.396626"><ele>3474.8</ele></trkpt>
      <trkpt lat="38.384662" lon="-112.396617"><ele>3472.5</ele></trkpt>
      <trkpt lat="38.384672" lon="-112.397075"><ele>3470.5</ele></trkpt>
      <trkpt lat="38.384937" lon="-112.398281"><ele>3472.0</ele></trkpt>
      <trkpt lat="38.384890" lon="-112.398510"><ele>3470.2</ele></trkpt>
      <trkpt lat="38.384718" lon="-112.398857"><ele>3464.8</ele></trkpt>
      <trkpt lat="38.384645" lon="-112.398834"><ele>3462.2</ele></trkpt>
      <trkpt lat="38.384639" lon="-112.398676"><ele>3462.0</ele></trkpt>
      <trkpt lat="38.384762" lon="-112.398307"><ele>3466.0</ele></trkpt>
      <trkpt lat="38.384722" lon="-112.398164"><ele>3465.5</ele></trkpt>
      <trkpt lat="38.384634" lon="-112.398081"><ele>3463.0</ele></trkpt>
      <trkpt lat="38.384534" lon="-112.398112"><ele>3459.5</ele></trkpt>
      <trkpt lat="38.384505" lon="-112.398228"><ele>3457.8</ele></trkpt>
      <trkpt lat="38.384291" lon="-112.398553"><ele>3450.0</ele></trkpt>
      <trkpt lat="38.384209" lon="-112.398570"><ele>3447.2</ele></trkpt>
      <trkpt lat="38.384136" lon="-112.398534"><ele>3444.8</ele></trkpt>
      <trkpt lat="38.384012" lon="-112.398138"><ele>3441.8</ele></trkpt>
      <trkpt lat="38.383936" lon="-112.398002"><ele>3440.0</ele></trkpt>
      <trkpt lat="38.383723" lon="-112.397795"><ele>3434.5</ele></trkpt>
      <trkpt lat="38.383647" lon="-112.397295"><ele>3436.2</ele></trkpt>
      <trkpt lat="38.383589" lon="-112.397202"><ele>3435.2</ele></trkpt>
      <trkpt lat="38.383382" lon="-112.397124"><ele>3430.0</ele></trkpt>
      <trkpt lat="38.383155" lon="-112.396822"><ele>3428.5</ele></trkpt>
      <trkpt lat="38.383090" lon="-112.396819"><ele>3427.8</ele></trkpt>
      <trkpt lat="38.383065" lon="-112.396851"><ele>3427.0</ele></trkpt>
      <trkpt lat="38.383079" lon="-112.396937"><ele>3426.0</ele></trkpt>
      <trkpt lat="38.383197" lon="-112.397037"><ele>3427.0</ele></trkpt>
      <trkpt lat="38.383269" lon="-112.397160"><ele>3427.0</ele></trkpt>
      <trkpt lat="38.383327" lon="-112.397355"><ele>3426.2</ele></trkpt>
      <trkpt lat="38.383316" lon="-112.397481"><ele>3424.8</ele></trkpt>
      <trkpt lat="38.383250" lon="-112.397560"><ele>3422.8</ele></trkpt>
      <trkpt lat="38.383153" lon="-112.397555"><ele>3420.8</ele></trkpt>
      <trkpt lat="38.382961" lon="-112.397398"><ele>3418.5</ele></trkpt>
      <trkpt lat="38.382614" lon="-112.397380"><ele>3412.0</ele></trkpt>
      <trkpt lat="38.382588" lon="-112.397440"><ele>3410.5</ele></trkpt>
      <trkpt lat="38.382699" lon="-112.397569"><ele>3411.2</ele></trkpt>
      <trkpt lat="38.382762" lon="-112.397674"><ele>3411.5</ele></trkpt>
      <trkpt lat="38.382861" lon="-112.398008"><ele>3410.5</ele></trkpt>
      <trkpt lat="38.382840" lon="-112.398127"><ele>3409.0</ele></trkpt>
      <trkpt lat="38.382644" lon="-112.398247"><ele>3403.8</ele></trkpt>
      <trkpt lat="38.382503" lon="-112.398243"><ele>3400.8</ele></trkpt>
      <trkpt lat="38.382386" lon="-112.398167"><ele>3400.2</ele></trkpt>
      <trkpt lat="38.382333" lon="-112.398038"><ele>3401.0</ele></trkpt>
      <trkpt lat="38.382262" lon="-112.397734"><ele>3402.8</ele></trkpt>
      <trkpt lat="38.382164" lon="-112.397605"><ele>3402.5</ele></trkpt>
      <trkpt lat="38.381928" lon="-112.397502"><ele>3400.2</ele></trkpt>
      <trkpt lat="38.381695" lon="-112.397483"><ele>3397.5</ele></trkpt>
      <trkpt lat="38.381249" lon="-112.397665"><ele>3391.0</ele></trkpt>
      <trkpt lat="38.380785" lon="-112.398082"><ele>3384.2</ele></trkpt>
      <trkpt lat="38.380667" lon="-112.398275"><ele>3382.5</ele></trkpt>
      <trkpt lat="38.380546" lon="-112.398534"><ele>3380.8</ele></trkpt>
      <trkpt lat="38.380380" lon="-112.398773"><ele>3378.8</ele></trkpt>
      <trkpt lat="38.380172" lon="-112.398960"><ele>3376.5</ele></trkpt>
      <trkpt lat="38.380086" lon="-112.399068"><ele>3375.8</ele></trkpt>
      <trkpt lat="38.380032" lon="-112.399238"><ele>3375.0</ele></trkpt>
      <trkpt lat="38.379961" lon="-112.399820"><ele>3372.5</ele></trkpt>
      <trkpt lat="38.379904" lon="-112.400395"><ele>3367.5</ele></trkpt>
      <trkpt lat="38.379724" lon="-112.400684"><ele>3363.0</ele></trkpt>
      <trkpt lat="38.379537" lon="-112.400735"><ele>3361.0</ele></trkpt>
      <trkpt lat="38.379282" lon="-112.400466"><ele>3359.8</ele></trkpt>
      <trkpt lat="38.378980" lon="-112.400096"><ele>3356.8</ele></trkpt>
      <trkpt lat="38.378834" lon="-112.399842"><ele>3353.8</ele></trkpt>
      <trkpt lat="38.378802" lon="-112.399546"><ele>3351.2</ele></trkpt>
      <trkpt lat="38.378722" lon="-112.399452"><ele>3349.5</ele></trkpt>
      <trkpt lat="38.378506" lon="-112.399480"><ele>3346.5</ele></trkpt>
      <trkpt lat="38.378208" lon="-112.399270"><ele>3339.8</ele></trkpt>
      <trkpt lat="38.378089" lon="-112.398942"><ele>3335.8</ele></trkpt>
      <trkpt lat="38.377911" lon="-112.398819"><ele>3332.2</ele></trkpt>
      <trkpt lat="38.377313" lon="-112.398626"><ele>3321.2</ele></trkpt>
      <trkpt lat="38.377111" lon="-112.398634"><ele>3317.8</ele></trkpt>
      <trkpt lat="38.376911" lon="-112.398747"><ele>3314.5</ele></trkpt>
      <trkpt lat="38.376807" lon="-112.398913"><ele>3313.0</ele></trkpt>
      <trkpt lat="38.376754" lon="-112.399076"><ele>3312.5</ele></trkpt>
      <trkpt lat="38.376551" lon="-112.399152"><ele>3308.5</ele></trkpt>
      <trkpt lat="38.376256" lon="-112.399300"><ele>3303.5</ele></trkpt>
      <trkpt lat="38.376055" lon="-112.399484"><ele>3299.8</ele></trkpt>
      <trkpt lat="38.375942" lon="-112.399459"><ele>3297.2</ele></trkpt>
      <trkpt lat="38.375902" lon="-112.399198"><ele>3296.2</ele></trkpt>
      <trkpt lat="38.375833" lon="-112.398960"><ele>3294.8</ele></trkpt>
      <trkpt lat="38.375647" lon="-112.398618"><ele>3290.8</ele></trkpt>
      <trkpt lat="38.375329" lon="-112.398237"><ele>3284.8</ele></trkpt>
      <trkpt lat="38.375273" lon="-112.398009"><ele>3283.8</ele></trkpt>
      <trkpt lat="38.375332" lon="-112.397530"><ele>3285.5</ele></trkpt>
      <trkpt lat="38.375360" lon="-112.397348"><ele>3288.8</ele></trkpt>
      <trkpt lat="38.375350" lon="-112.397231"><ele>3290.5</ele></trkpt>
      <trkpt lat="38.375276" lon="-112.397097"><ele>3290.8</ele></trkpt>
      <trkpt lat="38.374971" lon="-112.396739"><ele>3289.8</ele></trkpt>
      <trkpt lat="38.374664" lon="-112.396315"><ele>3289.8</ele></trkpt>
      <trkpt lat="38.374515" lon="-112.396052"><ele>3291.0</ele></trkpt>
      <trkpt lat="38.374426" lon="-112.395566"><ele>3298.0</ele></trkpt>
      <trkpt lat="38.374289" lon="-112.395347"><ele>3298.0</ele></trkpt>
      <trkpt lat="38.374145" lon="-112.395191"><ele>3296.0</ele></trkpt>
      <trkpt lat="38.374047" lon="-112.394837"><ele>3298.5</ele></trkpt>
      <trkpt lat="38.373842" lon="-112.394490"><ele>3297.2</ele></trkpt>
      <trkpt lat="38.373574" lon="-112.394211"><ele>3291.8</ele></trkpt>
      <trkpt lat="38.373331" lon="-112.393925"><ele>3285.5</ele></trkpt>
      <trkpt lat="38.373255" lon="-112.393592"><ele>3286.5</ele></trkpt>
      <trkpt lat="38.373282" lon="-112.393137"><ele>3292.2</ele></trkpt>
      <trkpt lat="38.373218" lon="-112.392773"><ele>3294.0</ele></trkpt>
      <trkpt lat="38.373059" lon="-112.392497"><ele>3292.0</ele></trkpt>
      <trkpt lat="38.373034" lon="-112.392297"><ele>3293.8</ele></trkpt>
      <trkpt lat="38.373030" lon="-112.391916"><ele>3298.8</ele></trkpt>
      <trkpt lat="38.372868" lon="-112.391519"><ele>3299.0</ele></trkpt>
      <trkpt lat="38.372777" lon="-112.390979"><ele>3301.5</ele></trkpt>
      <trkpt lat="38.372662" lon="-112.390790"><ele>3299.5</ele></trkpt>
      <trkpt lat="38.372239" lon="-112.390807"><ele>3286.8</ele></trkpt>
      <trkpt lat="38.371933" lon="-112.390760"><ele>3279.2</ele></trkpt>
      <trkpt lat="38.371835" lon="-112.390915"><ele>3275.5</ele></trkpt>
      <trkpt lat="38.371886" lon="-112.391232"><ele>3274.5</ele></trkpt>
      <trkpt lat="38.371974" lon="-112.391626"><ele>3274.0</ele></trkpt>
      <trkpt lat="38.372005" lon="-112.391978"><ele>3270.8</ele></trkpt>
      <trkpt lat="38.372239" lon="-112.392584"><ele>3268.0</ele></trkpt>
      <trkpt lat="38.372191" lon="-112.392741"><ele>3265.8</ele></trkpt>
      <trkpt lat="38.372052" lon="-112.392698"><ele>3264.0</ele></trkpt>
      <trkpt lat="38.371823" lon="-112.392584"><ele>3260.8</ele></trkpt>
      <trkpt lat="38.371584" lon="-112.392539"><ele>3256.2</ele></trkpt>
      <trkpt lat="38.371409" lon="-112.392370"><ele>3254.0</ele></trkpt>
      <trkpt lat="38.371138" lon="-112.391814"><ele>3254.8</ele></trkpt>
      <trkpt lat="38.371032" lon="-112.391282"><ele>3258.5</ele></trkpt>
      <trkpt lat="38.370979" lon="-112.390892"><ele>3262.2</ele></trkpt>
      <trkpt lat="38.370880" lon="-112.390711"><ele>3263.5</ele></trkpt>
      <trkpt lat="38.370794" lon="-112.390745"><ele>3263.5</ele></trkpt>
      <trkpt lat="38.370745" lon="-112.391069"><ele>3260.2</ele></trkpt>
      <trkpt lat="38.370532" lon="-112.391528"><ele>3259.5</ele></trkpt>
      <trkpt lat="38.370265" lon="-112.391707"><ele>3263.2</ele></trkpt>
      <trkpt lat="38.369845" lon="-112.392430"><ele>3256.5</ele></trkpt>
      <trkpt lat="38.369665" lon="-112.392805"><ele>3248.8</ele></trkpt>
      <trkpt lat="38.369435" lon="-112.392966"><ele>3246.0</ele></trkpt>
      <trkpt lat="38.369005" lon="-112.393233"><ele>3241.5</ele></trkpt>
      <trkpt lat="38.368721" lon="-112.393569"><ele>3237.0</ele></trkpt>
      <trkpt lat="38.368350" lon="-112.393806"><ele>3237.2</ele></trkpt>
      <trkpt lat="38.368015" lon="-112.393940"><ele>3242.8</ele></trkpt>
      <trkpt lat="38.367892" lon="-112.394121"><ele>3241.5</ele></trkpt>
      <trkpt lat="38.367833" lon="-112.394677"><ele>3232.2</ele></trkpt>
      <trkpt lat="38.367671" lon="-112.395322"><ele>3222.0</ele></trkpt>
      <trkpt lat="38.367534" lon="-112.395640"><ele>3218.0</ele></trkpt>
      <trkpt lat="38.367447" lon="-112.395759"><ele>3216.0</ele></trkpt>
      <trkpt lat="38.367032" lon="-112.395979"><ele>3207.8</ele></trkpt>
      <trkpt lat="38.366460" lon="-112.396329"><ele>3195.5</ele></trkpt>
      <trkpt lat="38.366370" lon="-112.396308"><ele>3195.8</ele></trkpt>
      <trkpt lat="38.366098" lon="-112.396083"><ele>3200.8</ele></trkpt>
      <trkpt lat="38.365936" lon="-112.396035"><ele>3201.2</ele></trkpt>
      <trkpt lat="38.365511" lon="-112.396317"><ele>3192.2</ele></trkpt>
      <trkpt lat="38.365303" lon="-112.396364"><ele>3190.0</ele></trkpt>
      <trkpt lat="38.364999" lon="-112.396224"><ele>3193.2</ele></trkpt>
      <trkpt lat="38.364838" lon="-112.396079"><ele>3198.2</ele></trkpt>
      <trkpt lat="38.364690" lon="-112.396087"><ele>3198.0</ele></trkpt>
      <trkpt lat="38.364429" lon="-112.396239"><ele>3192.0</ele></trkpt>
      <trkpt lat="38.364035" lon="-112.396397"><ele>3183.8</ele></trkpt>
      <trkpt lat="38.363751" lon="-112.396522"><ele>3176.8</ele></trkpt>
      <trkpt lat="38.363474" lon="-112.396503"><ele>3175.0</ele></trkpt>
      <trkpt lat="38.363239" lon="-112.396342"><ele>3175.2</ele></trkpt>
      <trkpt lat="38.362876" lon="-112.395890"><ele>3174.0</ele></trkpt>
      <trkpt lat="38.362717" lon="-112.395409"><ele>3177.5</ele></trkpt>
      <trkpt lat="38.362482" lon="-112.394995"><ele>3177.0</ele></trkpt>
      <trkpt lat="38.362203" lon="-112.394540"><ele>3183.5</ele></trkpt>
      <trkpt lat="38.362114" lon="-112.394236"><ele>3186.8</ele></trkpt>
      <trkpt lat="38.361952" lon="-112.394093"><ele>3187.5</ele></trkpt>
      <trkpt lat="38.361827" lon="-112.394183"><ele>3185.8</ele></trkpt>
      <trkpt lat="38.361688" lon="-112.394216"><ele>3184.8</ele></trkpt>
      <trkpt lat="38.361566" lon="-112.393979"><ele>3186.5</ele></trkpt>
      <trkpt lat="38.361502" lon="-112.393920"><ele>3187.0</ele></trkpt>
      <trkpt lat="38.361369" lon="-112.393983"><ele>3186.0</ele></trkpt>
      <trkpt lat="38.361000" lon="-112.393613"><ele>3187.8</ele></trkpt>
      <trkpt lat="38.360796" lon="-112.393300"><ele>3189.5</ele></trkpt>
      <trkpt lat="38.360715" lon="-112.392938"><ele>3195.0</ele></trkpt>
      <trkpt lat="38.360436" lon="-112.392787"><ele>3198.2</ele></trkpt>
      <trkpt lat="38.360115" lon="-112.392732"><ele>3200.2</ele></trkpt>
      <trkpt lat="38.359791" lon="-112.392814"><ele>3196.8</ele></trkpt>
      <trkpt lat="38.359647" lon="-112.392886"><ele>3194.0</ele></trkpt>
      <trkpt lat="38.359427" lon="-112.393081"><ele>3189.2</ele></trkpt>
      <trkpt lat="38.359264" lon="-112.393175"><ele>3186.2</ele></trkpt>
      <trkpt lat="38.359150" lon="-112.393210"><ele>3184.0</ele></trkpt>
    </trkseg>
  </trk>
</gpx>
