<?xml version="1.0" encoding="UTF-8"?>
<kml xmlns="http://www.opengis.net/kml/2.2" xmlns:xsi="http://www.w3.org/2001/XMLSchema-instance" xsi:schemaLocation="http://www.opengis.net/kml/2.2 http://schemas.opengis.net/kml/2.2.0/ogckml22.xsd">
  <Document>
    <name>2026 montanya backpacking</name>
    <description><![CDATA[Generated by AllTrails https://www.alltrails.com/]]></description>
    <Style id="gpsiesStyle">
      <IconStyle>
        <scale>0.5</scale>
        <Icon>
          <href>https://www.gpsies.com/images/milestone.png</href>
        </Icon>
      </IconStyle>
      <LineStyle>
        <colorMode>random</colorMode>
        <width>5</width>
      </LineStyle>
    </Style>
    <Style id="flag_n">
      <IconStyle>
        <scale>0.8</scale>
        <Icon>
          <href>https://www.gpsies.com/images/flag.png</href>
        </Icon>
      </IconStyle>
      <LabelStyle>
        <scale>0</scale>
      </LabelStyle>
      <BalloonStyle>
        <text>$[description]</text>
      </BalloonStyle>
    </Style>
    <Style id="flag_h">
      <IconStyle>
        <scale>0.8</scale>
        <Icon>
          <href>https://www.gpsies.com/images/flag.png</href>
        </Icon>
      </IconStyle>
      <LabelStyle>
        <scale>1</scale>
      </LabelStyle>
      <BalloonStyle>
        <text>$[description]</text>
      </BalloonStyle>
    </Style>
    <StyleMap id="flag">
      <Pair>
        <key>normal</key>
        <styleUrl>#flag_n</styleUrl>
      </Pair>
      <Pair>
        <key>highlight</key>
        <styleUrl>#flag_h</styleUrl>
      </Pair>
    </StyleMap>
    <Placemark>
      <name>2026 montanya backpacking</name>
      <visibility>1</visibility>
      <open>1</open>
      <Snippet maxLines="0" />
      <description><![CDATA[Generated by AllTrails https://www.alltrails.com/]]></description>
      <styleUrl>#gpsiesStyle</styleUrl>
      <MultiGeometry>
        <LineString>
          <extrude>true</extrude>
          <tessellate>true</tessellate>
          <coordinates>-111.377670,45.44793000,1860.0000
-111.377660,45.44793000,1860.0000
-111.377920,45.44827000,1859.0000
-111.378060,45.44832000,1859.0000
-111.378350,45.44848000,1863.0000
-111.378380,45.44849000,1864.0000
-111.379110,45.44793000,1868.0000
-111.379320,45.44756000,1866.0000
-111.379390,45.44736000,1865.0000
-111.379890,45.44681000,1865.0000
-111.380750,45.44613000,1865.0000
-111.381880,45.44471000,1867.0000
-111.382500,45.44429000,1871.0000
-111.382470,45.44395000,1870.0000
-111.382620,45.44337000,1871.0000
-111.382990,45.44272000,1870.0000
-111.383730,45.44205000,1877.0000
-111.384090,45.44136000,1873.0000
-111.384520,45.44034000,1879.0000
-111.385060,45.43955000,1876.0000
-111.385460,45.43930000,1881.0000
-111.385880,45.43863000,1875.0000
-111.386330,45.43853000,1878.0000
-111.386550,45.43822000,1880.0000
-111.386650,45.43783000,1881.0000
-111.386400,45.43779000,1878.0000
-111.386400,45.43757000,1878.0000
-111.387280,45.43589000,1884.0000
-111.387880,45.43517000,1890.0000
-111.388040,45.43494000,1892.0000
-111.388040,45.43435000,1888.0000
-111.388180,45.43366000,1887.0000
-111.388440,45.43330000,1889.0000
-111.388690,45.43310000,1889.0000
-111.389510,45.43262000,1889.0000
-111.389670,45.43243000,1889.0000
-111.389870,45.43215000,1889.0000
-111.390270,45.43164000,1892.0000
-111.390860,45.43114000,1896.0000
-111.391130,45.43058000,1903.0000
-111.391440,45.43023000,1906.0000
-111.392060,45.42977000,1907.0000
-111.392900,45.42905000,1910.0000
-111.393630,45.42838000,1916.0000
-111.393940,45.42832000,1918.0000
-111.394720,45.42792000,1924.0000
-111.395480,45.42713000,1927.0000
-111.395610,45.42673000,1923.0000
-111.396170,45.42631000,1933.0000
-111.396470,45.42523000,1935.0000
-111.396320,45.42503000,1932.0000
-111.396530,45.42478000,1932.0000
-111.397230,45.42356000,1935.0000
-111.397540,45.42324000,1938.0000
-111.398470,45.42237000,1944.0000
-111.399140,45.42106000,1951.0000
-111.399330,45.42017000,1956.0000
-111.399780,45.41964000,1959.0000
-111.400160,45.41911000,1963.0000
-111.400390,45.41855000,1964.0000
-111.400430,45.41730000,1967.0000
-111.400340,45.41693000,1971.0000
-111.400110,45.41656000,1970.0000
-111.400130,45.41635000,1972.0000
-111.400660,45.41599000,1978.0000
-111.400440,45.41583000,1976.0000
-111.400390,45.41543000,1977.0000
-111.400190,45.41451000,1982.0000
-111.400020,45.41380000,1980.0000
-111.400070,45.41312000,1985.0000
-111.400460,45.41263000,1990.0000
-111.400460,45.41205000,1997.0000
-111.399970,45.41089000,1998.0000
-111.400070,45.41054000,2000.0000
-111.400130,45.40964000,2013.0000
-111.400200,45.40923000,2019.0000
-111.400040,45.40885000,2017.0000
-111.400150,45.40855000,2016.0000
-111.400570,45.40784000,2021.0000
-111.400690,45.40742000,2023.0000
-111.400850,45.40712000,2026.0000
-111.401240,45.40670000,2028.0000
-111.401650,45.40651000,2032.0000
-111.402490,45.40573000,2038.0000
-111.403310,45.40481000,2042.0000
-111.403960,45.40390000,2053.0000
-111.404530,45.40338000,2058.0000
-111.404950,45.40292000,2059.0000
-111.405470,45.40260000,2060.0000
-111.406180,45.40227000,2062.0000
-111.406840,45.40170000,2068.0000
-111.406840,45.40113000,2072.0000
-111.406690,45.40058000,2075.0000
-111.406750,45.40019000,2078.0000
-111.406970,45.39953000,2081.0000
-111.407810,45.39888000,2086.0000
-111.408480,45.39860000,2089.0000
-111.409070,45.39801000,2097.0000
-111.410280,45.39696000,2111.0000
-111.410610,45.39634000,2121.0000
-111.410910,45.39602000,2125.0000
-111.411380,45.39568000,2130.0000
-111.411560,45.39530000,2132.0000
-111.411530,45.39465000,2138.0000
-111.411720,45.39460000,2137.0000
-111.411850,45.39452000,2136.0000
-111.412020,45.39449000,2136.0000
-111.412250,45.39466000,2132.0000
-111.412860,45.39475000,2135.0000
-111.413310,45.39485000,2136.0000
-111.413590,45.39515000,2133.0000
-111.413650,45.39536000,2131.0000
-111.413970,45.39540000,2134.0000
-111.414120,45.39535000,2134.0000
-111.414410,45.39536000,2135.0000
-111.414920,45.39516000,2141.0000
-111.415410,45.39521000,2147.0000
-111.416050,45.39460000,2155.0000
-111.416510,45.39438000,2163.0000
-111.417950,45.39344000,2178.0000
-111.418080,45.39327000,2179.0000
-111.418160,45.39306000,2181.0000
-111.418300,45.39278000,2186.0000
-111.418530,45.39254000,2190.0000
-111.418900,45.39231000,2195.0000
-111.419340,45.39195000,2200.0000
-111.419620,45.39144000,2209.0000
-111.419710,45.39123000,2213.0000
-111.419710,45.39043000,2223.0000
-111.419950,45.38961000,2236.0000
-111.420040,45.38944000,2239.0000
-111.420040,45.38930000,2241.0000
-111.420010,45.38916000,2242.0000
-111.419920,45.38906000,2244.0000
-111.419970,45.38892000,2247.0000
-111.420030,45.38878000,2252.0000
-111.419960,45.38873000,2254.0000
-111.419980,45.38861000,2258.0000
-111.420140,45.38841000,2263.0000
-111.420280,45.38826000,2265.0000
-111.420340,45.38798000,2273.0000
-111.420240,45.38802000,2273.0000
-111.420040,45.38806000,2274.0000
-111.419770,45.38795000,2282.0000
-111.419770,45.38773000,2292.0000
-111.419750,45.38753000,2299.0000
-111.419710,45.38745000,2302.0000
-111.419640,45.38727000,2306.0000
-111.419820,45.38711000,2312.0000
-111.420010,45.38702000,2316.0000
-111.420170,45.38698000,2318.0000
-111.420290,45.38698000,2317.0000
-111.420500,45.38698000,2315.0000
-111.420540,45.38693000,2316.0000
-111.420540,45.38688000,2317.0000
-111.420440,45.38682000,2319.0000
-111.420460,45.38675000,2320.0000
-111.420670,45.38667000,2320.0000
-111.420980,45.38619000,2335.0000
-111.421460,45.38539000,2351.0000
-111.421690,45.38488000,2360.0000
-111.421840,45.38438000,2375.0000
-111.421970,45.38409000,2381.0000
-111.422060,45.38397000,2383.0000
-111.422300,45.38385000,2383.0000
-111.422450,45.38373000,2384.0000
-111.422650,45.38344000,2388.0000
-111.422790,45.38329000,2390.0000
-111.422960,45.38320000,2391.0000
-111.423070,45.38304000,2394.0000
-111.423190,45.38292000,2395.0000
-111.423740,45.38253000,2398.0000
-111.423840,45.38248000,2398.0000
-111.423930,45.38245000,2398.0000
-111.424050,45.38230000,2400.0000
-111.424160,45.38206000,2401.0000
-111.424290,45.38198000,2400.0000
-111.424540,45.38176000,2399.0000
-111.424730,45.38165000,2399.0000
-111.424880,45.38159000,2397.0000
-111.425040,45.38146000,2396.0000
-111.425120,45.38135000,2396.0000
-111.425170,45.38121000,2398.0000
-111.425450,45.38088000,2406.0000
-111.425520,45.38075000,2410.0000
-111.425640,45.38079000,2408.0000
-111.425730,45.38087000,2406.0000
-111.425880,45.38080000,2407.0000
-111.425950,45.38067000,2410.0000
-111.425870,45.38051000,2414.0000
-111.425650,45.38028000,2420.0000
-111.425430,45.38038000,2419.0000
-111.425290,45.38046000,2417.0000
-111.425160,45.38037000,2420.0000
-111.425200,45.38024000,2423.0000
-111.425250,45.38000000,2432.0000
-111.425260,45.37972000,2442.0000
-111.425290,45.37955000,2445.0000
-111.425360,45.37941000,2447.0000
-111.425550,45.37930000,2449.0000
-111.425650,45.37923000,2451.0000
-111.425980,45.37879000,2463.0000
-111.426190,45.37850000,2470.0000
-111.426280,45.37833000,2475.0000
-111.426900,45.37791000,2480.0000
-111.427040,45.37778000,2481.0000
-111.427130,45.37759000,2483.0000
-111.427260,45.37704000,2486.0000
-111.427200,45.37658000,2486.0000
-111.427190,45.37635000,2485.0000
-111.427120,45.37606000,2487.0000
-111.427160,45.37578000,2494.0000
-111.427250,45.37565000,2496.0000
-111.427270,45.37548000,2499.0000
-111.427350,45.37515000,2502.0000
-111.427430,45.37495000,2504.0000
-111.427480,45.37482000,2505.0000
-111.427480,45.37446000,2509.0000
-111.427530,45.37412000,2514.0000
-111.427630,45.37397000,2518.0000
-111.427800,45.37387000,2521.0000
-111.428080,45.37366000,2527.0000
-111.428270,45.37341000,2531.0000
-111.428230,45.37331000,2532.0000
-111.428090,45.37321000,2533.0000
-111.427950,45.37303000,2534.0000
-111.427910,45.37288000,2535.0000
-111.427910,45.37271000,2538.0000
-111.428010,45.37226000,2544.0000
-111.428000,45.37214000,2546.0000
-111.428110,45.37165000,2552.0000
-111.428000,45.37130000,2558.0000
-111.427890,45.37107000,2563.0000
-111.427680,45.37093000,2569.0000
-111.427580,45.37077000,2573.0000
-111.427520,45.37044000,2579.0000
-111.427430,45.37017000,2582.0000
-111.427240,45.36981000,2583.0000
-111.427160,45.36960000,2583.0000
-111.427260,45.36934000,2584.0000
-111.427410,45.36915000,2587.0000
-111.427560,45.36903000,2589.0000
-111.427630,45.36893000,2591.0000
-111.427640,45.36883000,2592.0000
-111.427660,45.36868000,2594.0000
-111.427600,45.36849000,2597.0000
-111.427320,45.36827000,2604.0000
-111.427340,45.36792000,2608.0000
-111.427400,45.36763000,2609.0000
-111.427570,45.36745000,2611.0000
-111.427720,45.36734000,2612.0000
-111.427720,45.36716000,2615.0000
-111.427660,45.36692000,2618.0000
-111.427670,45.36660000,2623.0000
-111.427710,45.36645000,2626.0000
-111.427710,45.36630000,2628.0000
-111.427630,45.36611000,2630.0000
-111.427570,45.36591000,2632.0000
-111.427530,45.36575000,2634.0000
-111.427550,45.36560000,2635.0000
-111.427670,45.36553000,2636.0000
-111.427910,45.36548000,2636.0000
-111.428110,45.36547000,2636.0000
-111.428400,45.36542000,2637.0000
-111.428510,45.36529000,2639.0000
-111.428700,45.36499000,2645.0000
-111.428770,45.36480000,2649.0000
-111.428710,45.36444000,2656.0000
-111.428710,45.36428000,2659.0000
-111.428470,45.36382000,2671.0000
-111.428270,45.36373000,2676.0000
-111.428230,45.36357000,2678.0000
-111.428100,45.36345000,2680.0000
-111.427850,45.36305000,2687.0000
-111.427690,45.36282000,2693.0000
-111.427550,45.36266000,2698.0000
-111.427420,45.36254000,2702.0000
-111.427330,45.36248000,2704.0000</coordinates>
        </LineString>
        <LineString>
          <extrude>true</extrude>
          <tessellate>true</tessellate>
          <coordinates>-111.427550,45.36560000,2635.0000
-111.427670,45.36553000,2636.0000
-111.427910,45.36548000,2636.0000
-111.428110,45.36547000,2636.0000
-111.428400,45.36542000,2637.0000
-111.428510,45.36529000,2639.0000
-111.428700,45.36499000,2645.0000
-111.428770,45.36480000,2649.0000
-111.428760,45.36477000,2650.0000
-111.428870,45.36483000,2647.0000
-111.428980,45.36494000,2645.0000
-111.429070,45.36520000,2639.0000
-111.429060,45.36553000,2635.0000
-111.429150,45.36573000,2633.0000
-111.429350,45.36585000,2632.0000
-111.429550,45.36600000,2630.0000
-111.429580,45.36610000,2630.0000
-111.429550,45.36623000,2629.0000
-111.429520,45.36658000,2629.0000
-111.429520,45.36683000,2630.0000
-111.429410,45.36696000,2631.0000
-111.429270,45.36698000,2630.0000
-111.428960,45.36692000,2630.0000
-111.428780,45.36693000,2630.0000
-111.428620,45.36712000,2628.0000
-111.428510,45.36735000,2622.0000
-111.428470,45.36752000,2619.0000
-111.428540,45.36768000,2617.0000
-111.428560,45.36787000,2613.0000
-111.428510,45.36806000,2609.0000
-111.428510,45.36822000,2605.0000
-111.428440,45.36861000,2597.0000
-111.428440,45.36877000,2594.0000
-111.428520,45.36884000,2593.0000
-111.428740,45.36892000,2594.0000
-111.428780,45.36906000,2593.0000
-111.428940,45.36925000,2594.0000
-111.429090,45.36927000,2597.0000
-111.429200,45.36924000,2600.0000
-111.429720,45.36939000,2608.0000
-111.429990,45.36948000,2616.0000
-111.430250,45.36960000,2625.0000
-111.430420,45.36963000,2631.0000
-111.430490,45.36973000,2630.0000
-111.430580,45.36982000,2629.0000
-111.430760,45.36986000,2636.0000
-111.430850,45.36990000,2638.0000
-111.430990,45.36991000,2644.0000
-111.431150,45.36986000,2650.0000
-111.431300,45.36984000,2652.0000
-111.431420,45.36999000,2653.0000
-111.431510,45.37002000,2653.0000
-111.432090,45.37015000,2654.0000
-111.432290,45.37016000,2656.0000
-111.432370,45.37012000,2658.0000
-111.432520,45.36995000,2660.0000
-111.432650,45.36977000,2661.0000
-111.432790,45.36970000,2665.0000
-111.432970,45.36966000,2668.0000
-111.433200,45.36968000,2671.0000
-111.433510,45.36975000,2673.0000
-111.433580,45.36979000,2674.0000
-111.433580,45.36987000,2675.0000
-111.433500,45.37002000,2676.0000
-111.433520,45.37009000,2676.0000
-111.433650,45.37014000,2678.0000
-111.434110,45.37023000,2683.0000
-111.434510,45.37028000,2689.0000
-111.434780,45.37038000,2694.0000
-111.435020,45.37055000,2699.0000
-111.435200,45.37062000,2699.0000
-111.435550,45.37061000,2701.0000
-111.435700,45.37055000,2701.0000
-111.435860,45.37058000,2702.0000
-111.435860,45.37070000,2704.0000
-111.435880,45.37097000,2708.0000
-111.435860,45.37113000,2709.0000
-111.435900,45.37122000,2711.0000
-111.436030,45.37128000,2714.0000
-111.436130,45.37135000,2717.0000
-111.436130,45.37143000,2719.0000
-111.436510,45.37159000,2727.0000
-111.436600,45.37174000,2733.0000
-111.436620,45.37181000,2735.0000
-111.436790,45.37195000,2740.0000
-111.436870,45.37194000,2741.0000
-111.436960,45.37188000,2740.0000
-111.437070,45.37183000,2739.0000
-111.437210,45.37184000,2741.0000
-111.437290,45.37193000,2745.0000
-111.437270,45.37200000,2746.0000
-111.437180,45.37201000,2745.0000
-111.437120,45.37203000,2745.0000
-111.437130,45.37209000,2746.0000
-111.437120,45.37217000,2748.0000
-111.437070,45.37223000,2749.0000
-111.436830,45.37230000,2747.0000
-111.436710,45.37237000,2749.0000
-111.436690,45.37253000,2753.0000
-111.436720,45.37279000,2763.0000
-111.436780,45.37289000,2768.0000
-111.436860,45.37295000,2772.0000
-111.437040,45.37299000,2778.0000
-111.437180,45.37299000,2782.0000
-111.437320,45.37297000,2785.0000
-111.437450,45.37291000,2787.0000
-111.437680,45.37292000,2798.0000
-111.437830,45.37289000,2802.0000
-111.438050,45.37283000,2807.0000
-111.438140,45.37285000,2811.0000
-111.438240,45.37291000,2818.0000
-111.438330,45.37295000,2823.0000
-111.438450,45.37291000,2825.0000
-111.438500,45.37292000,2827.0000
-111.438510,45.37300000,2831.0000
-111.438530,45.37304000,2833.0000
-111.438570,45.37302000,2834.0000
-111.438610,45.37294000,2831.0000
-111.438710,45.37286000,2830.0000
-111.438860,45.37279000,2831.0000
-111.438920,45.37278000,2832.0000
-111.439060,45.37269000,2832.0000
-111.439180,45.37269000,2835.0000
-111.439220,45.37274000,2838.0000
-111.439220,45.37286000,2843.0000
-111.439160,45.37300000,2847.0000
-111.439150,45.37322000,2855.0000
-111.439180,45.37332000,2859.0000
-111.439230,45.37339000,2862.0000
-111.439220,45.37345000,2864.0000
-111.439160,45.37351000,2864.0000
-111.439070,45.37363000,2866.0000
-111.439000,45.37376000,2869.0000
-111.438930,45.37391000,2872.0000
-111.438940,45.37397000,2874.0000
-111.438990,45.37405000,2876.0000
-111.438970,45.37416000,2878.0000
-111.438910,45.37423000,2878.0000
-111.438920,45.37433000,2879.0000
-111.439140,45.37436000,2881.0000
-111.439260,45.37441000,2880.0000
-111.439870,45.37449000,2873.0000
-111.440170,45.37448000,2870.0000
-111.440790,45.37441000,2862.0000
-111.441040,45.37440000,2857.0000
-111.441320,45.37441000,2851.0000
-111.441470,45.37437000,2852.0000
-111.441570,45.37429000,2854.0000
-111.441720,45.37422000,2855.0000
-111.441910,45.37419000,2856.0000
-111.442100,45.37415000,2858.0000
-111.442700,45.37411000,2854.0000
-111.443200,45.37399000,2857.0000
-111.443350,45.37389000,2860.0000
-111.443520,45.37385000,2861.0000
-111.443730,45.37370000,2866.0000
-111.444000,45.37360000,2865.0000
-111.444240,45.37360000,2858.0000
-111.444440,45.37355000,2854.0000
-111.444800,45.37338000,2859.0000
-111.445210,45.37326000,2862.0000
-111.445440,45.37321000,2866.0000
-111.445790,45.37319000,2869.0000
-111.446210,45.37323000,2862.0000
-111.446770,45.37325000,2857.0000
-111.446940,45.37334000,2856.0000
-111.446870,45.37343000,2853.0000
-111.446750,45.37348000,2851.0000
-111.446510,45.37353000,2850.0000
-111.446240,45.37355000,2852.0000
-111.445540,45.37401000,2829.0000
-111.445190,45.37432000,2814.0000
-111.444910,45.37464000,2793.0000
-111.444840,45.37479000,2786.0000
-111.444860,45.37488000,2782.0000
-111.445000,45.37502000,2777.0000
-111.445040,45.37516000,2771.0000
-111.444960,45.37529000,2766.0000
-111.445100,45.37532000,2764.0000
-111.445160,45.37531000,2764.0000
-111.445260,45.37542000,2760.0000
-111.445340,45.37563000,2753.0000
-111.445290,45.37585000,2747.0000
-111.445190,45.37604000,2741.0000
-111.445120,45.37621000,2736.0000
-111.445100,45.37638000,2730.0000
-111.445100,45.37667000,2726.0000
-111.445060,45.37681000,2726.0000
-111.445120,45.37693000,2726.0000
-111.445220,45.37701000,2726.0000
-111.445430,45.37710000,2726.0000
-111.445610,45.37710000,2726.0000
-111.445710,45.37707000,2726.0000
-111.445790,45.37696000,2728.0000
-111.445870,45.37684000,2730.0000
-111.446030,45.37684000,2730.0000
-111.446400,45.37696000,2729.0000
-111.446610,45.37696000,2728.0000
-111.446780,45.37700000,2727.0000
-111.446940,45.37697000,2727.0000
-111.447080,45.37698000,2728.0000
-111.447140,45.37708000,2728.0000
-111.447250,45.37737000,2725.0000
-111.447410,45.37763000,2722.0000
-111.447580,45.37772000,2720.0000
-111.447980,45.37798000,2719.0000
-111.448120,45.37814000,2719.0000
-111.448210,45.37832000,2721.0000
-111.448210,45.37842000,2721.0000
-111.448240,45.37852000,2722.0000
-111.448400,45.37863000,2725.0000
-111.448420,45.37874000,2724.0000
-111.448480,45.37886000,2724.0000
-111.448580,45.37897000,2723.0000
-111.448800,45.37909000,2723.0000
-111.448970,45.37920000,2723.0000
-111.449020,45.37933000,2722.0000
-111.449140,45.37950000,2721.0000
-111.449150,45.37962000,2720.0000
-111.449180,45.37970000,2719.0000
-111.449600,45.37990000,2718.0000
-111.449700,45.37998000,2717.0000
-111.449680,45.38008000,2716.0000
-111.449620,45.38021000,2716.0000
-111.449440,45.38048000,2715.0000
-111.449510,45.38072000,2713.0000
-111.449520,45.38093000,2708.0000
-111.449590,45.38101000,2706.0000
-111.449710,45.38109000,2704.0000
-111.449880,45.38115000,2705.0000
-111.450130,45.38129000,2702.0000
-111.450270,45.38146000,2700.0000
-111.450300,45.38156000,2698.0000
-111.450310,45.38165000,2695.0000
-111.450300,45.38175000,2694.0000
-111.450440,45.38199000,2693.0000
-111.450470,45.38209000,2694.0000
-111.450490,45.38222000,2694.0000
-111.450470,45.38237000,2695.0000
-111.450500,45.38253000,2697.0000
-111.450710,45.38275000,2700.0000
-111.450740,45.38282000,2701.0000
-111.450730,45.38292000,2700.0000
-111.450760,45.38305000,2700.0000
-111.450810,45.38314000,2700.0000
-111.450900,45.38344000,2696.0000
-111.451030,45.38353000,2696.0000
-111.451410,45.38377000,2694.0000
-111.451600,45.38382000,2692.0000
-111.451940,45.38380000,2690.0000
-111.452000,45.38387000,2689.0000
-111.452190,45.38414000,2695.0000
-111.452350,45.38434000,2698.0000
-111.452470,45.38453000,2699.0000
-111.452680,45.38504000,2694.0000
-111.452930,45.38544000,2701.0000
-111.453020,45.38562000,2705.0000
-111.453050,45.38576000,2707.0000
-111.453010,45.38592000,2708.0000
-111.453020,45.38612000,2710.0000
-111.452970,45.38673000,2718.0000
-111.452920,45.38690000,2719.0000
-111.452820,45.38709000,2719.0000
-111.452790,45.38720000,2720.0000
-111.452880,45.38723000,2723.0000
-111.453020,45.38737000,2727.0000
-111.452920,45.38751000,2729.0000
-111.452900,45.38763000,2728.0000
-111.453120,45.38830000,2719.0000
-111.453170,45.38844000,2715.0000
-111.453140,45.38871000,2709.0000
-111.453160,45.38895000,2706.0000
-111.453240,45.38937000,2699.0000
-111.453320,45.38946000,2696.0000
-111.453440,45.38951000,2694.0000
-111.453650,45.38951000,2691.0000
-111.453860,45.38944000,2689.0000
-111.453960,45.38933000,2688.0000
-111.454060,45.38918000,2688.0000
-111.454190,45.38902000,2690.0000
-111.454460,45.38917000,2682.0000
-111.454690,45.38920000,2679.0000
-111.454910,45.38924000,2677.0000
-111.455120,45.38937000,2675.0000
-111.455280,45.38939000,2676.0000
-111.455460,45.38957000,2676.0000
-111.455590,45.38976000,2676.0000
-111.455820,45.38985000,2676.0000
-111.455980,45.38989000,2676.0000
-111.456140,45.38983000,2678.0000
-111.456300,45.38972000,2680.0000
-111.456440,45.38961000,2682.0000
-111.456580,45.38958000,2683.0000
-111.456680,45.38962000,2683.0000
-111.456760,45.38974000,2680.0000
-111.456890,45.38987000,2680.0000
-111.457030,45.38993000,2680.0000
-111.457120,45.39007000,2680.0000
-111.457150,45.39028000,2680.0000
-111.457170,45.39096000,2680.0000
-111.457190,45.39111000,2679.0000
-111.457280,45.39130000,2678.0000
-111.457410,45.39147000,2677.0000
-111.457580,45.39161000,2676.0000
-111.457810,45.39182000,2674.0000
-111.458040,45.39205000,2669.0000
-111.458300,45.39228000,2664.0000
-111.458460,45.39237000,2662.0000
-111.458710,45.39249000,2658.0000
-111.458890,45.39248000,2658.0000
-111.459030,45.39245000,2659.0000
-111.459120,45.39246000,2658.0000
-111.459130,45.39253000,2656.0000
-111.459090,45.39262000,2655.0000
-111.459270,45.39270000,2653.0000
-111.459640,45.39281000,2654.0000
-111.459850,45.39283000,2657.0000
-111.460210,45.39270000,2661.0000
-111.460290,45.39272000,2662.0000
-111.460290,45.39278000,2662.0000
-111.460320,45.39281000,2662.0000
-111.460400,45.39279000,2663.0000
-111.460500,45.39271000,2664.0000
-111.460640,45.39267000,2665.0000
-111.460780,45.39268000,2665.0000
-111.461090,45.39284000,2667.0000
-111.461180,45.39297000,2668.0000
-111.461290,45.39303000,2669.0000
-111.461670,45.39302000,2671.0000
-111.461870,45.39309000,2673.0000
-111.462070,45.39309000,2675.0000
-111.462280,45.39314000,2677.0000
-111.462450,45.39314000,2679.0000
-111.462860,45.39326000,2686.0000
-111.463090,45.39329000,2691.0000
-111.463340,45.39326000,2694.0000
-111.463570,45.39326000,2697.0000
-111.463650,45.39341000,2698.0000
-111.463740,45.39346000,2699.0000
-111.463880,45.39345000,2699.0000
-111.463990,45.39339000,2699.0000
-111.464130,45.39335000,2699.0000
-111.464230,45.39334000,2700.0000
-111.464370,45.39337000,2700.0000
-111.464660,45.39354000,2702.0000
-111.464750,45.39368000,2701.0000
-111.464860,45.39378000,2700.0000
-111.465110,45.39392000,2700.0000
-111.465490,45.39419000,2695.0000
-111.465520,45.39433000,2694.0000
-111.465580,45.39450000,2693.0000</coordinates>
        </LineString>
        <LineString>
          <extrude>true</extrude>
          <tessellate>true</tessellate>
          <coordinates>-111.465740,45.39458000,2693.0000
-111.465740,45.39457000,2693.0000
-111.465710,45.39457000,2693.0000
-111.465580,45.39450000,2693.0000
-111.465520,45.39433000,2694.0000
-111.465490,45.39419000,2695.0000
-111.465110,45.39392000,2700.0000
-111.464860,45.39378000,2700.0000
-111.464750,45.39368000,2701.0000
-111.464660,45.39354000,2702.0000
-111.464370,45.39337000,2700.0000
-111.464230,45.39334000,2700.0000
-111.464130,45.39335000,2699.0000
-111.463990,45.39339000,2699.0000
-111.463880,45.39345000,2699.0000
-111.463740,45.39346000,2699.0000
-111.463650,45.39341000,2698.0000
-111.463570,45.39326000,2697.0000
-111.463340,45.39326000,2694.0000
-111.463090,45.39329000,2691.0000
-111.462860,45.39326000,2686.0000
-111.462450,45.39314000,2679.0000
-111.462280,45.39314000,2677.0000
-111.462070,45.39309000,2675.0000
-111.461870,45.39309000,2673.0000
-111.461670,45.39302000,2671.0000
-111.461290,45.39303000,2669.0000
-111.461180,45.39297000,2668.0000
-111.461090,45.39284000,2667.0000
-111.460780,45.39268000,2665.0000
-111.460640,45.39267000,2665.0000
-111.460500,45.39271000,2664.0000
-111.460400,45.39279000,2663.0000
-111.460320,45.39281000,2662.0000
-111.460290,45.39278000,2662.0000
-111.460290,45.39272000,2662.0000
-111.460210,45.39270000,2661.0000
-111.459850,45.39283000,2657.0000
-111.459640,45.39281000,2654.0000
-111.459600,45.39280000,2654.0000
-111.459540,45.39284000,2653.0000
-111.459560,45.39294000,2652.0000
-111.459450,45.39308000,2648.0000
-111.459380,45.39323000,2648.0000
-111.459260,45.39333000,2646.0000
-111.459040,45.39345000,2645.0000
-111.458940,45.39349000,2645.0000
-111.458820,45.39351000,2645.0000
-111.458730,45.39356000,2645.0000
-111.458590,45.39363000,2646.0000
-111.458420,45.39372000,2646.0000
-111.458120,45.39399000,2638.0000
-111.457770,45.39425000,2627.0000
-111.457270,45.39451000,2620.0000
-111.456950,45.39463000,2615.0000
-111.456750,45.39476000,2611.0000
-111.456660,45.39484000,2610.0000
-111.456530,45.39489000,2609.0000
-111.456320,45.39491000,2609.0000
-111.455940,45.39496000,2606.0000
-111.455740,45.39509000,2602.0000
-111.455570,45.39530000,2599.0000
-111.455480,45.39559000,2594.0000
-111.455300,45.39572000,2593.0000
-111.455200,45.39576000,2594.0000
-111.455050,45.39594000,2590.0000
-111.455000,45.39610000,2585.0000
-111.455020,45.39629000,2580.0000
-111.455140,45.39637000,2577.0000
-111.455230,45.39641000,2575.0000
-111.455270,45.39654000,2573.0000
-111.455320,45.39661000,2572.0000
-111.455220,45.39681000,2569.0000
-111.455060,45.39697000,2566.0000
-111.455020,45.39708000,2563.0000
-111.455060,45.39717000,2560.0000
-111.454980,45.39730000,2558.0000
-111.454900,45.39759000,2552.0000
-111.454680,45.39801000,2546.0000
-111.454650,45.39811000,2544.0000
-111.454570,45.39817000,2543.0000
-111.454390,45.39819000,2544.0000
-111.454290,45.39823000,2543.0000
-111.454180,45.39834000,2539.0000
-111.453850,45.39852000,2536.0000
-111.453460,45.39877000,2533.0000
-111.453500,45.39892000,2529.0000
-111.453480,45.39921000,2522.0000
-111.453410,45.39941000,2519.0000
-111.453410,45.39950000,2517.0000
-111.453340,45.39952000,2517.0000
-111.453200,45.39952000,2517.0000
-111.453180,45.39958000,2515.0000
-111.453210,45.39962000,2514.0000
-111.453130,45.39965000,2513.0000
-111.453020,45.39965000,2513.0000
-111.453010,45.39972000,2511.0000
-111.453190,45.39985000,2507.0000
-111.453100,45.39993000,2503.0000
-111.452930,45.39999000,2501.0000
-111.452750,45.40004000,2499.0000
-111.452730,45.40013000,2496.0000
-111.452820,45.40033000,2491.0000
-111.452700,45.40043000,2490.0000
-111.452560,45.40058000,2487.0000
-111.452500,45.40070000,2484.0000
-111.452490,45.40081000,2483.0000
-111.452430,45.40089000,2481.0000
-111.452320,45.40088000,2480.0000
-111.452170,45.40087000,2479.0000
-111.451970,45.40102000,2473.0000
-111.451910,45.40112000,2471.0000
-111.451900,45.40118000,2470.0000
-111.451870,45.40124000,2468.0000
-111.451800,45.40128000,2467.0000
-111.451610,45.40122000,2466.0000
-111.451480,45.40122000,2465.0000
-111.451310,45.40126000,2464.0000
-111.450960,45.40138000,2461.0000
-111.450530,45.40150000,2458.0000
-111.450240,45.40153000,2458.0000
-111.449820,45.40166000,2458.0000
-111.449570,45.40170000,2457.0000
-111.449290,45.40175000,2455.0000
-111.448850,45.40194000,2451.0000
-111.448720,45.40208000,2449.0000
-111.448650,45.40221000,2446.0000
-111.448660,45.40231000,2445.0000
-111.448840,45.40255000,2440.0000
-111.449010,45.40264000,2438.0000
-111.449200,45.40271000,2437.0000
-111.449560,45.40279000,2436.0000
-111.449620,45.40283000,2436.0000
-111.449550,45.40290000,2434.0000
-111.449360,45.40297000,2432.0000
-111.449290,45.40304000,2430.0000
-111.449190,45.40313000,2427.0000
-111.449060,45.40319000,2425.0000
-111.448870,45.40332000,2421.0000
-111.448840,45.40339000,2421.0000
-111.448840,45.40350000,2421.0000
-111.448710,45.40356000,2419.0000
-111.448340,45.40363000,2418.0000
-111.447860,45.40378000,2414.0000
-111.447590,45.40382000,2412.0000
-111.447250,45.40383000,2412.0000
-111.446850,45.40379000,2409.0000
-111.446290,45.40361000,2406.0000
-111.446050,45.40359000,2404.0000
-111.445710,45.40353000,2402.0000
-111.445470,45.40360000,2400.0000
-111.445270,45.40370000,2399.0000
-111.445120,45.40387000,2397.0000
-111.445040,45.40401000,2398.0000
-111.444920,45.40408000,2398.0000
-111.444590,45.40401000,2392.0000
-111.444320,45.40403000,2388.0000
-111.443900,45.40421000,2386.0000
-111.443590,45.40427000,2383.0000
-111.443180,45.40427000,2381.0000
-111.442790,45.40423000,2379.0000
-111.442450,45.40418000,2376.0000
-111.442080,45.40417000,2375.0000
-111.441450,45.40419000,2375.0000
-111.440730,45.40416000,2370.0000
-111.440340,45.40418000,2370.0000
-111.440110,45.40428000,2372.0000
-111.439790,45.40438000,2371.0000
-111.439270,45.40468000,2374.0000
-111.438830,45.40479000,2374.0000
-111.438350,45.40506000,2374.0000
-111.437860,45.40537000,2371.0000
-111.437440,45.40544000,2366.0000
-111.437130,45.40556000,2362.0000
-111.436670,45.40588000,2358.0000
-111.436330,45.40634000,2355.0000
-111.436130,45.40672000,2353.0000
-111.436080,45.40700000,2354.0000
-111.436020,45.40721000,2355.0000
-111.435590,45.40784000,2352.0000
-111.435350,45.40822000,2353.0000
-111.434720,45.40860000,2352.0000
-111.434400,45.40884000,2359.0000
-111.433500,45.40915000,2355.0000
-111.433040,45.40927000,2353.0000
-111.432280,45.40938000,2346.0000
-111.432040,45.40952000,2344.0000
-111.431780,45.40982000,2343.0000
-111.431680,45.41019000,2347.0000
-111.431500,45.41050000,2345.0000
-111.431530,45.41077000,2345.0000
-111.431580,45.41090000,2346.0000
-111.431580,45.41099000,2346.0000
-111.431490,45.41110000,2344.0000
-111.431410,45.41115000,2343.0000
-111.431310,45.41118000,2341.0000
-111.431190,45.41120000,2340.0000
-111.431100,45.41118000,2337.0000
-111.431170,45.41112000,2338.0000
-111.431330,45.41107000,2340.0000
-111.431320,45.41095000,2340.0000
-111.431240,45.41079000,2336.0000
-111.431130,45.41069000,2332.0000
-111.431080,45.41061000,2330.0000
-111.430960,45.41053000,2325.0000
-111.430940,45.41061000,2325.0000
-111.430960,45.41068000,2326.0000
-111.430860,45.41063000,2322.0000
-111.430800,45.41054000,2319.0000
-111.430700,45.41053000,2316.0000
-111.430650,45.41056000,2315.0000
-111.430580,45.41054000,2312.0000
-111.430510,45.41043000,2308.0000
-111.430400,45.41033000,2303.0000
-111.430320,45.41036000,2301.0000
-111.430270,45.41047000,2301.0000
-111.430190,45.41049000,2299.0000
-111.430150,45.41039000,2297.0000
-111.430050,45.41037000,2295.0000
-111.429970,45.41045000,2294.0000
-111.429860,45.41064000,2295.0000
-111.429630,45.41071000,2290.0000
-111.429370,45.41075000,2283.0000
-111.428910,45.41087000,2277.0000
-111.428560,45.41112000,2272.0000
-111.428240,45.41126000,2268.0000
-111.427680,45.41136000,2263.0000
-111.427070,45.41165000,2255.0000
-111.426700,45.41187000,2252.0000
-111.426360,45.41192000,2248.0000
-111.425450,45.41201000,2241.0000
-111.424200,45.41212000,2225.0000
-111.423630,45.41216000,2216.0000
-111.423300,45.41222000,2210.0000
-111.422730,45.41232000,2210.0000
-111.422600,45.41242000,2211.0000
-111.421880,45.41267000,2206.0000
-111.420660,45.41308000,2196.0000
-111.420500,45.41318000,2193.0000
-111.420440,45.41333000,2190.0000
-111.420260,45.41345000,2188.0000
-111.419830,45.41362000,2182.0000
-111.419370,45.41393000,2179.0000
-111.419120,45.41412000,2179.0000
-111.418960,45.41463000,2186.0000
-111.418780,45.41489000,2187.0000
-111.418320,45.41514000,2180.0000
-111.417370,45.41535000,2172.0000
-111.417150,45.41545000,2172.0000
-111.416530,45.41549000,2163.0000
-111.416170,45.41561000,2158.0000
-111.415700,45.41585000,2155.0000
-111.415280,45.41614000,2161.0000
-111.414800,45.41658000,2165.0000
-111.414490,45.41695000,2167.0000
-111.413950,45.41723000,2169.0000
-111.413700,45.41723000,2167.0000
-111.413050,45.41709000,2157.0000
-111.412810,45.41712000,2156.0000
-111.412510,45.41725000,2158.0000
-111.411960,45.41739000,2155.0000
-111.411670,45.41739000,2153.0000
-111.410960,45.41731000,2148.0000
-111.410470,45.41721000,2144.0000
-111.409890,45.41703000,2139.0000
-111.409010,45.41679000,2132.0000
-111.408640,45.41671000,2129.0000
-111.408360,45.41668000,2129.0000
-111.408000,45.41672000,2128.0000
-111.407820,45.41681000,2126.0000
-111.407700,45.41693000,2124.0000
-111.407590,45.41703000,2124.0000
-111.407420,45.41716000,2123.0000
-111.407250,45.41684000,2117.0000
-111.407080,45.41674000,2116.0000
-111.406780,45.41649000,2109.0000
-111.406820,45.41639000,2108.0000
-111.407160,45.41612000,2106.0000
-111.407340,45.41599000,2107.0000
-111.407420,45.41592000,2108.0000
-111.407440,45.41585000,2107.0000
-111.407410,45.41577000,2107.0000
-111.407270,45.41578000,2104.0000
-111.407120,45.41587000,2101.0000
-111.406270,45.41606000,2084.0000
-111.406040,45.41613000,2078.0000
-111.405930,45.41623000,2078.0000
-111.405840,45.41629000,2076.0000
-111.405780,45.41637000,2076.0000
-111.405720,45.41639000,2075.0000
-111.405650,45.41625000,2071.0000
-111.405650,45.41618000,2069.0000
-111.405670,45.41612000,2069.0000
-111.405660,45.41606000,2068.0000
-111.405530,45.41612000,2065.0000
-111.405460,45.41619000,2066.0000
-111.405340,45.41616000,2065.0000
-111.405330,45.41593000,2063.0000
-111.405210,45.41594000,2062.0000
-111.404980,45.41607000,2062.0000
-111.404880,45.41613000,2062.0000
-111.404770,45.41617000,2061.0000
-111.404450,45.41602000,2055.0000
-111.404290,45.41598000,2049.0000
-111.404210,45.41608000,2046.0000
-111.404070,45.41615000,2041.0000
-111.403790,45.41608000,2033.0000
-111.403700,45.41613000,2031.0000
-111.403610,45.41646000,2029.0000
-111.403490,45.41675000,2027.0000
-111.403380,45.41686000,2025.0000
-111.403270,45.41684000,2022.0000
-111.403140,45.41670000,2018.0000
-111.402780,45.41640000,2010.0000
-111.402640,45.41637000,2006.0000
-111.402350,45.41681000,2000.0000
-111.402140,45.41692000,1998.0000
-111.401950,45.41708000,1995.0000
-111.401660,45.41740000,1986.0000
-111.400390,45.41855000,1964.0000
-111.400160,45.41911000,1963.0000
-111.399780,45.41964000,1959.0000
-111.399330,45.42017000,1956.0000
-111.399140,45.42106000,1951.0000
-111.398470,45.42237000,1944.0000
-111.397540,45.42324000,1938.0000
-111.397230,45.42356000,1935.0000
-111.396530,45.42478000,1932.0000
-111.396320,45.42503000,1932.0000
-111.396470,45.42523000,1935.0000
-111.396170,45.42631000,1933.0000
-111.395610,45.42673000,1923.0000
-111.395480,45.42713000,1927.0000
-111.394720,45.42792000,1924.0000
-111.393940,45.42832000,1918.0000
-111.393630,45.42838000,1916.0000
-111.392900,45.42905000,1910.0000
-111.392060,45.42977000,1907.0000
-111.391440,45.43023000,1906.0000
-111.391130,45.43058000,1903.0000
-111.390860,45.43114000,1896.0000
-111.390270,45.43164000,1892.0000
-111.389870,45.43215000,1889.0000
-111.389670,45.43243000,1889.0000
-111.389510,45.43262000,1889.0000
-111.388690,45.43310000,1889.0000
-111.388440,45.43330000,1889.0000
-111.388180,45.43366000,1887.0000
-111.388040,45.43435000,1888.0000
-111.388040,45.43494000,1892.0000
-111.387880,45.43517000,1890.0000
-111.387280,45.43589000,1884.0000
-111.386400,45.43757000,1878.0000
-111.386400,45.43779000,1878.0000
-111.386650,45.43783000,1881.0000
-111.386550,45.43822000,1880.0000
-111.386330,45.43853000,1878.0000
-111.385880,45.43863000,1875.0000
-111.385460,45.43930000,1881.0000
-111.385060,45.43955000,1876.0000
-111.384520,45.44034000,1879.0000
-111.384090,45.44136000,1873.0000
-111.383730,45.44205000,1877.0000
-111.382990,45.44272000,1870.0000
-111.382620,45.44337000,1871.0000
-111.382470,45.44395000,1870.0000
-111.382500,45.44429000,1871.0000
-111.381880,45.44471000,1867.0000
-111.380750,45.44613000,1865.0000
-111.379890,45.44681000,1865.0000
-111.379390,45.44736000,1865.0000
-111.379320,45.44756000,1866.0000
-111.379110,45.44793000,1868.0000
-111.378380,45.44849000,1864.0000
-111.378220,45.44878000,1865.0000</coordinates>
        </LineString>
      </MultiGeometry>
    </Placemark>
  </Document>
</kml>

